BAGNUMIDENTIFICATIE,B_NUMMERAANDUIDING,OPENBARERUIMTENAAM,B_OPENBARERUIMTE,POSTCODE,B_POSTCODE,HUISNUMMER,B_HUISNUMMER,HUISLETTER,B_HUISLETTER,HUISNUMMERTOEVOEGING,B_HUISNUMMERTOEVOEGING,WOONPLAATSNAAM,B_WOONPLAATSNAAM,x,y
9200007684716,9200007684716,Bouwerschapweg,Bouwerschapweg,9791TG,9791TG,29,29.0,A,a,,,Ten Boer,Ten Boer,746615.4711745045,7034174.166614736
9200007675397,9200007675397,Bouwerschapweg,Bouwerschapweg,9791TJ,9791TJ,38,38.0,A,a,,,Ten Boer,Ten Boer,746314.7708500994,7033721.307360471
9200007674426,9200007674426,Burgemeester Triezenbergstraat,Burgemeester Triezenbergstraat,9791CC,9791CC,14,14.0,A,a,,,Ten Boer,Ten Boer,745407.2851755866,7033925.295543343
9200007676821,9200007676821,Dobbestraat,Dobbestraat,9795PE,9795PE,1,1.0,A,a,,,Woltersum,Woltersum,749124.4711508959,7033435.084184277
9200007676822,9200007676822,Dobbestraat,Dobbestraat,9795PE,9795PE,1,1.0,B,b,,,Woltersum,Woltersum,749132.8829521687,7033437.38766138
9200007676454,9200007676454,Bloemhof,Bloemhof,9791LA,9791LA,2,2.0,A,a,,,Ten Boer,Ten Boer,745306.0897971393,7034531.360737565
9200007675185,9200007675185,Bloemhof,Bloemhof,9791LA,9791LA,2,2.0,B,b,,,Ten Boer,Ten Boer,745297.0493406744,7034522.641638812
9200007675687,9200007675687,Bloemhof,Bloemhof,9791LA,9791LA,2,2.0,C,c,,,Ten Boer,Ten Boer,745288.0089038269,7034513.922539143
9200007676406,9200007676406,Bloemhof,Bloemhof,9791LA,9791LA,2,2.0,D,d,,,Ten Boer,Ten Boer,745278.9684865959,7034505.20343857
9200007674955,9200007674955,Bloemstraat,Bloemstraat,9791CX,9791CX,10,10.0,A,a,,,Ten Boer,Ten Boer,744778.8353078732,7034101.436504523
9200007674956,9200007674956,Boersterweg,Boersterweg,9791HE,9791HE,4,4.0,A,a,,,Ten Boer,Ten Boer,745001.4900347051,7034752.243721531
9200007674203,9200007674203,Boersterweg,Boersterweg,9791HA,9791HA,5,5.0,A,a,,,Ten Boer,Ten Boer,744944.6855850574,7034741.52934525
9200007674061,9200007674061,Boersterweg,Boersterweg,9791HA,9791HA,5,5.0,D,d,,,Ten Boer,Ten Boer,744912.1044817843,7034766.014301913
9200007674740,9200007674740,Boltweg,Boltweg,9791AC,9791AC,1,1.0,A,a,,,Ten Boer,Ten Boer,745883.9260431487,7033761.024782857
9200007674278,9200007674278,Boltweg,Boltweg,9791AD,9791AD,4,4.0,A,a,,,Ten Boer,Ten Boer,745816.858279326,7033673.661391199
9200007674794,9200007674794,Gaykingastraat,Gaykingastraat,9791CE,9791CE,1,1.0,A,a,,,Ten Boer,Ten Boer,745196.3214006927,7034597.717325776
9200007675411,9200007675411,Gaykingastraat,Gaykingastraat,9791CE,9791CE,1,1.0,B,b,,,Ten Boer,Ten Boer,745204.8795609324,7034594.093363399
9200007675357,9200007675357,Gaykingastraat,Gaykingastraat,9791CE,9791CE,1,1.0,C,c,,,Ten Boer,Ten Boer,745210.5912795056,7034588.215760345
9200007675038,9200007675038,Gaykingastraat,Gaykingastraat,9791CG,9791CG,31,31.0,A,a,,,Ten Boer,Ten Boer,745656.3305113532,7033942.77979279
9200007674274,9200007674274,Gaykingastraat,Gaykingastraat,9791CG,9791CG,31,31.0,B,b,,,Ten Boer,Ten Boer,745656.3305113532,7033942.77979279
9200007675606,9200007675606,Gaykingastraat,Gaykingastraat,9791CG,9791CG,33,33.0,A,a,,,Ten Boer,Ten Boer,745705.6757316586,7033953.32644491
9200007674280,9200007674280,Gaykingastraat,Gaykingastraat,9791CG,9791CG,33,33.0,B,b,,,Ten Boer,Ten Boer,745705.6757316586,7033953.32644491
9200007676170,9200007676170,Gaykingastraat,Gaykingastraat,9791CG,9791CG,33,33.0,C,c,,,Ten Boer,Ten Boer,745705.6757316586,7033953.32644491
9200007675726,9200007675726,Hendrik Westerstraat,Hendrik Westerstraat,9791CT,9791CT,4,4.0,A,a,,,Ten Boer,Ten Boer,744816.7253628258,7034182.040382351
9200007675180,9200007675180,Hendrik Westerstraat,Hendrik Westerstraat,9791CT,9791CT,20,20.0,A,a,,,Ten Boer,Ten Boer,744889.115802867,7034050.8627193505
9200007675355,9200007675355,Hoofdweg,Hoofdweg,9796PA,9796PA,13,13.0,A,a,,,Sint Annen,Sint Annen,742032.8760810916,7038178.0473488355
9200007675809,9200007675809,Hoofdweg,Hoofdweg,9796PC,9796PC,26,26.0,A,a,,,Sint Annen,Sint Annen,741768.9044588293,7038497.558881564
9200007675066,9200007675066,Hoofdweg,Hoofdweg,9796PB,9796PB,37,37.0,A,a,,,Sint Annen,Sint Annen,741813.308447782,7038426.97927316
9200007674168,9200007674168,Hoofdweg,Hoofdweg,9795PA,9795PA,13,13.0,A,a,,,Woltersum,Woltersum,749422.126909627,7033337.645446491
9200007675747,9200007675747,Jan Zijlstraat,Jan Zijlstraat,9792PT,9792PT,1,1.0,A,a,,,Ten Post,Ten Post,748946.643066097,7037997.629448642
9200007675207,9200007675207,Jan Zijlstraat,Jan Zijlstraat,9792PT,9792PT,31,31.0,A,a,,,Ten Post,Ten Post,748729.8364513951,7038035.768870562
9200007675103,9200007675103,Jan Zijlstraat,Jan Zijlstraat,9792PT,9792PT,31,31.0,B,b,,,Ten Post,Ten Post,748721.2624538763,7038038.564888257
9200007674122,9200007674122,Jan Zijlstraat,Jan Zijlstraat,9792PT,9792PT,31,31.0,C,c,,,Ten Post,Ten Post,748712.4345273293,7038041.444298015
9200007673960,9200007673960,Johan Rengersstraat,Johan Rengersstraat,9792PW,9792PW,11,11.0,A,a,,,Ten Post,Ten Post,748960.6566214625,7038302.655824345
9200007674679,9200007674679,G.N. Schutterlaan,G.N. Schutterlaan,9797PA,9797PA,7,7.0,A,a,,,Thesinge,Thesinge,740386.31741864,7032382.074021879
9200007676604,9200007676604,Rijksweg,Rijksweg,9791AA,9791AA,57,57.0,A,a,,,Ten Boer,Ten Boer,745378.9896925,7033462.694390672
9200007674197,9200007674197,Rijksweg,Rijksweg,9791AB,9791AB,97,97.0,A,a,,,Ten Boer,Ten Boer,745910.4150369935,7034010.309707565
9200007676605,9200007676605,Rijksweg,Rijksweg,9791AB,9791AB,99,99.0,A,a,,,Ten Boer,Ten Boer,745906.6637433778,7034090.382611932
9200007676606,9200007676606,Rijksweg,Rijksweg,9792PC,9792PC,113,113.0,B,b,,,Ten Post,Ten Post,747753.6558952401,7036385.059799579
9200007675787,9200007675787,Rijksweg,Rijksweg,9792PC,9792PC,119,119.0,A,a,,,Ten Post,Ten Post,748049.157582393,7036965.874919752
9200007675280,9200007675280,Rijksweg,Rijksweg,9792PC,9792PC,139,139.0,A,a,,,Ten Post,Ten Post,748760.5649704224,7037634.7807783075
9200007676734,9200007676734,Kerkstraat,Kerkstraat,9797PD,9797PD,9,9.0,A,a,,,Thesinge,Thesinge,740488.7590510574,7032572.964241386
9200007675940,9200007675940,Kerkstraat,Kerkstraat,9797PD,9797PD,9,9.0,B,b,,,Thesinge,Thesinge,740481.9615931186,7032536.229848651
9200007675045,9200007675045,Kievitstraat,Kievitstraat,9791ER,9791ER,13,13.0,A,a,,,Ten Boer,Ten Boer,744690.4633613442,7034354.256207633
9200007675808,9200007675808,Kievitstraat,Kievitstraat,9791ER,9791ER,13,13.0,B,b,,,Ten Boer,Ten Boer,744697.1269381224,7034347.8432607865
9200007674528,9200007674528,Kollerijweg,Kollerijweg,9795PL,9795PL,7,7.0,A,a,,,Woltersum,Woltersum,749603.9970956672,7033203.043513912
9200007674854,9200007674854,Lageweg,Lageweg,9798TG,9798TG,22,22.0,A,a,,,Garmerwolde,Garmerwolde,740887.4949431679,7031509.046602244
9200007676553,9200007676553,Medenweg,Medenweg,9792TB,9792TB,8,8.0,A,a,,,Ten Post,Ten Post,752946.5972346116,7036927.955434383
9200007674927,9200007674927,Meeuwstraat,Meeuwstraat,9791GE,9791GE,2,2.0,B,b,,,Ten Boer,Ten Boer,744866.4584324682,7034501.910172994
9200007674761,9200007674761,Molenweg,Molenweg,9797PS,9797PS,9,9.0,A,a,,,Thesinge,Thesinge,740560.9790995845,7032908.546719197
9200007676263,9200007676263,Molenweg,Molenweg,9797PS,9797PS,21,21.0,A,a,,,Thesinge,Thesinge,740622.6768938951,7033215.486642733
9200007674625,9200007674625,Redgerstraat,Redgerstraat,9791BH,9791BH,1,1.0,A,a,,,Ten Boer,Ten Boer,745205.5590109067,7033462.542207961
9200007674863,9200007674863,Stadsweg,Stadsweg,9792RG,9792RG,56,56.0,A,a,,,Ten Post,Ten Post,747574.677601908,7037418.916809684
9200007676028,9200007676028,Boersterweg,Boersterweg,9791HE,9791HE,10,10.0,A,a,,,Ten Boer,Ten Boer,744930.0443666792,7034833.367764624
9200007675552,9200007675552,Boersterweg,Boersterweg,9791HE,9791HE,10,10.0,B,b,,,Ten Boer,Ten Boer,744913.1320587473,7034857.852764925
9200007674587,9200007674587,Dorpsweg,Dorpsweg,9798PG,9798PG,46,46.0,A,a,,,Garmerwolde,Garmerwolde,740195.6840726174,7028811.851875733
9200007675928,9200007675928,Meeuwstraat,Meeuwstraat,9791GE,9791GE,2,2.0,A,a,,,Ten Boer,Ten Boer,744876.4752659538,7034484.337298381
9200007674199,9200007674199,Borgweg,Borgweg,9794PA,9794PA,19,19.0,A,a,,,Lellens,Lellens,746960.4142201284,7038957.349219642
9200007676652,9200007676652,Boltweg,Boltweg,9791AD,9791AD,18,18.0,A,a,,,Ten Boer,Ten Boer,745612.9287300463,7033479.751471137
9200007676599,9200007676599,Hendrik Westerstraat,Hendrik Westerstraat,9791CT,9791CT,26,26.0,A,a,,,Ten Boer,Ten Boer,745049.6873860733,7034182.484234663
9200007674054,9200007674054,Ticheldobben,Ticheldobben,9791CZ,9791CZ,1,1.0,A,a,,,Ten Boer,Ten Boer,744723.8057622254,7034057.956788112
9200007675554,9200007675554,Ticheldobben,Ticheldobben,9791CZ,9791CZ,2,2.0,A,a,,,Ten Boer,Ten Boer,744655.1889543743,7034079.326495951
9200007675796,9200007675796,Ticheldobben,Ticheldobben,9791CZ,9791CZ,2,2.0,B,b,,,Ten Boer,Ten Boer,744664.2410575304,7034070.260719783
9200007675640,9200007675640,Ticheldobben,Ticheldobben,9791CZ,9791CZ,2,2.0,C,c,,,Ten Boer,Ten Boer,744673.2948387968,7034061.1965857865
9200007675123,9200007675123,Ticheldobben,Ticheldobben,9791CZ,9791CZ,2,2.0,D,d,,,Ten Boer,Ten Boer,744729.298938435,7033977.762976906
9200007675472,9200007675472,Ticheldobben,Ticheldobben,9791CZ,9791CZ,2,2.0,E,e,,,Ten Boer,Ten Boer,744739.359011292,7033973.327946571
9200007675974,9200007675974,Ticheldobben,Ticheldobben,9791CZ,9791CZ,2,2.0,F,f,,,Ten Boer,Ten Boer,744757.2325613113,7033955.2943034535
9200007675191,9200007675191,Ticheldobben,Ticheldobben,9791CZ,9791CZ,2,2.0,G,g,,,Ten Boer,Ten Boer,744761.6081640115,7033945.209288153
9200007676845,9200007676845,W.F. Hildebrandstraat,W.F. Hildebrandstraat,9798PH,9798PH,15,15.0,B,b,,,Garmerwolde,Garmerwolde,740275.894575978,7029251.941392006
9200007675300,9200007675300,Wedmanstraat,Wedmanstraat,9791BJ,9791BJ,23,23.0,A,a,,,Ten Boer,Ten Boer,745093.5431292665,7033522.895841203
9200007676018,9200007676018,Wedmanstraat,Wedmanstraat,9791BJ,9791BJ,25,25.0,A,a,,,Ten Boer,Ten Boer,745093.5431292665,7033522.895841203
9200007676489,9200007676489,Wigboldstraat,Wigboldstraat,9791CR,9791CR,16,16.0,A,a,,,Ten Boer,Ten Boer,745078.5705517272,7034288.668896999
9200007673921,9200007673921,Wigboldstraat,Wigboldstraat,9791CR,9791CR,18,18.0,A,a,,,Ten Boer,Ten Boer,745085.1768889243,7034281.418556593
9200007674031,9200007674031,Woldjerweg,Woldjerweg,9792TC,9792TC,2,2.0,A,a,,,Ten Post,Ten Post,750646.2312162663,7036565.330702444
9200007674809,9200007674809,Woldjerweg,Woldjerweg,9792TC,9792TC,21,21.0,A,a,,,Ten Post,Ten Post,751741.8816306648,7035353.025469864
9200007676609,9200007676609,Rijksweg,Rijksweg,9793PA,9793PA,257,257.0,A,a,,,Winneweer,Winneweer,750165.4781723408,7040500.660030417
9200007676632,9200007676632,Rijksweg,Rijksweg,9793PA,9793PA,257,257.0,B,b,,,Winneweer,Winneweer,750058.6535561094,7040556.23720179
9200007676610,9200007676610,Rijksweg,Rijksweg,9793PA,9793PA,257,257.0,C,c,,,Winneweer,Winneweer,750063.3537995534,7040621.637045471
9200007675587,9200007675587,Schepperij,Schepperij,9791LW,9791LW,11,11.0,A,a,,,Ten Boer,Ten Boer,746057.3637426497,7034924.40287579
9200007674686,9200007674686,Schepperij,Schepperij,9791LW,9791LW,11,11.0,B,b,,,Ten Boer,Ten Boer,746064.2688262,7034931.827193059
9200007676148,9200007676148,Stadsweg,Stadsweg,9791KE,9791KE,20,20.0,A,a,,,Ten Boer,Ten Boer,744799.289318104,7034236.144036124
9200007674840,9200007674840,Stadsweg,Stadsweg,9791KE,9791KE,20,20.0,B,b,,,Ten Boer,Ten Boer,744799.289318104,7034236.144036124
9200007675803,9200007675803,Stadsweg,Stadsweg,9791KE,9791KE,20,20.0,C,c,,,Ten Boer,Ten Boer,744799.289318104,7034236.144036124
9200007675842,9200007675842,Stadsweg,Stadsweg,9791KE,9791KE,22,22.0,A,a,,,Ten Boer,Ten Boer,744817.80710932,7034266.312748028
9200007673979,9200007673979,Stadsweg,Stadsweg,9791KE,9791KE,22,22.0,B,b,,,Ten Boer,Ten Boer,744817.80710932,7034266.312748028
9200007676609,9200007676609,Rijksweg,Rijksweg,9793PA,9793PA,257,257.0,A,a,,,Winneweer,Winneweer,750165.4781723408,7040500.660030417
9200007674056,9200007674056,Boersterweg,Boersterweg,9796TB,9796TB,24,24.0,A,a,,,Sint Annen,Sint Annen,744352.904880025,7037559.520042444
9200007676863,9200007676863,Wolddijk,Wolddijk,9791TD,9791TD,1,1.0,A,a,,,Ten Boer,Ten Boer,746937.431753902,7035671.253475185
9200007676825,9200007676825,Hendrik Westerstraat,Hendrik Westerstraat,9791CT,9791CT,26,26.0,C,c,,,Ten Boer,Ten Boer,745080.6817671241,7034174.869189757
9200007674287,9200007674287,Boltweg,Boltweg,9791AD,9791AD,2,2.0,A,a,,,Ten Boer,Ten Boer,745791.8017118442,7033705.550478384
9200007675923,9200007675923,Boltweg,Boltweg,9791AD,9791AD,2,2.0,B,b,,,Ten Boer,Ten Boer,745785.9586094405,7033699.005986794
9200007676031,9200007676031,Boltweg,Boltweg,9791AD,9791AD,2,2.0,C,c,,,Ten Boer,Ten Boer,745783.5690124681,7033688.828531135
9200007675247,9200007675247,Swierengapad,Swierengapad,9791EC,9791EC,1,1.0,A,a,,,Ten Boer,Ten Boer,745027.4431097272,7033987.418462266
9200007676451,9200007676451,Lageweg,Lageweg,9797TA,9797TA,13,13.0,A,a,,,Thesinge,Thesinge,739770.5343428656,7030866.218678801
9200007676789,9200007676789,Oude Rijksweg,Oude Rijksweg,9798PA,9798PA,11,11.0,A,a,,,Garmerwolde,Garmerwolde,741052.4013952776,7028444.362167554
9200007676823,9200007676823,Grasdijkweg,Grasdijkweg,9798TC,9798TC,2,2.0,A,a,,,Garmerwolde,Garmerwolde,742443.5289452844,7028765.062598778
9200007674305,9200007674305,Molenpad,Molenpad,9796PD,9796PD,2,2.0,A,a,,,Sint Annen,Sint Annen,741965.5051564501,7038202.756481963
9200007676664,9200007676664,G.N. Schutterlaan,G.N. Schutterlaan,9797PC,9797PC,10,10.0,A,a,,,Thesinge,Thesinge,740184.0275238565,7032345.765525806
9200007676671,9200007676671,Grasdijkweg,Grasdijkweg,9798TC,9798TC,31,31.0,A,a,,,Garmerwolde,Garmerwolde,741918.9151294649,7028672.898069464
9200007684586,9200007684586,Rijksweg,Rijksweg,9792PC,9792PC,119,119.0,B,b,,,Ten Post,Ten Post,748071.5503667673,7036994.865067473
9200007676945,9200007676945,Marskramer,Marskramer,9791MB,9791MB,1,1.0,A,a,,,Ten Boer,Ten Boer,745583.1562569988,7034269.36757826
9200007676946,9200007676946,Marskramer,Marskramer,9791MB,9791MB,1,1.0,B,b,,,Ten Boer,Ten Boer,745580.4843073379,7034266.612437796
9200007676947,9200007676947,Marskramer,Marskramer,9791MB,9791MB,1,1.0,C,c,,,Ten Boer,Ten Boer,745577.621294712,7034262.985821221
9200007684668,9200007684668,Bloemhof,Bloemhof,9791LA,9791LA,1,1.0,A,a,,,Ten Boer,Ten Boer,745380.4029722922,7034560.675163696
9200007677009,9200007677009,Boltweg,Boltweg,9791AD,9791AD,26,26.0,A,a,,,Ten Boer,Ten Boer,745905.0512862434,7033580.441134895
9200007676597,9200007676597,Stadsweg,Stadsweg,9792RE,9792RE,113,113.0,A,a,,,Ten Post,Ten Post,748640.1772575193,7039118.93818529
9200007677078,9200007677078,Borgweg,Borgweg,9794PA,9794PA,9,9.0,A,a,,,Lellens,Lellens,746986.4179307573,7038791.228237082
9200007677079,9200007677079,Hoofdweg,Hoofdweg,9796PB,9796PB,33,33.0,A,a,,,Sint Annen,Sint Annen,741867.6942170811,7038379.073346648
9200007674056,9200007674056,Boersterweg,Boersterweg,9796TB,9796TB,24,24.0,A,a,,,Sint Annen,Sint Annen,744352.904880025,7037559.520042444
9200007675928,9200007675928,Meeuwstraat,Meeuwstraat,9791GE,9791GE,2,2.0,A,a,,,Ten Boer,Ten Boer,744876.4752659538,7034484.337298381
9200007674731,9200007674731,Bloemstraat,Bloemstraat,9791CX,9791CX,8,8.0,A,a,,,Ten Boer,Ten Boer,744778.8353078732,7034101.436504523
9200007674629,9200007674629,Boersterweg,Boersterweg,9791HA,9791HA,5,5.0,B,b,,,Ten Boer,Ten Boer,744934.1359314116,7034745.242809019
17200000013167,17200000013167,Felland,Kerklaan,9753TA,9751NK,9,1.0,A,,2,,Haren Gn,Haren Gn,735578.4708968317,7015551.315171616
17200000013244,17200000013244,Kerkstraat,Kerkstraat,9751BC,9751BC,12,12.0,B,b,,,Haren Gn,Haren Gn,735471.3712161499,7015072.735783126
17200000019586,17200000019586,Lutsborgsweg,Lutsborgsweg,9752KG,9752VT,51,51.0,,,53,,Haren Gn,Haren Gn,735630.45469619,7012271.653876579
17200000014126,17200000014126,Meentweg,Meentweg,9756AN,9756AN,20,20.0,A,a,,,Glimmen,Glimmen,737378.6549679599,7008323.660122664
17200000352931,17200000352931,Rijksstraatweg,Rijksstraatweg,9756AE,9756AE,4,4.0,A,a,,,Glimmen,Glimmen,737462.865553868,7010560.542114727
17200000015939,17200000015939,Prof. Dr. J.C. Schouteln,Prof. Dr. J.C. Schoutelaan,9751PM,9751PM,2,2.0,,,,,Haren Gn,Haren Gn,735429.919199996,7015789.459742368
17200000015940,17200000015940,Prof. Dr. J.C. Schouteln,Prof. Dr. J.C. Schoutelaan,9751PM,9751PM,4,4.0,,,,,Haren Gn,Haren Gn,735470.2644316996,7015812.1428394
17200000015952,17200000015952,Prof. Dr. J.C. Schouteln,Prof. Dr. J.C. Schoutelaan,9751PM,9751PM,18,18.0,,,,,Haren Gn,Haren Gn,735690.454487412,7015933.588169697
17200000015954,17200000015954,Prof. Dr. J.C. Schouteln,Prof. Dr. J.C. Schoutelaan,9751PM,9751PM,22,22.0,,,,,Haren Gn,Haren Gn,735790.0830192517,7015978.603595803
17200000015955,17200000015955,Prof. Dr. J.C. Schouteln,Prof. Dr. J.C. Schoutelaan,9751PM,9751PM,24,24.0,,,,,Haren Gn,Haren Gn,735808.4858738617,7015992.264731724
17200000015942,17200000015942,Prof. Dr. J.C. Schouteln,Prof. Dr. J.C. Schoutelaan,9751PM,9751PM,6,6.0,,,,,Haren Gn,Haren Gn,735480.4231290402,7015818.646926457
17200000015943,17200000015943,Prof. Dr. J.C. Schouteln,Prof. Dr. J.C. Schoutelaan,9751PL,9751PL,7,7.0,,,,,Haren Gn,Haren Gn,735517.8233981839,7015773.050943701
17200000015945,17200000015945,Prof. Dr. J.C. Schouteln,Prof. Dr. J.C. Schoutelaan,9751PL,9751PL,9,9.0,,,,,Haren Gn,Haren Gn,735541.9558899694,7015784.603769642
17200000015938,17200000015938,Prof. Dr. J.C. Schouteln,Prof. Dr. J.C. Schoutelaan,9751PL,9751PL,1,1.0,,,,,Haren Gn,Haren Gn,735471.0051133529,7015740.453378003
17200000015941,17200000015941,Prof. Dr. J.C. Schouteln,Prof. Dr. J.C. Schoutelaan,9751PL,9751PL,5,5.0,,,,,Haren Gn,Haren Gn,735494.3020704027,7015760.51292574
17200000015953,17200000015953,Prof. Dr. J.C. Schouteln,Prof. Dr. J.C. Schoutelaan,9751PM,9751PM,20,20.0,,,,,Haren Gn,Haren Gn,735774.2760683595,7015969.757203603
17200000015956,17200000015956,Prof. Dr. J.C. Schouteln,Prof. Dr. J.C. Schoutelaan,9751PM,9751PM,26,26.0,,,,,Haren Gn,Haren Gn,735825.547418582,7016000.4621282965
17200000015944,17200000015944,Prof. Dr. J.C. Schouteln,Prof. Dr. J.C. Schoutelaan,9751PM,9751PM,8,8.0,,,,,Haren Gn,Haren Gn,735502.2022186497,7015829.961137179
17200000015946,17200000015946,Prof. Dr. J.C. Schouteln,Prof. Dr. J.C. Schoutelaan,9751PM,9751PM,10,10.0,,,,,Haren Gn,Haren Gn,735509.1917413013,7015833.180741508
17200000015947,17200000015947,Prof. Dr. J.C. Schouteln,Prof. Dr. J.C. Schoutelaan,9751PL,9751PL,11,11.0,,,,,Haren Gn,Haren Gn,735565.7974464312,7015797.263101349
17200000015948,17200000015948,Prof. Dr. J.C. Schouteln,Prof. Dr. J.C. Schoutelaan,9751PM,9751PM,12,12.0,,,,,Haren Gn,Haren Gn,735532.4556508972,7015846.1388158025
17200000015949,17200000015949,Prof. Dr. J.C. Schouteln,Prof. Dr. J.C. Schoutelaan,9751PL,9751PL,13,13.0,,,,,Haren Gn,Haren Gn,735591.0914405732,7015809.847637394
17200000015950,17200000015950,Prof. Dr. J.C. Schouteln,Prof. Dr. J.C. Schoutelaan,9751PM,9751PM,14,14.0,,,,,Haren Gn,Haren Gn,735540.8633577187,7015851.0034519695
17200000011824,17200000011824,Felland,Felland,9753TA,9753TA,1,1.0,A,a,,,Haren Gn,Haren Gn,737977.4914517784,7012094.628364511
9200007684892,9200007684892,Verlaatweg,Verlaatweg,9791DR,9791DR,11,14.0,,,,,Ten Boer,Ten Boer,746208.0335317358,7036179.923861828
9200007684893,9200007684893,Verlaatweg,Verlaatweg,9791DR,9791DR,13,16.0,,,,,Ten Boer,Ten Boer,746197.852936521,7036192.449929725
17200000020551,17200000020551,Hoornsedijk,Hoornsedijk,9752XK,9752XK,28,28.0,A,a,6,6,Haren Gn,Haren Gn,732341.5238993866,7013775.152529523
17200000014942,17200000014942,Nieuwe Schoolweg,Nieuwe Schoolweg,9756BB,9756BA,5,5.0,,,,,Glimmen,Glimmen,737928.0767148334,7009263.628751311
17200000020500,17200000020500,Oude Badweg,Oude Badweg,9752XP,9752XP,154,154.0,A,a,9,9,Haren Gn,Haren Gn,731031.5738904348,7015108.465440352
17200000020498,17200000020498,Oude Badweg,Oude Badweg,9752XP,9752XP,154,154.0,A,a,7,7,Haren Gn,Haren Gn,731050.2376929107,7015129.855647149
17200000352352,17200000352352,Oranjedreef,Westerse Drift,9752LV,9752LK,2,80.0,,,,,Haren Gn,Haren Gn,735322.124724863,7013793.625281077
17200000015951,17200000015951,Prof. Dr. J.C. Schouteln,Prof. Dr. J.C. Schoutelaan,9751PM,9751PM,16,16.0,,,,,Haren Gn,Haren Gn,735677.0544963892,7015925.470198298
17200000020275,17200000020275,Boerhoorn,Boerhoorn,9756CK,9756CK,1,1.0,E,e,,,Glimmen,Glimmen,737591.3337225274,7009860.991499045
17200000020296,17200000020296,Meentweg,Meentweg,9756TB,9756TB,19,19.0,A,a,,,Glimmen,Glimmen,736592.7599196567,7009064.242358492
17200000020291,17200000020291,Kerkstraat,Kerkstraat,9479PK,9479PK,11,11.0,A,a,,,Noordlaren,Noordlaren,741989.7706202327,7005395.274022697
17200000020292,17200000020292,Klaproosweg,Klaproosweg,9753BT,9753BT,1,1.0,A,a,,,Haren Gn,Haren Gn,737394.753377506,7015191.740446055
17200000020332,17200000020332,Westerse Drift,Westerse Drift,9752LK,9752LK,88,88.0,A,a,,,Haren Gn,Haren Gn,735469.4521547582,7013677.628514555
17200000020309,17200000020309,Pinksterbloemweg,Pinksterbloemweg,9753HD,9753HD,49,49.0,A,a,,,Haren Gn,Haren Gn,737638.0280971078,7014426.521082452
17200000016002,17200000016002,Raadhuisplein,Raadhuisplein,9751AN,9751AN,14,14.0,A,a,,,Haren Gn,Haren Gn,735152.4162141399,7015124.761951772
17200000020281,17200000020281,Felland-Noord,Felland-Noord,9753TB,9753TB,2,2.0,A,a,,,Haren Gn,Haren Gn,737577.7834713764,7013534.777524876
17200000020295,17200000020295,Lutsborgsweg,Lutsborgsweg,9752VS,9752VS,35,35.0,A,a,,,Haren Gn,Haren Gn,735663.2829699173,7012835.032767356
17200000020328,17200000020328,Wederikweg,Wederikweg,9753AA,9753AA,15,15.0,A,a,,,Haren Gn,Haren Gn,737081.2109631213,7015355.687541602
17200000015354,17200000015354,Oude Badweg,Oude Badweg,9752XP,9752XP,58,58.0,A,a,6,6,Haren Gn,Haren Gn,730328.5826045016,7014879.6469626175
17200000020289,17200000020289,Kerklaan,Kerklaan,9751NN,9751NN,36,36.0,B,b,,,Haren Gn,Haren Gn,734960.6280574623,7016877.400985791
17200000020320,17200000020320,Rummerinkhof,Rummerinkhof,9751SL,9751SL,2,2.0,A,a,,,Haren Gn,Haren Gn,736335.3894454458,7015949.305390302
17200000015363,17200000015363,Oude Badweg,Oude Badweg,9752XP,9752XP,58,58.0,A,a,15,15,Haren Gn,Haren Gn,730224.52004617,7014827.940183654
17200000020252,17200000020252,Oude Badweg,Oude Badweg,9752XP,9752XP,58,58.0,A,a,42,42,Haren Gn,Haren Gn,730091.0811150334,7014709.955618701
17200000011360,17200000011360,Dorpsweg,Dorpsweg,9755PA,9755PA,5,5.0,A,a,,,Onnen,Onnen,739065.4681520171,7012459.483762274
17200000353057,17200000353057,Oude Badweg,Oude Badweg,9752XP,9752XP,58,58.0,A,a,33,33,Haren Gn,Haren Gn,730120.8576750257,7014765.413095393
17200000352963,17200000352963,Oude Badweg,Oude Badweg,9752XP,9752XP,58,58.0,A,a,44,44,Haren Gn,Haren Gn,730059.214905652,7014694.497043294
17200000051533,17200000051533,Meerweg,Meerweg,9752XE,9752XE,132,132.0,C,c,,,Haren Gn,Haren Gn,733483.335748854,7013801.00037531
17200000051536,17200000051536,Meerweg,Meerweg,9752XE,9752XE,132,132.0,D,d,,,Haren Gn,Haren Gn,733438.3603671119,7013778.393239339
17200000051545,17200000051545,Meerweg,Meerweg,9752XE,9752XE,132,132.0,F,f,,,Haren Gn,Haren Gn,733362.670453605,7013716.492245646
17200000051542,17200000051542,Meerweg,Meerweg,9752XE,9752XE,132,132.0,E,e,,,Haren Gn,Haren Gn,733397.3160073106,7013745.642573232
17200000014531,17200000014531,Middelhorsterweg,Middelhorsterweg,9751TH,9751TH,72,72.0,C,c,,,Haren Gn,Haren Gn,737008.3571671679,7014537.672628989
17200000019599,17200000019599,Rijksstraatweg,Rijksstraatweg,9752BL,9752BL,134,134.0,B,b,,,Haren Gn,Haren Gn,734934.7144261728,7015337.182187853
17200000352450,17200000352450,Oude Badweg,Oude Badweg,9752XP,9752XP,58,58.0,A,a,36,36,Haren Gn,Haren Gn,730176.5882774552,7014789.577898114
17200000352393,17200000352393,Oude Badweg,Oude Badweg,9752XP,9752XP,58,58.0,A,a,5,5,Haren Gn,Haren Gn,730310.5018404346,7014859.966896632
17200000020480,17200000020480,Oude Badweg,Oude Badweg,9752XP,9752XP,152,152.0,A,a,7,7,Haren Gn,Haren Gn,730813.6798554974,7015325.670205521
17200000020832,17200000020832,Hugo de Vriesweg,Hugo de Vriesweg,9751PR,9751PR,59,59.0,A,a,,,Haren Gn,Haren Gn,735717.3574625776,7016130.092904349
17200000352368,17200000352368,Middelhorsterweg,Middelhorsterweg,9751TG,9751TG,30,30.0,B,b,,,Haren Gn,Haren Gn,736816.386339743,7014905.922440445
17200000352430,17200000352430,Mellenssteeg,Mellenssteeg,9753HL,9753HL,41,41.0,D,d,,,Haren Gn,Haren Gn,737531.8587450815,7014853.329789312
17200000352432,17200000352432,Mellenssteeg,Mellenssteeg,9753HL,9753HL,41,41.0,E,e,,,Haren Gn,Haren Gn,737598.827039488,7014889.4948087875
17200000352434,17200000352434,Mellenssteeg,Mellenssteeg,9753HL,9753HL,41,41.0,G,g,,,Haren Gn,Haren Gn,737579.7317422864,7014883.351785839
17200000352435,17200000352435,Mellenssteeg,Mellenssteeg,9753HL,9753HL,41,41.0,H,h,,,Haren Gn,Haren Gn,737570.3545757108,7014880.609439701
17200000352436,17200000352436,Mellenssteeg,Mellenssteeg,9753HL,9753HL,41,41.0,J,j,,,Haren Gn,Haren Gn,737560.7024734287,7014877.271004128
17200000352437,17200000352437,Mellenssteeg,Mellenssteeg,9753HL,9753HL,41,41.0,K,k,,,Haren Gn,Haren Gn,737531.4719734761,7014868.05977996
17200000352438,17200000352438,Mellenssteeg,Mellenssteeg,9753HL,9753HL,41,41.0,L,l,,,Haren Gn,Haren Gn,737521.9539380947,7014865.353188334
17200000352429,17200000352429,Mellenssteeg,Mellenssteeg,9753HL,9753HL,41,41.0,B,b,,,Haren Gn,Haren Gn,737544.218572365,7014880.494037263
17200000020208,17200000020208,Meerweg,Meerweg,9752XA,9752XA,143,143.0,B,b,,,Haren Gn,Haren Gn,733625.1658492713,7014185.971499798
17200000352962,17200000352962,Koelandsdrift,Koelandsdrift,9755PN,9755PN,25,25.0,B,b,,,Onnen,Onnen,739714.9606830342,7011695.714186274
17200000020509,17200000020509,Hoornsedijk,Hoornsedijk,9752XK,9752XK,16,16.0,A,a,4,4,Haren Gn,Haren Gn,732346.1295105551,7014861.470241235
17200000020510,17200000020510,Hoornsedijk,Hoornsedijk,9752XK,9752XK,16,16.0,A,a,5,5,Haren Gn,Haren Gn,732322.6347649234,7014850.177321388
17200000020513,17200000020513,Hoornsedijk,Hoornsedijk,9752XK,9752XK,16,16.0,A,a,8,8,Haren Gn,Haren Gn,732257.0616618897,7014811.210145179
17200000020514,17200000020514,Hoornsedijk,Hoornsedijk,9752XK,9752XK,16,16.0,A,a,9,9,Haren Gn,Haren Gn,732271.6837856666,7014789.272060029
17200000020515,17200000020515,Hoornsedijk,Hoornsedijk,9752XK,9752XK,16,16.0,A,a,10,10,Haren Gn,Haren Gn,732293.5964176209,7014805.597987288
17200000020516,17200000020516,Hoornsedijk,Hoornsedijk,9752XK,9752XK,16,16.0,A,a,11,11,Haren Gn,Haren Gn,732315.4265679629,7014816.918521208
17200000020517,17200000020517,Hoornsedijk,Hoornsedijk,9752XK,9752XK,16,16.0,A,a,12,12,Haren Gn,Haren Gn,732337.2843076208,7014829.907468336
17200000020518,17200000020518,Hoornsedijk,Hoornsedijk,9752XK,9752XK,16,16.0,A,a,13,13,Haren Gn,Haren Gn,732380.972460993,7014854.216782706
17200000020519,17200000020519,Hoornsedijk,Hoornsedijk,9752XK,9752XK,16,16.0,A,a,14,14,Haren Gn,Haren Gn,732402.8028655348,7014865.53714514
17200000020521,17200000020521,Hoornsedijk,Hoornsedijk,9752XK,9752XK,16,16.0,A,a,16,16,Haren Gn,Haren Gn,732454.4003143737,7014864.681115171
17200000020522,17200000020522,Hoornsedijk,Hoornsedijk,9752XK,9752XK,16,16.0,A,a,17,17,Haren Gn,Haren Gn,732432.5698401956,7014853.360895052
17200000020523,17200000020523,Hoornsedijk,Hoornsedijk,9752XK,9752XK,16,16.0,A,a,18,18,Haren Gn,Haren Gn,732412.4038564084,7014842.013020706
17200000020524,17200000020524,Hoornsedijk,Hoornsedijk,9752XK,9752XK,16,16.0,A,a,19,19,Haren Gn,Haren Gn,732390.5735025028,7014830.692717185
17200000020525,17200000020525,Hoornsedijk,Hoornsedijk,9752XK,9752XK,16,16.0,A,a,20,20,Haren Gn,Haren Gn,732346.8854485137,7014806.383525523
17200000020526,17200000020526,Hoornsedijk,Hoornsedijk,9752XK,9752XK,16,16.0,A,a,21,21,Haren Gn,Haren Gn,732325.0552829665,7014795.06309226
17200000020527,17200000020527,Hoornsedijk,Hoornsedijk,9752XK,9752XK,16,16.0,A,a,22,22,Haren Gn,Haren Gn,732303.1976578946,7014782.074167201
17200000020528,17200000020528,Hoornsedijk,Hoornsedijk,9752XK,9752XK,16,16.0,A,a,23,23,Haren Gn,Haren Gn,732278.0387895084,7014770.808813155
17200000020529,17200000020529,Hoornsedijk,Hoornsedijk,9752XK,9752XK,16,16.0,A,a,24,24,Haren Gn,Haren Gn,732218.8766512,7014716.715449401
17200000020530,17200000020530,Hoornsedijk,Hoornsedijk,9752XK,9752XK,16,16.0,A,a,25,25,Haren Gn,Haren Gn,732235.7132364671,7014728.118785311
17200000020531,17200000020531,Hoornsedijk,Hoornsedijk,9752XK,9752XK,16,16.0,A,a,26,26,Haren Gn,Haren Gn,732262.5638330368,7014741.025074397
17200000020532,17200000020532,Hoornsedijk,Hoornsedijk,9752XK,9752XK,16,16.0,A,a,27,27,Haren Gn,Haren Gn,732284.3387308804,7014749.008721091
17200000352172,17200000352172,Emmalaan,Emmalaan,9752KR,9752KR,3,3.0,C,c,,,Haren Gn,Haren Gn,735279.1704095303,7014620.894539482
17200000020533,17200000020533,Hoornsedijk,Hoornsedijk,9752XK,9752XK,16,16.0,A,a,28,28,Haren Gn,Haren Gn,732311.1894746358,7014761.914879671
17200000020534,17200000020534,Hoornsedijk,Hoornsedijk,9752XK,9752XK,16,16.0,A,a,29,29,Haren Gn,Haren Gn,732333.0195306223,7014773.235304857
17200000020535,17200000020535,Hoornsedijk,Hoornsedijk,9752XK,9752XK,16,16.0,A,a,30,30,Haren Gn,Haren Gn,732356.5140653485,7014784.528087685
17200000020536,17200000020536,Hoornsedijk,Hoornsedijk,9752XK,9752XK,16,16.0,A,a,31,31,Haren Gn,Haren Gn,732381.618011298,7014792.456313821
17200000020537,17200000020537,Hoornsedijk,Hoornsedijk,9752XK,9752XK,16,16.0,A,a,32,32,Haren Gn,Haren Gn,732400.17448811,7014807.168708903
17200000020539,17200000020539,Hoornsedijk,Hoornsedijk,9752XK,9752XK,16,16.0,A,a,34,34,Haren Gn,Haren Gn,732445.4995823606,7014829.781537082
17200000020540,17200000020540,Hoornsedijk,Hoornsedijk,9752XK,9752XK,16,16.0,A,a,35,35,Haren Gn,Haren Gn,732465.6655816949,7014841.129310762
17200000020706,17200000020706,Kerkstraat,Kerkstraat,9751BD,9751BD,20,20.0,H,h,,,Haren Gn,Haren Gn,735582.0713136034,7015219.39615356
17200000020506,17200000020506,Hoornsedijk,Hoornsedijk,9752XK,9752XK,16,16.0,A,a,1,1,Haren Gn,Haren Gn,732415.0047906981,7014898.713232756
17200000020507,17200000020507,Hoornsedijk,Hoornsedijk,9752XK,9752XK,16,16.0,A,a,2,2,Haren Gn,Haren Gn,732394.8662576998,7014889.033720019
17200000020508,17200000020508,Hoornsedijk,Hoornsedijk,9752XK,9752XK,16,16.0,A,a,3,3,Haren Gn,Haren Gn,732372.9807289183,7014874.376369809
17200000352300,17200000352300,Dilgtweg,Dilgtweg,9751ND,9751ND,3,3.0,E,e,17,17,Haren Gn,Haren Gn,734195.4273396124,7016828.435296245
17200000352307,17200000352307,Dilgtweg,Dilgtweg,9751ND,9751ND,3,3.0,E,e,22,22,Haren Gn,Haren Gn,734199.0041251584,7016857.082700216
17200000352319,17200000352319,Dilgtweg,Dilgtweg,9751ND,9751ND,3,3.0,E,e,34,34,Haren Gn,Haren Gn,734190.4455215989,7016835.149638271
17200000352431,17200000352431,Mellenssteeg,Mellenssteeg,9753HL,9753HL,41,41.0,C,c,,,Haren Gn,Haren Gn,737583.0776762723,7014900.599354529
17200000352433,17200000352433,Mellenssteeg,Mellenssteeg,9753HL,9753HL,41,41.0,F,f,,,Haren Gn,Haren Gn,737589.6593408833,7014886.249859831
17200000020512,17200000020512,Hoornsedijk,Hoornsedijk,9752XK,9752XK,16,16.0,A,a,7,7,Haren Gn,Haren Gn,732278.9192924679,7014824.19924308
17200000020520,17200000020520,Hoornsedijk,Hoornsedijk,9752XK,9752XK,16,16.0,A,a,15,15,Haren Gn,Haren Gn,732427.9622038762,7014876.802236685
17200000020538,17200000020538,Hoornsedijk,Hoornsedijk,9752XK,9752XK,16,16.0,A,a,33,33,Haren Gn,Haren Gn,732422.0047913794,7014818.48895352
17200000020207,17200000020207,Meerweg,Meerweg,9752XA,9752XA,143,143.0,A,a,,,Haren Gn,Haren Gn,733618.4531153901,7014182.746299149
17200000352420,17200000352420,Oude Badweg,Oude Badweg,9752XP,9752XP,58,58.0,A,a,10,10,Haren Gn,Haren Gn,730294.2171028961,7014868.749219093
17200000019726,17200000019726,Kerkstraat,Kerkstraat,9751BC,9751BC,12,12.0,C,c,,,Haren Gn,Haren Gn,735469.6222157617,7015067.758551894
17200000353078,17200000353078,Oude Badweg,Oude Badweg,9752XP,9752XP,58,58.0,B,b,18,18,Haren Gn,Haren Gn,730142.4292244912,7014885.558196981
17200000352624,17200000352624,Oude Badweg,Oude Badweg,9752XP,9752XP,58,58.0,B,b,19,19,Haren Gn,Haren Gn,730123.1386776146,7014872.044042817
17200000352455,17200000352455,Dilgtplein,Dilgtplein,9751NJ,9751NJ,1,1.0,A,a,,,Haren Gn,Haren Gn,734522.7171583837,7017444.930958328
17200000352301,17200000352301,Dilgtweg,Dilgtweg,9751ND,9751ND,3,3.0,E,e,18,18,Haren Gn,Haren Gn,734190.5676832731,7016829.213109327
17200000352304,17200000352304,Dilgtweg,Dilgtweg,9751ND,9751ND,3,3.0,E,e,20,20,Haren Gn,Haren Gn,734181.3508877911,7016848.662211626
17200000352303,17200000352303,Dilgtweg,Dilgtweg,9751ND,9751ND,3,3.0,E,e,19,19,Haren Gn,Haren Gn,734179.9186398666,7016833.725719166
17200000352305,17200000352305,Dilgtweg,Dilgtweg,9751ND,9751ND,3,3.0,E,e,21,21,Haren Gn,Haren Gn,734185.6360096503,7016858.733061945
17200000352278,17200000352278,Dilgtweg,Dilgtweg,9751ND,9751ND,3,3.0,F,f,1,1,Haren Gn,Haren Gn,734240.9989472086,7016946.57799311
17200000352309,17200000352309,Dilgtweg,Dilgtweg,9751ND,9751ND,3,3.0,E,e,24,24,Haren Gn,Haren Gn,734209.1457033805,7016838.663009991
17200000352323,17200000352323,Dilgtweg,Dilgtweg,9751ND,9751ND,3,3.0,E,e,37,37,Haren Gn,Haren Gn,734194.2312411686,7016851.999687406
17200000352308,17200000352308,Dilgtweg,Dilgtweg,9751ND,9751ND,3,3.0,E,e,23,23,Haren Gn,Haren Gn,734209.4951143599,7016844.019035408
17200000352280,17200000352280,Dilgtweg,Dilgtweg,9751ND,9751ND,3,3.0,F,f,2,2,Haren Gn,Haren Gn,734225.592082607,7016947.317870903
17200000352310,17200000352310,Dilgtweg,Dilgtweg,9751ND,9751ND,3,3.0,E,e,25,25,Haren Gn,Haren Gn,734204.8235058018,7016827.671349636
17200000352314,17200000352314,Dilgtweg,Dilgtweg,9751ND,9751ND,3,3.0,E,e,29,29,Haren Gn,Haren Gn,734194.4444857934,7016857.877175379
17200000352311,17200000352311,Dilgtweg,Dilgtweg,9751ND,9751ND,3,3.0,E,e,26,26,Haren Gn,Haren Gn,734182.3377415824,7016829.808863538
17200000352312,17200000352312,Dilgtweg,Dilgtweg,9751ND,9751ND,3,3.0,E,e,27,27,Haren Gn,Haren Gn,734180.5450749707,7016843.796292208
17200000352322,17200000352322,Dilgtweg,Dilgtweg,9751ND,9751ND,3,3.0,E,e,36,36,Haren Gn,Haren Gn,734187.819259763,7016848.383198032
17200000352313,17200000352313,Dilgtweg,Dilgtweg,9751ND,9751ND,3,3.0,E,e,28,28,Haren Gn,Haren Gn,734182.2062315615,7016856.488704502
17200000352318,17200000352318,Dilgtweg,Dilgtweg,9751ND,9751ND,3,3.0,E,e,33,33,Haren Gn,Haren Gn,734195.6936709243,7016834.897810222
17200000352315,17200000352315,Dilgtweg,Dilgtweg,9751ND,9751ND,3,3.0,E,e,30,30,Haren Gn,Haren Gn,734208.0791610067,7016856.432653551
17200000352316,17200000352316,Dilgtweg,Dilgtweg,9751ND,9751ND,3,3.0,E,e,31,31,Haren Gn,Haren Gn,734210.7936924387,7016852.357231869
17200000352299,17200000352299,Dilgtweg,Dilgtweg,9751ND,9751ND,3,3.0,F,f,9,9,Haren Gn,Haren Gn,734242.4513143821,7016950.570037449
17200000352317,17200000352317,Dilgtweg,Dilgtweg,9751ND,9751ND,3,3.0,E,e,32,32,Haren Gn,Haren Gn,734208.176542768,7016830.3059339
17200000352321,17200000352321,Dilgtweg,Dilgtweg,9751ND,9751ND,3,3.0,E,e,35,35,Haren Gn,Haren Gn,734187.7160595028,7016843.508806011
17200000352275,17200000352275,Dilgtweg,Dilgtweg,9751ND,9751ND,3,3.0,E,e,1,1,Haren Gn,Haren Gn,734194.5719134703,7016822.296525621
17200000352276,17200000352276,Dilgtweg,Dilgtweg,9751ND,9751ND,3,3.0,E,e,2,2,Haren Gn,Haren Gn,734181.8235175345,7016824.056647282
17200000352324,17200000352324,Dilgtweg,Dilgtweg,9751ND,9751ND,3,3.0,E,e,38,38,Haren Gn,Haren Gn,734199.3537876244,7016851.207434063
17200000352302,17200000352302,Dilgtweg,Dilgtweg,9751ND,9751ND,3,3.0,F,f,10,10,Haren Gn,Haren Gn,734225.902397018,7016952.52605252
17200000352296,17200000352296,Dilgtweg,Dilgtweg,9751ND,9751ND,3,3.0,F,f,8,8,Haren Gn,Haren Gn,734246.616525572,7016944.415181212
17200000352277,17200000352277,Dilgtweg,Dilgtweg,9751ND,9751ND,3,3.0,E,e,3,3,Haren Gn,Haren Gn,734173.6230796431,7016834.180439625
17200000352365,17200000352365,Dilgtweg,Dilgtweg,9751ND,9751ND,3,3.0,F,f,15,15,Haren Gn,Haren Gn,734244.788386347,7016958.765671089
17200000352279,17200000352279,Dilgtweg,Dilgtweg,9751ND,9751ND,3,3.0,E,e,4,4,Haren Gn,Haren Gn,734174.8574385057,7016848.736313298
17200000352281,17200000352281,Dilgtweg,Dilgtweg,9751ND,9751ND,3,3.0,E,e,5,5,Haren Gn,Haren Gn,734186.2636915753,7016865.493345242
17200000352372,17200000352372,Dilgtweg,Dilgtweg,9751ND,9751ND,3,3.0,F,f,19,19,Haren Gn,Haren Gn,734218.855339019,7016971.469916181
17200000352286,17200000352286,Dilgtweg,Dilgtweg,9751ND,9751ND,3,3.0,E,e,9,9,Haren Gn,Haren Gn,734204.93757595,7016821.15236579
17200000352290,17200000352290,Dilgtweg,Dilgtweg,9751ND,9751ND,3,3.0,E,e,11,11,Haren Gn,Haren Gn,734174.4019619037,7016844.902830121
17200000352187,17200000352187,Meerweg,Meerweg,9752XE,9752XE,130,130.0,B,b,,,Haren Gn,Haren Gn,733527.610077579,7014046.387687128
17200000352289,17200000352289,Dilgtweg,Dilgtweg,9751ND,9751ND,3,3.0,E,e,10,10,Haren Gn,Haren Gn,734190.5104758296,7016822.907339674
17200000352282,17200000352282,Dilgtweg,Dilgtweg,9751ND,9751ND,3,3.0,E,e,6,6,Haren Gn,Haren Gn,734199.4006077063,7016863.659902483
17200000352292,17200000352292,Dilgtweg,Dilgtweg,9751ND,9751ND,3,3.0,E,e,12,12,Haren Gn,Haren Gn,734175.8113202024,7016857.774758505
17200000051512,17200000051512,Lageweg,Lageweg,9479PC,9479PC,8,8.0,A,a,,,Noordlaren,Noordlaren,742377.8427067155,7005588.637809587
17200000020266,17200000020266,Van Maerlantlaan,Van Maerlantlaan,9752JT,9752JT,1,1.0,B,b,,,Haren Gn,Haren Gn,734500.8040048912,7014581.7966968985
17200000352535,17200000352535,Vondellaan,Vondellaan,9752EC,9752EC,6,6.0,A,a,,,Haren Gn,Haren Gn,734867.5591320165,7015171.055827911
17200000352630,17200000352630,Felland-Noord,Felland-Noord,9753TB,9753TB,12,12.0,B,b,,,Haren Gn,Haren Gn,737965.2094576152,7013658.31465946
17200000352806,17200000352806,Irisweg,Irisweg,9753GN,9753GN,26,26.0,A,a,,,Haren Gn,Haren Gn,737262.5383644977,7014743.315445211
17200000352807,17200000352807,Irisweg,Irisweg,9753GN,9753GN,26,26.0,B,b,,,Haren Gn,Haren Gn,737252.2655798665,7014740.46467784
17200000352810,17200000352810,Irisweg,Irisweg,9753GN,9753GN,26,26.0,E,e,,,Haren Gn,Haren Gn,737260.5554679611,7014749.637988541
17200000014204,17200000014204,Meerweg,Meerweg,9752JC,9752JC,59,59.0,A,a,,,Haren Gn,Haren Gn,734729.8820051693,7014938.417028441
17200000352616,17200000352616,Meerweg,Meerweg,9752JA,9752JA,5,5.0,A,a,,,Haren Gn,Haren Gn,734993.364175184,7015067.618869048
17200000352808,17200000352808,Irisweg,Irisweg,9753GN,9753GN,26,26.0,C,c,,,Haren Gn,Haren Gn,737236.1658368699,7014736.549177452
17200000352809,17200000352809,Irisweg,Irisweg,9753GN,9753GN,26,26.0,D,d,,,Haren Gn,Haren Gn,737255.94806926,7014765.555174946
17200000352813,17200000352813,Irisweg,Irisweg,9753GN,9753GN,26,26.0,H,h,,,Haren Gn,Haren Gn,737231.4345978188,7014758.756907444
17200000352814,17200000352814,Irisweg,Irisweg,9753GN,9753GN,26,26.0,J,j,,,Haren Gn,Haren Gn,737257.9628621932,7014761.096246175
17200000353075,17200000353075,Oude Badweg,Oude Badweg,9752XP,9752XP,154,154.0,A,a,16,16,Haren Gn,Haren Gn,731284.9998683195,7015248.0773580605
17200000352881,17200000352881,Meerweg,Meerweg,9752JA,9752JA,7,7.0,A,a,,,Haren Gn,Haren Gn,734979.4948115895,7015071.056158693
17200000352811,17200000352811,Irisweg,Irisweg,9753GN,9753GN,26,26.0,F,f,,,Haren Gn,Haren Gn,737249.5932621273,7014747.264695222
17200000352820,17200000352820,Irisweg,Irisweg,9753GN,9753GN,26,26.0,R,r,,,Haren Gn,Haren Gn,737252.7695101926,7014756.293961065
17200000352822,17200000352822,Irisweg,Irisweg,9753GN,9753GN,26,26.0,T,t,,,Haren Gn,Haren Gn,737236.428756958,7014751.916971106
17200000352816,17200000352816,Irisweg,Irisweg,9753GN,9753GN,26,26.0,L,l,,,Haren Gn,Haren Gn,737248.0468289154,7014751.949209144
17200000352817,17200000352817,Irisweg,Irisweg,9753GN,9753GN,26,26.0,M,m,,,Haren Gn,Haren Gn,737232.6165565444,7014746.391661666
17200000352818,17200000352818,Irisweg,Irisweg,9753GN,9753GN,26,26.0,N,n,,,Haren Gn,Haren Gn,737231.83522552,7014755.023342423
17200000352819,17200000352819,Irisweg,Irisweg,9753GN,9753GN,26,26.0,P,p,,,Haren Gn,Haren Gn,737251.1991830256,7014759.582012667
17200000352821,17200000352821,Irisweg,Irisweg,9753GN,9753GN,26,26.0,S,s,,,Haren Gn,Haren Gn,737242.0243551272,7014752.984002689
17200000352823,17200000352823,Irisweg,Irisweg,9753GN,9753GN,26,26.0,U,u,,,Haren Gn,Haren Gn,737230.1374173183,7014750.860227188
17200000353064,17200000353064,Rijksstraatweg,Rijksstraatweg,9752BG,9752BG,189,189.0,C,c,,,Haren Gn,Haren Gn,735235.4379904512,7014820.254477175
17200000352910,17200000352910,Groningerweg,Groningerweg,9752XG,9752XG,19,19.0,A,a,,,Haren Gn,Haren Gn,730653.6879285019,7013034.441670527
17200000352941,17200000352941,Kerklaan,Kerklaan,9751NN,9751NN,30,30.0,H,h,,,Haren Gn,Haren Gn,735217.1917002128,7015756.026757836
17200000352935,17200000352935,Kerklaan,Kerklaan,9751NN,9751NN,30,30.0,A,a,,,Haren Gn,Haren Gn,735213.2760799275,7015992.532962269
17200000352937,17200000352937,Kerklaan,Kerklaan,9751NN,9751NN,30,30.0,B,b,,,Haren Gn,Haren Gn,735239.3873707248,7015901.0083478615
17200000352938,17200000352938,Kerklaan,Kerklaan,9751NN,9751NN,30,30.0,F,f,,,Haren Gn,Haren Gn,735044.9509551568,7015836.047619283
17200000352936,17200000352936,Kerklaan,Kerklaan,9751NN,9751NN,30,30.0,D,d,,,Haren Gn,Haren Gn,734931.8989442597,7015898.291996483
17200000352934,17200000352934,Kerklaan,Kerklaan,9751NN,9751NN,30,30.0,E,e,,,Haren Gn,Haren Gn,735003.2796411857,7016038.71789593
17200000352940,17200000352940,Kerklaan,Kerklaan,9751NN,9751NN,30,30.0,G,g,,,Haren Gn,Haren Gn,735100.6102470733,7015746.587378958
17200000353237,17200000353237,Erasmuslaan,Erasmuslaan,9752PE,9752PE,23,23.0,E,e,3,3,Haren Gn,Haren Gn,734900.1869146571,7013196.790564633
17200000353224,17200000353224,Erasmuslaan,Erasmuslaan,9752PE,9752PE,23,23.0,C,c,4,4,Haren Gn,Haren Gn,734887.5945115939,7013200.844425995
17200000353199,17200000353199,Erasmuslaan,Erasmuslaan,9752PE,9752PE,23,23.0,A,a,7,7,Haren Gn,Haren Gn,734852.271255401,7013248.482048667
17200000353207,17200000353207,Erasmuslaan,Erasmuslaan,9752PE,9752PE,23,23.0,A,a,15,15,Haren Gn,Haren Gn,734926.7548733654,7013263.9895260865
17200000353341,17200000353341,Rijksstraatweg,Rijksstraatweg,9752AD,9752AD,16,16.0,A,a,,,Haren Gn,Haren Gn,733552.4751968306,7017442.616672648
17200000353342,17200000353342,Zuinigstraat,Zuinigstraat,9479PM,9479PM,1,1.0,A,a,,,Noordlaren,Noordlaren,742206.9703275173,7005304.40955005
17200000353140,17200000353140,Oude Badweg,Oude Badweg,9752XP,9752XP,154,154.0,A,a,10,10,Haren Gn,Haren Gn,731043.942723542,7015088.493480196
14200010815853,14200010815853,Achter de Muur,Achter de Muur,9711PR,9711PR,12,8.0,,,,,Groningen,Groningen,731526.9493229042,7023437.573859835
14200010868888,14200010868888,Achter de Muur,Achter de Muur,9711PR,9711PR,36,20.0,,,,,Groningen,Groningen,731532.8882148345,7023433.442920447
14200010869209,14200010869209,Achter de Muur,Achter de Muur,9711PR,9711PR,6,4.0,,,,,Groningen,Groningen,731529.3262218388,7023481.988551349
14200010868748,14200010868748,Achter de Muur,Achter de Muur,9711PS,9711PS,72,38.0,,,,,Groningen,Groningen,731530.0519560877,7023422.900844043
14200010855176,14200010855176,Achter de Muur,Achter de Muur,9711PS,9711PS,74,40.0,,,,,Groningen,Groningen,731532.8401493155,7023423.299288091
14200010858156,14200010858156,Achter de Muur,Achter de Muur,9711PS,9711PS,80,44.0,,,,,Groningen,Groningen,731540.197873579,7023424.482810457
14200010897136,14200010897136,Aluminiumstraat,Koperstraat,,,2,11.0,,,ad,ad,Groningen,Groningen,727029.076424581,7024157.339382093
14200010897138,14200010897138,Aluminiumstraat,Koperstraat,,,2,11.0,,,af,af,Groningen,Groningen,727035.6145595905,7024135.833663779
14200010897140,14200010897140,Aluminiumstraat,Koperstraat,,,2,11.0,,,ah,ah,Groningen,Groningen,727042.0710616686,7024114.437900116
14200010897141,14200010897141,Aluminiumstraat,Koperstraat,,,2,11.0,,,ak,ak,Groningen,Groningen,727043.7746663956,7024108.766745139
14200010897133,14200010897133,Aluminiumstraat,Koperstraat,,,2,11.0,,,aa,aa,Groningen,Groningen,727020.6371460366,7024185.202867511
14200010897139,14200010897139,Aluminiumstraat,Koperstraat,,,2,11.0,,,ag,ag,Groningen,Groningen,727037.1949971211,7024130.488596098
14200010897134,14200010897134,Aluminiumstraat,Koperstraat,,,2,11.0,,,ab,ab,Groningen,Groningen,727025.5241461587,7024168.996512193
14200010897135,14200010897135,Aluminiumstraat,Koperstraat,,,2,11.0,,,ac,ac,Groningen,Groningen,727027.2966495239,7024163.148788583
14200010897137,14200010897137,Aluminiumstraat,Koperstraat,,,2,11.0,,,ae,ae,Groningen,Groningen,727033.8787285524,7024141.680785721
14200010897330,14200010897330,Bergkristalstraat,Barnsteenstraat,,,2,13.0,,,aa,ap,Groningen,Groningen,726841.7573780305,7025305.836117388
14200010897331,14200010897331,Bergkristalstraat,Barnsteenstraat,,,2,13.0,,,ab,an,Groningen,Groningen,726843.2430165965,7025300.376521317
14200010897333,14200010897333,Bergkristalstraat,Barnsteenstraat,,,2,13.0,,,ad,ak,Groningen,Groningen,726848.1071800571,7025284.240266931
14200010897335,14200010897335,Bergkristalstraat,Barnsteenstraat,,,2,13.0,,,af,ag,Groningen,Groningen,726851.5866754851,7025273.413288132
14200010897336,14200010897336,Bergkristalstraat,Barnsteenstraat,,,2,13.0,,,ag,af,Groningen,Groningen,726855.0620629835,7025262.432650249
14200010897337,14200010897337,Bergkristalstraat,Barnsteenstraat,,,2,13.0,,,ah,ae,Groningen,Groningen,726856.9970122427,7025256.608330808
14200010897339,14200010897339,Bergkristalstraat,Barnsteenstraat,,,2,13.0,,,am,ac,Groningen,Groningen,726859.8759255486,7025245.5436183885
14200010897332,14200010897332,Bergkristalstraat,Barnsteenstraat,,,2,13.0,,,ac,am,Groningen,Groningen,726846.3206551609,7025289.858374561
14200010897334,14200010897334,Bergkristalstraat,Barnsteenstraat,,,2,13.0,,,ae,ah,Groningen,Groningen,726849.948592475,7025278.825159542
14200010897338,14200010897338,Bergkristalstraat,Barnsteenstraat,,,2,13.0,,,ak,ad,Groningen,Groningen,726858.7212451254,7025251.373905833
14200010897340,14200010897340,Bergkristalstraat,Barnsteenstraat,,,2,13.0,,,an,ab,Groningen,Groningen,726863.5231066667,7025234.7808617195
14200010897341,14200010897341,Bergkristalstraat,Barnsteenstraat,,,2,13.0,,,ap,aa,Groningen,Groningen,726864.7539934951,7025229.13151825
14200010897407,14200010897407,Bloedkoraalstraat,Barnsteenstraat,,,2,61.0,,,ac,at,Groningen,Groningen,726225.2075731502,7025183.002866645
14200010897408,14200010897408,Bloedkoraalstraat,Barnsteenstraat,,,2,61.0,,,ad,as,Groningen,Groningen,726227.179516498,7025177.806486924
14200010897409,14200010897409,Bloedkoraalstraat,Barnsteenstraat,,,2,61.0,,,ae,ar,Groningen,Groningen,726232.4291691042,7025161.940486842
14200010897410,14200010897410,Bloedkoraalstraat,Barnsteenstraat,,,2,61.0,,,af,aq,Groningen,Groningen,726234.6472866398,7025156.392648706
14200010897411,14200010897411,Bloedkoraalstraat,Barnsteenstraat,,,2,61.0,,,ag,ap,Groningen,Groningen,726236.4307627275,7025150.873414201
14200010897413,14200010897413,Bloedkoraalstraat,Barnsteenstraat,,,2,61.0,,,ak,am,Groningen,Groningen,726242.6282299347,7025129.142190627
14200010897414,14200010897414,Bloedkoraalstraat,Barnsteenstraat,,,2,61.0,,,am,ak,Groningen,Groningen,726244.0653525653,7025123.436285139
14200010897415,14200010897415,Bloedkoraalstraat,Barnsteenstraat,,,2,61.0,,,an,ah,Groningen,Groningen,726249.1458147143,7025107.310706489
14200010897416,14200010897416,Bloedkoraalstraat,Barnsteenstraat,,,2,61.0,,,ap,ag,Groningen,Groningen,726255.8560307065,7025103.217460042
14200010897417,14200010897417,Bloedkoraalstraat,Barnsteenstraat,,,2,61.0,,,aq,af,Groningen,Groningen,726252.532294261,7025096.141475098
14200010897418,14200010897418,Bloedkoraalstraat,Barnsteenstraat,,,2,61.0,,,ar,ae,Groningen,Groningen,726257.2480569487,7025080.359262225
14200010897419,14200010897419,Bloedkoraalstraat,Barnsteenstraat,,,2,61.0,,,as,ad,Groningen,Groningen,726259.0465616992,7025074.737904393
14200010897421,14200010897421,Bloedkoraalstraat,Barnsteenstraat,,,2,61.0,,,au,ab,Groningen,Groningen,726265.2672682254,7025053.008170039
14200010897422,14200010897422,Bloedkoraalstraat,Barnsteenstraat,,,2,61.0,,,av,aa,Groningen,Groningen,726267.2027541414,7025046.876673939
14200010897405,14200010897405,Bloedkoraalstraat,Barnsteenstraat,,,2,61.0,,,aa,av,Groningen,Groningen,726218.3934275139,7025204.747318671
14200010897406,14200010897406,Bloedkoraalstraat,Barnsteenstraat,,,2,61.0,,,ab,au,Groningen,Groningen,726223.24166531,7025189.006266363
14200010897412,14200010897412,Bloedkoraalstraat,Barnsteenstraat,,,2,61.0,,,ah,an,Groningen,Groningen,726240.3176738108,7025134.641344149
14200010897420,14200010897420,Bloedkoraalstraat,Barnsteenstraat,,,2,61.0,,,at,ac,Groningen,Groningen,726260.7399555052,7025069.216803402
14200010787569,14200010787569,Burchtstraat,Burchtstraat,9711LT,9711LT,5,3.0,a,,,,Groningen,Groningen,731286.4007286764,7022983.048680217
14200022196079,14200022196079,Stationsstraat,Gedempte Zuiderdiep,,9711HN,1,144.0,e,,,,Groningen,Groningen,730521.2810917877,7022789.252372685
14200010898226,14200010898226,Eikenlaan,Esdoornlaan,,,55,17.0,,,ae,ae,Groningen,Groningen,729456.9749910175,7026222.868634911
14200010898224,14200010898224,Eikenlaan,Esdoornlaan,,,55,17.0,,,ac,ac,Groningen,Groningen,729451.4553275428,7026239.5271049915
14200010898222,14200010898222,Eikenlaan,Esdoornlaan,,,55,17.0,,,aa,aa,Groningen,Groningen,729446.4217496269,7026256.0373323485
14200010898227,14200010898227,Eikenlaan,Esdoornlaan,,,55,17.0,,,af,af,Groningen,Groningen,729459.5581006604,7026214.436989292
14200010898225,14200010898225,Eikenlaan,Esdoornlaan,,,55,17.0,,,ad,ad,Groningen,Groningen,729454.5313266849,7026231.366547708
14200010898223,14200010898223,Eikenlaan,Esdoornlaan,,,55,17.0,,,ab,ab,Groningen,Groningen,729449.287769656,7026247.88183857
14200010898719,14200010898719,Florakade,Narcisstraat,,,288,10.0,,,ba,ab,Groningen,Groningen,733656.7846962804,7025009.839606462
14200010898718,14200010898718,Florakade,Narcisstraat,,,288,10.0,,,az,ac,Groningen,Groningen,733654.411221239,7025014.359372141
14200010898717,14200010898717,Florakade,Narcisstraat,,,288,10.0,,,ay,ad,Groningen,Groningen,733651.7978592439,7025019.188954892
14200010898715,14200010898715,Florakade,Narcisstraat,,,288,10.0,,,aw,af,Groningen,Groningen,733647.0873795063,7025027.917073869
14200010898714,14200010898714,Florakade,Narcisstraat,,,288,10.0,,,av,ag,Groningen,Groningen,733644.6218847999,7025032.7174492385
14200010898713,14200010898713,Florakade,Narcisstraat,,,288,10.0,,,au,ah,Groningen,Groningen,733642.4559892067,7025037.190300629
14200010898712,14200010898712,Florakade,Narcisstraat,,,288,10.0,,,at,ak,Groningen,Groningen,733639.9717548835,7025041.666814412
14200010898710,14200010898710,Florakade,Narcisstraat,,,288,10.0,,,ar,an,Groningen,Groningen,733635.0610899145,7025050.887914773
14200010898709,14200010898709,Florakade,Narcisstraat,,,288,10.0,,,aq,ap,Groningen,Groningen,733632.7414330839,7025055.737659515
14200010898641,14200010898641,Florakade,Narcisstraat,,,288,10.0,,,ap,aq,Groningen,Groningen,733630.0787087323,7025060.407667207
14200010898639,14200010898639,Florakade,Narcisstraat,,,288,10.0,,,am,as,Groningen,Groningen,733625.3466834041,7025069.146204384
14200010898638,14200010898638,Florakade,Narcisstraat,,,288,10.0,,,ak,at,Groningen,Groningen,733623.0064523647,7025073.762356803
14200010898637,14200010898637,Florakade,Narcisstraat,,,288,10.0,,,ah,au,Groningen,Groningen,733620.4847285004,7025078.291314451
14200010898636,14200010898636,Florakade,Narcisstraat,,,288,10.0,,,ag,av,Groningen,Groningen,733618.0568889579,7025082.952384604
14200010898633,14200010898633,Florakade,Narcisstraat,,,288,10.0,,,ad,ay,Groningen,Groningen,733610.7427988625,7025096.902697693
14200010898632,14200010898632,Florakade,Narcisstraat,,,288,10.0,,,ac,az,Groningen,Groningen,733608.3927395554,7025101.33019852
14200010898631,14200010898631,Florakade,Narcisstraat,,,288,10.0,,,ab,ba,Groningen,Groningen,733606.0255982924,7025105.83318393
14200010898720,14200010898720,Florakade,Narcisstraat,,,288,10.0,,,bb,aa,Groningen,Groningen,733659.0965070901,7025005.320875483
14200010898716,14200010898716,Florakade,Narcisstraat,,,288,10.0,,,ax,ae,Groningen,Groningen,733649.6642353291,7025023.397238456
14200010898711,14200010898711,Florakade,Narcisstraat,,,288,10.0,,,as,am,Groningen,Groningen,733637.5426568295,7025046.251023355
14200010898716,14200010898716,Florakade,Narcisstraat,,,288,10.0,,,ax,ae,Groningen,Groningen,733649.6642353291,7025023.397238456
14200010898640,14200010898640,Florakade,Narcisstraat,,,288,10.0,,,an,ar,Groningen,Groningen,733627.9064975362,7025064.302458224
14200010898630,14200010898630,Florakade,Narcisstraat,,,288,10.0,,,aa,bb,Groningen,Groningen,733603.6291802234,7025110.380108411
14200010898635,14200010898635,Florakade,Narcisstraat,,,288,10.0,,,af,aw,Groningen,Groningen,733615.7518344781,7025087.37912642
14200010903425,14200010903425,Diamantlaan,Porfierstraat,,,22,11.0,,,aa,aa,Groningen,Groningen,726704.5653328344,7024067.39289455
14200010903426,14200010903426,Diamantlaan,Porfierstraat,,,22,11.0,,,ab,ab,Groningen,Groningen,726706.2282166338,7024061.872866514
14200010903427,14200010903427,Diamantlaan,Porfierstraat,,,22,11.0,,,ac,ac,Groningen,Groningen,726708.0525505408,7024056.338582289
14200010903428,14200010903428,Diamantlaan,Porfierstraat,,,22,11.0,,,ad,ad,Groningen,Groningen,726712.7904195411,7024040.258690648
14200010903429,14200010903429,Diamantlaan,Porfierstraat,,,22,11.0,,,ae,ae,Groningen,Groningen,726714.6773855415,7024034.46946288
14200010903430,14200010903430,Diamantlaan,Porfierstraat,,,22,11.0,,,af,af,Groningen,Groningen,726716.4085561264,7024028.73617873
14200010903431,14200010903431,Diamantlaan,Porfierstraat,,,22,11.0,,,ag,ag,Groningen,Groningen,726721.2196621669,7024012.546571658
14200010903432,14200010903432,Diamantlaan,Porfierstraat,,,22,11.0,,,ah,ah,Groningen,Groningen,726723.0154882959,7024007.002745561
14200010898926,14200010898926,Diamantlaan,Granietstraat,,,96,11.0,,,aa,aa,Groningen,Groningen,726591.1253802564,7024441.802781017
14200010898927,14200010898927,Diamantlaan,Granietstraat,,,96,11.0,,,ab,ab,Groningen,Groningen,726589.4635220746,7024447.50348268
14200010898928,14200010898928,Diamantlaan,Granietstraat,,,96,11.0,,,ac,ac,Groningen,Groningen,726588.1960431157,7024452.845373161
14200010898929,14200010898929,Diamantlaan,Granietstraat,,,96,11.0,,,ad,ad,Groningen,Groningen,726586.629309497,7024458.3423949955
14200010898930,14200010898930,Diamantlaan,Granietstraat,,,96,11.0,,,ae,ae,Groningen,Groningen,726585.057826194,7024463.53873512
14200010898931,14200010898931,Diamantlaan,Granietstraat,,,96,11.0,,,af,af,Groningen,Groningen,726583.7176150719,7024469.130752376
14200010898932,14200010898932,Diamantlaan,Granietstraat,,,96,11.0,,,ag,ag,Groningen,Groningen,726581.5667953662,7024474.6905195415
14200010898933,14200010898933,Diamantlaan,Granietstraat,,,96,11.0,,,ah,ah,Groningen,Groningen,726579.8686504988,7024479.994144952
14200010898934,14200010898934,Diamantlaan,Granietstraat,,,96,11.0,,,ak,ak,Groningen,Groningen,726578.4292752508,7024485.957013916
14200010898935,14200010898935,Diamantlaan,Granietstraat,,,96,11.0,,,am,am,Groningen,Groningen,726577.1119163693,7024491.413340274
14200010898936,14200010898936,Diamantlaan,Granietstraat,,,96,11.0,,,an,an,Groningen,Groningen,726574.9252565693,7024496.709687512
14200010898937,14200010898937,Diamantlaan,Granietstraat,,,96,11.0,,,ap,ap,Groningen,Groningen,726574.0196086487,7024502.271439341
14200010898938,14200010898938,Diamantlaan,Granietstraat,,,96,11.0,,,aq,aq,Groningen,Groningen,726572.5518475948,7024508.126165373
14200010898939,14200010898939,Diamantlaan,Granietstraat,,,96,11.0,,,ar,ar,Groningen,Groningen,726571.201623768,7024512.557093355
14200010898940,14200010898940,Diamantlaan,Granietstraat,,,96,11.0,,,as,as,Groningen,Groningen,726569.1656226867,7024518.422511503
14200010898941,14200010898941,Diamantlaan,Granietstraat,,,96,11.0,,,at,at,Groningen,Groningen,726567.412315357,7024524.139751148
14200010898943,14200010898943,Diamantlaan,Granietstraat,,,96,11.0,,,av,av,Groningen,Groningen,726564.0322004062,7024534.718401583
14200010898945,14200010898945,Diamantlaan,Granietstraat,,,96,11.0,,,ax,ax,Groningen,Groningen,726561.0860174806,7024545.859960875
14200010898946,14200010898946,Diamantlaan,Granietstraat,,,96,11.0,,,ay,ay,Groningen,Groningen,726558.9004663739,7024551.228170667
14200010899197,14200010899197,Diamantlaan,Granietstraat,,,96,11.0,,,az,az,Groningen,Groningen,726557.7680448958,7024555.9413907295
14200010899198,14200010899198,Diamantlaan,Granietstraat,,,96,11.0,,,ba,ba,Groningen,Groningen,726556.0903034202,7024562.01168893
14200010899199,14200010899199,Diamantlaan,Granietstraat,,,96,11.0,,,bb,bb,Groningen,Groningen,726554.4786536647,7024567.728380333
14200010898942,14200010898942,Diamantlaan,Granietstraat,,,96,11.0,,,au,au,Groningen,Groningen,726565.227908296,7024529.579779128
14200010898944,14200010898944,Diamantlaan,Granietstraat,,,96,11.0,,,aw,aw,Groningen,Groningen,726562.3421528015,7024540.008566727
14200010899206,14200010899206,Diamantlaan,Barnsteenstraat,,,184,49.0,,,aa,av,Groningen,Groningen,726366.726475128,7025250.231404845
14200010899207,14200010899207,Diamantlaan,Barnsteenstraat,,,184,49.0,,,ab,au,Groningen,Groningen,726370.5137679041,7025233.826857987
14200010899208,14200010899208,Diamantlaan,Barnsteenstraat,,,184,49.0,,,ac,at,Groningen,Groningen,726372.4505480031,7025228.308453279
14200010899209,14200010899209,Diamantlaan,Barnsteenstraat,,,184,49.0,,,ad,as,Groningen,Groningen,726374.5897484698,7025222.835305977
14200010899210,14200010899210,Diamantlaan,Barnsteenstraat,,,184,49.0,,,ae,ar,Groningen,Groningen,726380.1750921583,7025206.390631932
14200010899211,14200010899211,Diamantlaan,Barnsteenstraat,,,184,49.0,,,af,aq,Groningen,Groningen,726382.158444914,7025200.866492614
14200010899212,14200010899212,Diamantlaan,Barnsteenstraat,,,184,49.0,,,ag,ap,Groningen,Groningen,726383.259309217,7025195.090640078
14200010899214,14200010899214,Diamantlaan,Barnsteenstraat,,,184,49.0,,,ak,am,Groningen,Groningen,726389.6037020319,7025173.81972968
14200010899215,14200010899215,Diamantlaan,Barnsteenstraat,,,184,49.0,,,am,ak,Groningen,Groningen,726391.6216320241,7025168.057775144
14200010899216,14200010899216,Diamantlaan,Barnsteenstraat,,,184,49.0,,,an,ah,Groningen,Groningen,726396.2274838272,7025152.2971307775
14200010899217,14200010899217,Diamantlaan,Barnsteenstraat,,,184,49.0,,,ap,ag,Groningen,Groningen,726398.5028942314,7025146.689858746
14200010899218,14200010899218,Diamantlaan,Barnsteenstraat,,,184,49.0,,,aq,af,Groningen,Groningen,726400.3481443791,7025140.972432681
14200010899219,14200010899219,Diamantlaan,Barnsteenstraat,,,184,49.0,,,ar,ae,Groningen,Groningen,726405.2988921474,7025125.625799495
14200010899220,14200010899220,Diamantlaan,Barnsteenstraat,,,184,49.0,,,as,ad,Groningen,Groningen,726407.4030945573,7025119.41634408
14200010899221,14200010899221,Diamantlaan,Barnsteenstraat,,,184,49.0,,,at,ac,Groningen,Groningen,726409.3633861701,7025113.595179863
14200010899222,14200010899222,Diamantlaan,Barnsteenstraat,,,184,49.0,,,au,ab,Groningen,Groningen,726414.0836782472,7025098.013287987
14200010899213,14200010899213,Diamantlaan,Barnsteenstraat,,,184,49.0,,,ah,an,Groningen,Groningen,726387.783650753,7025179.867642934
14200010899223,14200010899223,Diamantlaan,Barnsteenstraat,,,184,49.0,,,av,aa,Groningen,Groningen,726415.7854503931,7025091.867042447
14200010898125,14200010898125,Duindoornstraat,Elzenlaan,,,1,72.0,,,bd,bd,Groningen,Groningen,728633.4782334359,7026846.090043847
14200010898107,14200010898107,Duindoornstraat,Elzenlaan,,,1,72.0,,,ah,ah,Groningen,Groningen,728750.028994686,7026882.137298088
14200010898118,14200010898118,Duindoornstraat,Elzenlaan,,,1,72.0,,,aw,aw,Groningen,Groningen,728675.9549385725,7026858.801274759
14200010898110,14200010898110,Duindoornstraat,Elzenlaan,,,1,72.0,,,an,an,Groningen,Groningen,728728.9247986975,7026875.474690778
14200010898107,14200010898107,Duindoornstraat,Elzenlaan,,,1,72.0,,,ah,ah,Groningen,Groningen,728750.028994686,7026882.137298088
14200010898104,14200010898104,Duindoornstraat,Elzenlaan,,,1,72.0,,,ae,ae,Groningen,Groningen,728770.9020985696,7026888.320551326
14200010898113,14200010898113,Duindoornstraat,Elzenlaan,,,1,72.0,,,ar,ar,Groningen,Groningen,728712.8717711929,7026870.515594191
14200010898112,14200010898112,Duindoornstraat,Elzenlaan,,,1,72.0,,,aq,aq,Groningen,Groningen,728717.8571113457,7026872.378996487
14200010812871,14200010812871,De Laan,De Laan,9712AV,9712AV,2,2.0,c,c,12,7,Groningen,Groningen,730253.9542595773,7023459.42750615
14200010898040,14200010898040,Helene Swarthlaan,Helene Swarthlaan,,,21,21.0,,,ac,ay,Groningen,Groningen,730980.1039586333,7018650.141110579
14200010898243,14200010898243,Goudlaan,Kaliumstraat,,,2,13.0,,,aa,aa,Groningen,Groningen,727316.3366411051,7024276.373007651
14200010898311,14200010898311,Granietstraat,Marmerstraat,,,2,13.0,,,aa,aa,Groningen,Groningen,726442.5116288738,7024396.579300445
14200010898312,14200010898312,Granietstraat,Marmerstraat,,,2,13.0,,,ab,ab,Groningen,Groningen,726441.1491585139,7024402.245117873
14200010898313,14200010898313,Granietstraat,Marmerstraat,,,2,13.0,,,ac,ac,Groningen,Groningen,726439.9250201256,7024408.015683133
14200010898314,14200010898314,Granietstraat,Marmerstraat,,,2,13.0,,,ad,ad,Groningen,Groningen,726438.0251571612,7024412.899697626
14200010898317,14200010898317,Granietstraat,Marmerstraat,,,2,13.0,,,ag,ag,Groningen,Groningen,726433.1391362258,7024429.35845638
14200010898318,14200010898318,Granietstraat,Marmerstraat,,,2,13.0,,,ah,ah,Groningen,Groningen,726431.8948004171,7024434.800195336
14200010898319,14200010898319,Granietstraat,Marmerstraat,,,2,13.0,,,ak,ak,Groningen,Groningen,726430.3882908166,7024440.423206151
14200010898320,14200010898320,Granietstraat,Marmerstraat,,,2,13.0,,,am,am,Groningen,Groningen,726428.7006772271,7024445.871976262
14200010898321,14200010898321,Granietstraat,Marmerstraat,,,2,13.0,,,an,an,Groningen,Groningen,726426.7618300848,7024451.244527995
14200010898322,14200010898322,Granietstraat,Marmerstraat,,,2,13.0,,,ap,ap,Groningen,Groningen,726425.4240602471,7024456.681077572
14200010898323,14200010898323,Granietstraat,Marmerstraat,,,2,13.0,,,aq,aq,Groningen,Groningen,726423.8284883719,7024462.576197861
14200010898325,14200010898325,Granietstraat,Marmerstraat,,,2,13.0,,,as,as,Groningen,Groningen,726420.4623578667,7024473.206281252
14200010898327,14200010898327,Granietstraat,Marmerstraat,,,2,13.0,,,au,au,Groningen,Groningen,726416.9258892671,7024484.34535735
14200010898328,14200010898328,Granietstraat,Marmerstraat,,,2,13.0,,,av,av,Groningen,Groningen,726415.0922030666,7024489.622695217
14200010898406,14200010898406,Granietstraat,Marmerstraat,,,2,13.0,,,aw,aw,Groningen,Groningen,726413.2622090876,7024495.028636713
14200010898407,14200010898407,Granietstraat,Marmerstraat,,,2,13.0,,,ax,ax,Groningen,Groningen,726411.8094394377,7024500.044297989
14200010898408,14200010898408,Granietstraat,Marmerstraat,,,2,13.0,,,ay,ay,Groningen,Groningen,726410.3930960522,7024505.78455548
14200010898409,14200010898409,Granietstraat,Marmerstraat,,,2,13.0,,,az,az,Groningen,Groningen,726409.0029925696,7024511.497666621
14200010898410,14200010898410,Granietstraat,Marmerstraat,,,2,13.0,,,ba,ba,Groningen,Groningen,726407.0193828341,7024516.147465497
14200010898411,14200010898411,Granietstraat,Marmerstraat,,,2,13.0,,,bb,bb,Groningen,Groningen,726405.2981308224,7024521.790639111
14200010898316,14200010898316,Granietstraat,Marmerstraat,,,2,13.0,,,af,af,Groningen,Groningen,726434.8365696734,7024424.532780153
14200010898326,14200010898326,Granietstraat,Marmerstraat,,,2,13.0,,,at,at,Groningen,Groningen,726418.8172016287,7024478.811462574
14200010898324,14200010898324,Granietstraat,Marmerstraat,,,2,13.0,,,ar,ar,Groningen,Groningen,726422.1737732657,7024467.997725876
14200010903417,14200010903417,Goudlaan,Kaliumstraat,,,2,13.0,,,ab,ab,Groningen,Groningen,727321.3965396155,7024259.647230591
14200010903418,14200010903418,Goudlaan,Kaliumstraat,,,2,13.0,,,ac,ac,Groningen,Groningen,727322.9909546763,7024254.143068836
14200010903419,14200010903419,Goudlaan,Kaliumstraat,,,2,13.0,,,ad,ad,Groningen,Groningen,727324.8282856743,7024248.506378707
14200010903420,14200010903420,Goudlaan,Kaliumstraat,,,2,13.0,,,ae,ae,Groningen,Groningen,727329.7127827539,7024232.388298764
14200010903421,14200010903421,Goudlaan,Kaliumstraat,,,2,13.0,,,af,af,Groningen,Groningen,727331.5385306019,7024226.442700828
14200010903423,14200010903423,Goudlaan,Kaliumstraat,,,2,13.0,,,ah,ah,Groningen,Groningen,727337.9686614403,7024205.110362967
14200010903424,14200010903424,Goudlaan,Kaliumstraat,,,2,13.0,,,ak,ak,Groningen,Groningen,727339.7583201837,7024199.20211751
14200010903422,14200010903422,Goudlaan,Kaliumstraat,,,2,13.0,,,ag,ag,Groningen,Groningen,727333.1547114288,7024221.155421776
14200010898245,14200010898245,Goudlaan,Barnsteenstraat,,,152,1.0,,,aa,ap,Groningen,Groningen,726989.7670431783,7025350.973520442
14200010898246,14200010898246,Goudlaan,Barnsteenstraat,,,152,1.0,,,ab,an,Groningen,Groningen,726991.4869234781,7025345.678915523
14200010898247,14200010898247,Goudlaan,Barnsteenstraat,,,152,1.0,,,ac,am,Groningen,Groningen,726994.7414159132,7025334.865397964
14200010898248,14200010898248,Goudlaan,Barnsteenstraat,,,152,1.0,,,ad,ak,Groningen,Groningen,726996.7937374103,7025328.878700416
14200010898249,14200010898249,Goudlaan,Barnsteenstraat,,,152,1.0,,,ae,ah,Groningen,Groningen,726998.6114893291,7025323.554142275
14200010898250,14200010898250,Goudlaan,Barnsteenstraat,,,152,1.0,,,af,ag,Groningen,Groningen,727000.0856234118,7025318.216675118
14200010898251,14200010898251,Goudlaan,Barnsteenstraat,,,152,1.0,,,ag,af,Groningen,Groningen,727003.4230273591,7025307.376804759
14200010898252,14200010898252,Goudlaan,Barnsteenstraat,,,152,1.0,,,ah,ae,Groningen,Groningen,727005.1321222167,7025302.033936044
14200010898253,14200010898253,Goudlaan,Barnsteenstraat,,,152,1.0,,,ak,ad,Groningen,Groningen,727006.8781669203,7025296.077201499
14200010898254,14200010898254,Goudlaan,Barnsteenstraat,,,152,1.0,,,am,ac,Groningen,Groningen,727008.3711013255,7025290.980084746
14200010898255,14200010898255,Goudlaan,Barnsteenstraat,,,152,1.0,,,an,ab,Groningen,Groningen,727011.9404856663,7025280.053001192
14200010898256,14200010898256,Goudlaan,Barnsteenstraat,,,152,1.0,,,ap,aa,Groningen,Groningen,727013.7700417462,7025274.738309997
14200010901382,14200010901382,Leisteenstraat,Basaltstraat,,,2,11.0,,,aa,aa,Groningen,Groningen,726408.6593611703,7023976.139101866
14200010901383,14200010901383,Leisteenstraat,Basaltstraat,,,2,11.0,,,ab,ab,Groningen,Groningen,726410.1717910302,7023971.107783149
14200010901384,14200010901384,Leisteenstraat,Basaltstraat,,,2,11.0,,,ac,ac,Groningen,Groningen,726411.9086387781,7023965.404596416
14200010901385,14200010901385,Leisteenstraat,Basaltstraat,,,2,11.0,,,ad,ad,Groningen,Groningen,726416.9766028813,7023949.084256554
14200010901386,14200010901386,Leisteenstraat,Basaltstraat,,,2,11.0,,,ae,ae,Groningen,Groningen,726418.6374672389,7023943.530987441
14200010901387,14200010901387,Leisteenstraat,Basaltstraat,,,2,11.0,,,af,af,Groningen,Groningen,726420.4001937128,7023937.884214765
14200010901388,14200010901388,Leisteenstraat,Basaltstraat,,,2,11.0,,,ag,ag,Groningen,Groningen,726425.1837248622,7023922.131484208
14200010901389,14200010901389,Leisteenstraat,Basaltstraat,,,2,11.0,,,ah,ah,Groningen,Groningen,726426.853094113,7023916.5897924695
14200010901160,14200010901160,Paterswoldseweg,Rode Kruislaan,,,171,71.0,,,aa,aa,Groningen,Groningen,730126.2080922995,7020343.687297575
14200010901161,14200010901161,Paterswoldseweg,Rode Kruislaan,,,171,71.0,,,ab,ab,Groningen,Groningen,730130.4805263178,7020342.912870294
14200010901163,14200010901163,Paterswoldseweg,Rode Kruislaan,,,171,71.0,,,ad,ad,Groningen,Groningen,730146.3422557641,7020342.064679182
14200010901164,14200010901164,Paterswoldseweg,Rode Kruislaan,,,171,71.0,,,ae,ae,Groningen,Groningen,730150.6539765822,7020341.965969788
14200010901165,14200010901165,Paterswoldseweg,Rode Kruislaan,,,171,71.0,,,af,af,Groningen,Groningen,730156.4188233628,7020341.581360698
14200010901166,14200010901166,Paterswoldseweg,Rode Kruislaan,,,171,71.0,,,ag,ag,Groningen,Groningen,730159.9869057839,7020341.035511706
14200010901167,14200010901167,Paterswoldseweg,Rode Kruislaan,,,171,71.0,,,ah,ah,Groningen,Groningen,730173.1359024917,7020340.15970015
14200010901168,14200010901168,Paterswoldseweg,Rode Kruislaan,,,171,71.0,,,ak,ak,Groningen,Groningen,730177.2648123056,7020339.883593292
14200010901169,14200010901169,Paterswoldseweg,Rode Kruislaan,,,171,71.0,,,am,am,Groningen,Groningen,730181.2859444581,7020339.433887509
14200010901162,14200010901162,Paterswoldseweg,Rode Kruislaan,,,171,71.0,,,ac,ac,Groningen,Groningen,730134.968311408,7020342.7812375035
14200010902229,14200010902229,Kaliumstraat,Aluminiumstraat,,,2,11.0,,,aa,aa,Groningen,Groningen,727168.6806469581,7024230.341633125
14200010902230,14200010902230,Kaliumstraat,Aluminiumstraat,,,2,11.0,,,ab,ab,Groningen,Groningen,727173.5854111669,7024214.011168321
14200010902231,14200010902231,Kaliumstraat,Aluminiumstraat,,,2,11.0,,,ac,ac,Groningen,Groningen,727175.4163815456,7024208.2827467825
14200010902232,14200010902232,Kaliumstraat,Aluminiumstraat,,,2,11.0,,,ad,ad,Groningen,Groningen,727177.137520645,7024202.355578829
14200010902233,14200010902233,Kaliumstraat,Aluminiumstraat,,,2,11.0,,,ae,ae,Groningen,Groningen,727181.9120846075,7024186.85597489
14200010902234,14200010902234,Kaliumstraat,Aluminiumstraat,,,2,11.0,,,af,af,Groningen,Groningen,727183.6786573022,7024180.956501135
14200010902235,14200010902235,Kaliumstraat,Aluminiumstraat,,,2,11.0,,,ag,ag,Groningen,Groningen,727185.2719120713,7024175.584435667
14200010902236,14200010902236,Kaliumstraat,Aluminiumstraat,,,2,11.0,,,ah,ah,Groningen,Groningen,727190.1618038949,7024159.476528123
14200010902237,14200010902237,Kaliumstraat,Aluminiumstraat,,,2,11.0,,,ak,ak,Groningen,Groningen,727191.8070196891,7024153.913172744
14200010816877,14200010816877,Oosterkade,Oosterkade,9711RS,9711RS,9,9.0,e,e,11,7,Groningen,Groningen,732229.4013797694,7023245.015808991
14200010902979,14200010902979,Marmerstraat,Pyrietstraat,,,2,23.0,,,aa,aa,Groningen,Groningen,726294.869889323,7024351.474955717
14200010902980,14200010902980,Marmerstraat,Pyrietstraat,,,2,23.0,,,ab,ab,Groningen,Groningen,726293.2952564302,7024357.222604427
14200010902981,14200010902981,Marmerstraat,Pyrietstraat,,,2,23.0,,,ac,ac,Groningen,Groningen,726291.5040466012,7024362.554296669
14200010902982,14200010902982,Marmerstraat,Pyrietstraat,,,2,23.0,,,ad,ad,Groningen,Groningen,726289.8814771341,7024368.010308874
14200010902983,14200010902983,Marmerstraat,Pyrietstraat,,,2,23.0,,,ae,ae,Groningen,Groningen,726287.8832745666,7024373.428827372
14200010902984,14200010902984,Marmerstraat,Pyrietstraat,,,2,23.0,,,af,af,Groningen,Groningen,726286.254832859,7024378.829800267
14200010902985,14200010902985,Marmerstraat,Pyrietstraat,,,2,23.0,,,ag,ag,Groningen,Groningen,726284.6340281839,7024383.975011751
14200010902986,14200010902986,Marmerstraat,Pyrietstraat,,,2,23.0,,,ah,ah,Groningen,Groningen,726283.0922104389,7024389.690415398
14200010902987,14200010902987,Marmerstraat,Pyrietstraat,,,2,23.0,,,ak,ak,Groningen,Groningen,726281.2648338013,7024395.266647052
14200010902988,14200010902988,Marmerstraat,Pyrietstraat,,,2,23.0,,,am,am,Groningen,Groningen,726279.930123276,7024400.691389053
14200010902989,14200010902989,Marmerstraat,Pyrietstraat,,,2,23.0,,,an,an,Groningen,Groningen,726278.472270144,7024405.917577982
14200010902990,14200010902990,Marmerstraat,Pyrietstraat,,,2,23.0,,,ap,ap,Groningen,Groningen,726277.0052056268,7024411.511509393
14200010902991,14200010902991,Marmerstraat,Pyrietstraat,,,2,23.0,,,aq,aq,Groningen,Groningen,726274.9603494102,7024417.249930323
14200010902992,14200010902992,Marmerstraat,Pyrietstraat,,,2,23.0,,,ar,ar,Groningen,Groningen,726273.5317141282,7024422.532476569
14200010902993,14200010902993,Marmerstraat,Pyrietstraat,,,2,23.0,,,as,as,Groningen,Groningen,726271.4364741016,7024427.823905004
14200010902994,14200010902994,Marmerstraat,Pyrietstraat,,,2,23.0,,,at,at,Groningen,Groningen,726269.8000029108,7024433.139822642
14200010902995,14200010902995,Marmerstraat,Pyrietstraat,,,2,23.0,,,au,au,Groningen,Groningen,726268.1820093524,7024438.570742106
14200010902996,14200010902996,Marmerstraat,Pyrietstraat,,,2,23.0,,,av,av,Groningen,Groningen,726266.4951542292,7024444.07460277
14200010902997,14200010902997,Marmerstraat,Pyrietstraat,,,2,23.0,,,aw,aw,Groningen,Groningen,726264.8105067431,7024449.718786453
14200010902998,14200010902998,Marmerstraat,Pyrietstraat,,,2,23.0,,,ax,ax,Groningen,Groningen,726263.7607649934,7024455.140723223
14200010902999,14200010902999,Marmerstraat,Pyrietstraat,,,2,23.0,,,ay,ay,Groningen,Groningen,726261.861702976,7024460.718129759
14200010903000,14200010903000,Marmerstraat,Pyrietstraat,,,2,23.0,,,az,az,Groningen,Groningen,726260.101480666,7024466.009291028
14200010903001,14200010903001,Marmerstraat,Pyrietstraat,,,2,23.0,,,ba,ba,Groningen,Groningen,726258.3395632945,7024471.298811284
14200010903002,14200010903002,Marmerstraat,Pyrietstraat,,,2,23.0,,,bb,bb,Groningen,Groningen,726257.0042815352,7024476.583254207
14200010903063,14200010903063,Porfierstraat,Leisteenstraat,,,2,11.0,,,aa,aa,Groningen,Groningen,726557.4665384851,7024022.29334771
14200010903064,14200010903064,Porfierstraat,Leisteenstraat,,,2,11.0,,,ab,ab,Groningen,Groningen,726559.0149157713,7024017.116041426
14200010903065,14200010903065,Porfierstraat,Leisteenstraat,,,2,11.0,,,ac,ac,Groningen,Groningen,726560.8876538683,7024010.735630946
14200010899727,14200010899727,Porfierstraat,Leisteenstraat,,,2,11.0,,,ad,ad,Groningen,Groningen,726565.6830809348,7023995.223077389
14200010899728,14200010899728,Porfierstraat,Leisteenstraat,,,2,11.0,,,ae,ae,Groningen,Groningen,726567.5896052888,7023988.977480833
14200010899729,14200010899729,Porfierstraat,Leisteenstraat,,,2,11.0,,,af,af,Groningen,Groningen,726569.1400417034,7023983.614703201
14200010899730,14200010899730,Porfierstraat,Leisteenstraat,,,2,11.0,,,ag,ag,Groningen,Groningen,726573.8834209549,7023967.869111645
14200010899731,14200010899731,Porfierstraat,Leisteenstraat,,,2,11.0,,,ah,ah,Groningen,Groningen,726575.3492841842,7023963.167649596
14200010903773,14200010903773,Paterswoldseweg,Rode Kruislaan,,,171,71.0,,,ap,ap,Groningen,Groningen,730180.3112561054,7020306.384592183
14200010903774,14200010903774,Paterswoldseweg,Rode Kruislaan,,,171,71.0,,,aq,aq,Groningen,Groningen,730178.9921724948,7020292.349393033
14200010903775,14200010903775,Paterswoldseweg,Rode Kruislaan,,,171,71.0,,,ar,ar,Groningen,Groningen,730178.2830870334,7020287.0519128805
14200010903776,14200010903776,Paterswoldseweg,Rode Kruislaan,,,171,71.0,,,as,as,Groningen,Groningen,730178.0898862348,7020281.10305734
14200010903777,14200010903777,Paterswoldseweg,Rode Kruislaan,,,171,71.0,,,at,at,Groningen,Groningen,730177.9518706409,7020277.629966516
14200010903778,14200010903778,Paterswoldseweg,Rode Kruislaan,,,171,71.0,,,au,au,Groningen,Groningen,730177.423579956,7020272.6936140265
14200010903779,14200010903779,Paterswoldseweg,Rode Kruislaan,,,171,71.0,,,av,av,Groningen,Groningen,730176.6379631928,7020264.220994416
14200010903780,14200010903780,Paterswoldseweg,Rode Kruislaan,,,171,71.0,,,aw,aw,Groningen,Groningen,730176.2632781803,7020259.818224239
14200010903781,14200010903781,Paterswoldseweg,Rode Kruislaan,,,171,71.0,,,ax,ax,Groningen,Groningen,730176.1748240395,7020256.319283635
14200010903782,14200010903782,Paterswoldseweg,Rode Kruislaan,,,171,71.0,,,ay,ay,Groningen,Groningen,730175.8209169204,7020251.246497222
14200010903783,14200010903783,Paterswoldseweg,Rode Kruislaan,,,171,71.0,,,az,az,Groningen,Groningen,730175.6074597642,7020247.333762398
14200010903784,14200010903784,Paterswoldseweg,Rode Kruislaan,,,171,71.0,,,ba,ba,Groningen,Groningen,730175.353228626,7020243.269722094
14200010903772,14200010903772,Paterswoldseweg,Rode Kruislaan,,,171,71.0,,,an,an,Groningen,Groningen,730180.6924303793,7020310.673718944
14200010903785,14200010903785,Paterswoldseweg,Rode Kruislaan,,,171,71.0,,,bb,bb,Groningen,Groningen,730174.6539697546,7020234.88256585
14200010903786,14200010903786,Paterswoldseweg,Rode Kruislaan,,,171,71.0,,,bc,bc,Groningen,Groningen,730174.3967040092,7020230.631538535
14200010903787,14200010903787,Paterswoldseweg,Rode Kruislaan,,,171,71.0,,,bd,bd,Groningen,Groningen,730173.8834484175,7020226.723703937
14200010903788,14200010903788,Paterswoldseweg,Rode Kruislaan,,,171,71.0,,,be,be,Groningen,Groningen,730173.7232704924,7020221.166809425
14200010903789,14200010903789,Paterswoldseweg,Rode Kruislaan,,,171,71.0,,,bf,bf,Groningen,Groningen,730173.4760088128,7020216.608342132
14200010903790,14200010903790,Paterswoldseweg,Rode Kruislaan,,,171,71.0,,,bg,bg,Groningen,Groningen,730172.0530061029,7020203.251350868
14200010903791,14200010903791,Paterswoldseweg,Rode Kruislaan,,,171,71.0,,,bh,bh,Groningen,Groningen,730171.6653644022,7020198.563252032
14200010898057,14200010898057,Helene Swarthlaan,Helene Swarthlaan,,,21,21.0,,,ax,ad,Groningen,Groningen,730996.117705284,7018651.364314841
14200010898043,14200010898043,Helene Swarthlaan,Helene Swarthlaan,,,21,21.0,,,af,av,Groningen,Groningen,730981.1220811653,7018636.499662301
14200010903132,14200010903132,Spinelstraat,Jaspisstraat,,,2,11.0,,,aa,aa,Groningen,Groningen,726693.5691551974,7025260.790989937
14200010903133,14200010903133,Spinelstraat,Jaspisstraat,,,2,11.0,,,ab,ab,Groningen,Groningen,726695.6179336219,7025255.411076321
14200010903134,14200010903134,Spinelstraat,Jaspisstraat,,,2,11.0,,,ac,ac,Groningen,Groningen,726697.9613019645,7025244.094246312
14200010903135,14200010903135,Spinelstraat,Jaspisstraat,,,2,11.0,,,ad,ad,Groningen,Groningen,726699.8589265932,7025238.327387837
14200010903136,14200010903136,Spinelstraat,Jaspisstraat,,,2,11.0,,,ae,ae,Groningen,Groningen,726701.8802438062,7025232.687239606
14200010903137,14200010903137,Spinelstraat,Jaspisstraat,,,2,11.0,,,af,af,Groningen,Groningen,726703.1166534711,7025227.485677397
14200010903138,14200010903138,Spinelstraat,Jaspisstraat,,,2,11.0,,,ag,ag,Groningen,Groningen,726706.5882111561,7025216.251230132
14200010903139,14200010903139,Spinelstraat,Jaspisstraat,,,2,11.0,,,ah,ah,Groningen,Groningen,726708.6361680924,7025211.137052048
14200010899800,14200010899800,Spinelstraat,Jaspisstraat,,,2,11.0,,,ak,ak,Groningen,Groningen,726710.1678381287,7025205.42114456
14200010899801,14200010899801,Spinelstraat,Jaspisstraat,,,2,11.0,,,am,am,Groningen,Groningen,726711.5010688296,7025199.912259749
14200010899802,14200010899802,Spinelstraat,Jaspisstraat,,,2,11.0,,,an,an,Groningen,Groningen,726715.3703642177,7025189.5855899295
14200010899803,14200010899803,Spinelstraat,Jaspisstraat,,,2,11.0,,,ap,ap,Groningen,Groningen,726716.6955614295,7025183.568846156
14200010899994,14200010899994,Siersteenlaan,Opaalstraat,,,217,30.0,,,aa,aa,Groningen,Groningen,726491.5833355633,7024855.603236953
14200010899995,14200010899995,Siersteenlaan,Opaalstraat,,,217,30.0,,,ab,ab,Groningen,Groningen,726475.8817625948,7024849.753107825
14200010899996,14200010899996,Siersteenlaan,Opaalstraat,,,217,30.0,,,ac,ac,Groningen,Groningen,726471.4133741034,7024848.106181606
14200010899997,14200010899997,Siersteenlaan,Opaalstraat,,,217,30.0,,,ad,ad,Groningen,Groningen,726465.7561282746,7024846.755478793
14200010899998,14200010899998,Siersteenlaan,Opaalstraat,,,217,30.0,,,ae,ae,Groningen,Groningen,726449.2978632862,7024841.649183006
14200010899999,14200010899999,Siersteenlaan,Opaalstraat,,,217,30.0,,,af,af,Groningen,Groningen,726444.0092179296,7024839.88824959
14200010900000,14200010900000,Siersteenlaan,Opaalstraat,,,217,30.0,,,ag,ag,Groningen,Groningen,726439.0689439983,7024838.760102358
14200010900001,14200010900001,Siersteenlaan,Opaalstraat,,,217,30.0,,,ah,ah,Groningen,Groningen,726422.1671168123,7024832.584682357
14200010900002,14200010900002,Siersteenlaan,Opaalstraat,,,217,30.0,,,ak,ak,Groningen,Groningen,726416.9046912956,7024831.322936854
14200010900003,14200010900003,Siersteenlaan,Opaalstraat,,,217,30.0,,,am,am,Groningen,Groningen,726411.1036658963,7024829.626915452
14200010900004,14200010900004,Siersteenlaan,Opaalstraat,,,217,30.0,,,an,an,Groningen,Groningen,726394.9571246059,7024824.305038834
14200010900005,14200010900005,Siersteenlaan,Opaalstraat,,,217,30.0,,,ap,ap,Groningen,Groningen,726390.0059651012,7024823.225494111
14200010900006,14200010900006,Siersteenlaan,Opaalstraat,,,217,30.0,,,aq,aq,Groningen,Groningen,726384.6707051122,7024821.889689344
14200010900007,14200010900007,Siersteenlaan,Opaalstraat,,,217,30.0,,,ar,ar,Groningen,Groningen,726367.1007578366,7024816.470000097
14200010900008,14200010900008,Siersteenlaan,Opaalstraat,,,217,30.0,,,as,as,Groningen,Groningen,726361.8207799925,7024814.939473932
14200010900009,14200010900009,Siersteenlaan,Opaalstraat,,,217,30.0,,,at,at,Groningen,Groningen,726356.4256950994,7024812.8743883185
14200010900010,14200010900010,Siersteenlaan,Opaalstraat,,,217,30.0,,,au,au,Groningen,Groningen,726340.594336594,7024808.8257083185
14200010900011,14200010900011,Siersteenlaan,Opaalstraat,,,217,30.0,,,av,av,Groningen,Groningen,726335.1975946801,7024806.760636312
14200010900012,14200010900012,Siersteenlaan,Opaalstraat,,,289,32.0,,,aa,aa,Groningen,Groningen,726297.0384566267,7024794.825885489
14200010900013,14200010900013,Siersteenlaan,Opaalstraat,,,289,32.0,,,ab,ab,Groningen,Groningen,726280.3765098142,7024790.0032225605
14200010900014,14200010900014,Siersteenlaan,Opaalstraat,,,289,32.0,,,ac,ac,Groningen,Groningen,726274.495997163,7024788.336775788
14200010900015,14200010900015,Siersteenlaan,Opaalstraat,,,289,32.0,,,ad,ad,Groningen,Groningen,726269.0085037143,7024786.857936173
14200010900016,14200010900016,Siersteenlaan,Opaalstraat,,,289,32.0,,,ae,ae,Groningen,Groningen,726253.5041977545,7024781.236564588
14200010900017,14200010900017,Siersteenlaan,Opaalstraat,,,289,32.0,,,af,af,Groningen,Groningen,726248.0214573437,7024779.953138639
14200010900018,14200010900018,Siersteenlaan,Opaalstraat,,,289,32.0,,,ag,ag,Groningen,Groningen,726242.1409586545,7024778.2866700925
14200010900019,14200010900019,Siersteenlaan,Opaalstraat,,,289,32.0,,,ah,ah,Groningen,Groningen,726226.243620096,7024772.474298245
14200010900020,14200010900020,Siersteenlaan,Opaalstraat,,,289,32.0,,,ak,ak,Groningen,Groningen,726220.7561462168,7024770.995428346
14200010900021,14200010900021,Siersteenlaan,Opaalstraat,,,289,32.0,,,am,am,Groningen,Groningen,726214.8848908396,7024769.915300358
14200010900022,14200010900022,Siersteenlaan,Opaalstraat,,,289,32.0,,,an,an,Groningen,Groningen,726199.5865071127,7024764.875412794
14200010900023,14200010900023,Siersteenlaan,Opaalstraat,,,289,32.0,,,ap,ap,Groningen,Groningen,726193.5048944467,7024762.821090047
14200010900024,14200010900024,Siersteenlaan,Opaalstraat,,,289,32.0,,,aq,aq,Groningen,Groningen,726187.6336223223,7024761.739272575
14200010900025,14200010900025,Siersteenlaan,Opaalstraat,,,289,32.0,,,ar,ar,Groningen,Groningen,726171.7425074823,7024756.317709248
14200010900026,14200010900026,Siersteenlaan,Opaalstraat,,,289,32.0,,,as,as,Groningen,Groningen,726166.2489290466,7024754.449570148
14200010900027,14200010900027,Siersteenlaan,Opaalstraat,,,289,32.0,,,at,at,Groningen,Groningen,726160.5527845895,7024751.996456355
14200010900028,14200010900028,Siersteenlaan,Opaalstraat,,,289,32.0,,,au,au,Groningen,Groningen,726144.6771100706,7024747.553778254
14200010900251,14200010900251,Siersteenlaan,Opaalstraat,,,289,32.0,,,av,av,Groningen,Groningen,726138.0150376899,7024745.897926511
14200010901474,14200010901474,Wilgenlaan,Bessemoerstraat,,,180,49.0,,,aa,aa,Groningen,Groningen,729021.5028388896,7025486.51562753
14200010901475,14200010901475,Wilgenlaan,Bessemoerstraat,,,180,49.0,,,ab,ab,Groningen,Groningen,729030.2803373076,7025489.020720837
14200010901476,14200010901476,Wilgenlaan,Bessemoerstraat,,,180,49.0,,,ac,ac,Groningen,Groningen,729038.7545113441,7025491.634319812
14200010901477,14200010901477,Wilgenlaan,Bessemoerstraat,,,180,49.0,,,ad,ad,Groningen,Groningen,729048.5522797403,7025494.139605069
14200010901478,14200010901478,Wilgenlaan,Bessemoerstraat,,,180,49.0,,,ae,ae,Groningen,Groningen,729057.2887209159,7025496.78570869
14200010901479,14200010901479,Wilgenlaan,Bessemoerstraat,,,180,49.0,,,af,af,Groningen,Groningen,729066.7294326542,7025499.064464371
14200010901480,14200010901480,Wilgenlaan,Bessemoerstraat,,,180,49.0,,,ag,ag,Groningen,Groningen,729076.0962810417,7025501.518200202
14200010901481,14200010901481,Wilgenlaan,Bessemoerstraat,,,180,49.0,,,ah,ah,Groningen,Groningen,729084.4455410998,7025504.447945137
14200010901482,14200010901482,Wilgenlaan,Bessemoerstraat,,,180,49.0,,,ak,ak,Groningen,Groningen,729093.6330457417,7025506.737452415
14200010901483,14200010901483,Wilgenlaan,Bessemoerstraat,,,180,49.0,,,am,am,Groningen,Groningen,729102.7434079276,7025509.205336138
14200010901484,14200010901484,Wilgenlaan,Bessemoerstraat,,,180,49.0,,,an,an,Groningen,Groningen,729111.62311204,7025512.153210426
14200010901485,14200010901485,Wilgenlaan,Bessemoerstraat,,,180,49.0,,,ap,ap,Groningen,Groningen,729120.3416351961,7025514.719327976
14200010901486,14200010901486,Wilgenlaan,Bessemoerstraat,,,180,49.0,,,aq,aq,Groningen,Groningen,729130.0815829393,7025517.357474984
14200010901487,14200010901487,Wilgenlaan,Bessemoerstraat,,,180,49.0,,,ar,ar,Groningen,Groningen,729138.6326446742,7025519.876151142
14200010901488,14200010901488,Wilgenlaan,Bessemoerstraat,,,180,49.0,,,as,as,Groningen,Groningen,729147.4802131181,7025522.27638367
14200010901489,14200010901489,Wilgenlaan,Bessemoerstraat,,,180,49.0,,,at,at,Groningen,Groningen,729157.233974074,7025523.80465495
14200010901490,14200010901490,Wilgenlaan,Bessemoerstraat,,,180,49.0,,,au,au,Groningen,Groningen,729165.923753939,7025526.033626383
14200010901491,14200010901491,Wilgenlaan,Bessemoerstraat,,,180,49.0,,,av,av,Groningen,Groningen,729174.9708716291,7025528.091363082
14200010901492,14200010901492,Wilgenlaan,Bessemoerstraat,,,180,49.0,,,aw,aw,Groningen,Groningen,729185.2222724198,7025530.602517862
14200010901493,14200010901493,Wilgenlaan,Bessemoerstraat,,,180,49.0,,,ax,ax,Groningen,Groningen,729193.4565218049,7025533.5290091615
14200010901494,14200010901494,Wilgenlaan,Bessemoerstraat,,,180,49.0,,,ay,ay,Groningen,Groningen,729202.2266716782,7025535.778367249
14200010901495,14200010901495,Wilgenlaan,Bessemoerstraat,,,180,49.0,,,az,az,Groningen,Groningen,729211.9292833732,7025538.579125319
14200010901496,14200010901496,Wilgenlaan,Bessemoerstraat,,,180,49.0,,,ba,ba,Groningen,Groningen,729220.6229292762,7025541.459716213
14200010901497,14200010901497,Wilgenlaan,Bessemoerstraat,,,180,49.0,,,bb,bb,Groningen,Groningen,729228.7981126991,7025543.3059165
14200010901498,14200010901498,Wilgenlaan,Bessemoerstraat,,,180,49.0,,,bc,bc,Groningen,Groningen,729239.2153505549,7025545.657235757
14200010901499,14200010901499,Wilgenlaan,Bessemoerstraat,,,180,49.0,,,bd,bd,Groningen,Groningen,729247.9401718003,7025548.609152968
14200010901500,14200010901500,Wilgenlaan,Bessemoerstraat,,,180,49.0,,,be,be,Groningen,Groningen,729256.5851177298,7025551.052663324
14200010901501,14200010901501,Wilgenlaan,Bessemoerstraat,,,180,49.0,,,bf,bf,Groningen,Groningen,729266.2853994911,7025553.809949716
14200010901502,14200010901502,Wilgenlaan,Bessemoerstraat,,,180,49.0,,,bg,bg,Groningen,Groningen,729274.9501409439,7025556.23975222
14200010901503,14200010901503,Wilgenlaan,Bessemoerstraat,,,180,49.0,,,bh,bh,Groningen,Groningen,729283.4244373563,7025558.851442336
14200010901504,14200010901504,Wilgenlaan,Bessemoerstraat,,,180,49.0,,,bk,bk,Groningen,Groningen,729292.2814082081,7025563.896766272
14200010901505,14200010901505,Wilgenlaan,Bessemoerstraat,,,180,49.0,,,bm,bm,Groningen,Groningen,729301.26004365,7025565.734891733
14200010901506,14200010901506,Wilgenlaan,Bessemoerstraat,,,180,49.0,,,bn,bn,Groningen,Groningen,729310.0540697725,7025568.530212733
14200010901507,14200010901507,Wilgenlaan,Bessemoerstraat,,,180,49.0,,,bp,bp,Groningen,Groningen,729319.4887814947,7025570.840540754
14200010901508,14200010901508,Wilgenlaan,Bessemoerstraat,,,180,49.0,,,bq,bq,Groningen,Groningen,729328.9248730585,7025573.236063507
14200010901509,14200010901509,Wilgenlaan,Bessemoerstraat,,,180,49.0,,,br,br,Groningen,Groningen,729337.4992272521,7025575.744141561
14200010901510,14200010901510,Wilgenlaan,Bessemoerstraat,,,180,49.0,,,bs,bs,Groningen,Groningen,729346.4171581438,7025578.778060326
14200010901681,14200010901681,Wilgenlaan,Bessemoerstraat,,,180,49.0,,,bt,bt,Groningen,Groningen,729354.9149423874,7025581.395986281
14200010901682,14200010901682,Wilgenlaan,Bessemoerstraat,,,180,49.0,,,bu,bu,Groningen,Groningen,729364.11213486,7025583.862189257
14200010901683,14200010901683,Wilgenlaan,Bessemoerstraat,,,180,49.0,,,bv,bv,Groningen,Groningen,729373.1028519402,7025586.859807674
14200010901684,14200010901684,Wilgenlaan,Bessemoerstraat,,,180,49.0,,,bw,bw,Groningen,Groningen,729382.4481641046,7025589.103000341
14200010901685,14200010901685,Wilgenlaan,Bessemoerstraat,,,180,49.0,,,bx,bx,Groningen,Groningen,729392.0499042175,7025591.843363718
14200010901686,14200010901686,Wilgenlaan,Bessemoerstraat,,,180,49.0,,,bz,bz,Groningen,Groningen,729409.5751212256,7025596.838241672
14200010901687,14200010901687,Wilgenlaan,Bessemoerstraat,,,180,49.0,,,ca,ca,Groningen,Groningen,729419.142160003,7025599.286689873
14200010901892,14200010901892,Wenckebachlaan,Henri Dunantlaan,,,56,95.0,,,aa,aa,Groningen,Groningen,730084.490046545,7019018.257856961
14200010901901,14200010901901,Wenckebachlaan,Henri Dunantlaan,,,56,95.0,,,am,am,Groningen,Groningen,730042.7902816363,7019031.435718311
14200010901902,14200010901902,Wenckebachlaan,Henri Dunantlaan,,,56,95.0,,,an,an,Groningen,Groningen,730038.1566048831,7019032.900475549
14200010901903,14200010901903,Wenckebachlaan,Henri Dunantlaan,,,56,95.0,,,ap,ap,Groningen,Groningen,730033.524591738,7019034.36520325
14200010901904,14200010901904,Wenckebachlaan,Henri Dunantlaan,,,56,95.0,,,aq,aq,Groningen,Groningen,730028.890884518,7019035.828286335
14200010901905,14200010901905,Wenckebachlaan,Henri Dunantlaan,,,56,95.0,,,ar,ar,Groningen,Groningen,730024.2572026668,7019037.293036347
14200010901906,14200010901906,Wenckebachlaan,Henri Dunantlaan,,,56,95.0,,,as,as,Groningen,Groningen,730019.6235191156,7019038.757783949
14200010901907,14200010901907,Wenckebachlaan,Henri Dunantlaan,,,56,95.0,,,at,at,Groningen,Groningen,730014.9914991735,7019040.222502011
14200010901908,14200010901908,Wenckebachlaan,Henri Dunantlaan,,,56,95.0,,,au,au,Groningen,Groningen,730010.3577851591,7019041.685575456
14200010901909,14200010901909,Wenckebachlaan,Henri Dunantlaan,,,56,95.0,,,av,av,Groningen,Groningen,730005.7240965095,7019043.150315833
14200010901893,14200010901893,Wenckebachlaan,Henri Dunantlaan,,,56,95.0,,,ab,ab,Groningen,Groningen,730079.8563850877,7019019.722635891
14200010901911,14200010901911,Wenckebachlaan,Henri Dunantlaan,,,56,95.0,,,ax,ax,Groningen,Groningen,729996.4566870498,7019046.078120004
14200010901912,14200010901912,Wenckebachlaan,Henri Dunantlaan,,,56,95.0,,,ay,ay,Groningen,Groningen,729991.8246586118,7019047.542826018
14200010901913,14200010901913,Wenckebachlaan,Henri Dunantlaan,,,56,95.0,,,az,az,Groningen,Groningen,729987.1909631641,7019049.007556759
14200010902099,14200010902099,Wenckebachlaan,Henri Dunantlaan,,,56,95.0,,,bd,bd,Groningen,Groningen,729968.6578026311,7019054.864759129
14200010901895,14200010901895,Wenckebachlaan,Henri Dunantlaan,,,56,95.0,,,ad,ad,Groningen,Groningen,730070.5906953028,7019022.65049005
14200010901896,14200010901896,Wenckebachlaan,Henri Dunantlaan,,,56,95.0,,,ae,ae,Groningen,Groningen,730065.9570287471,7019024.115261752
14200010901897,14200010901897,Wenckebachlaan,Henri Dunantlaan,,,56,95.0,,,af,af,Groningen,Groningen,730061.3233604913,7019025.580031047
14200010901898,14200010901898,Wenckebachlaan,Henri Dunantlaan,,,56,95.0,,,ag,ag,Groningen,Groningen,730056.6913287684,7019027.043101453
14200010901899,14200010901899,Wenckebachlaan,Henri Dunantlaan,,,56,95.0,,,ah,ah,Groningen,Groningen,730052.0576571143,7019028.507865925
14200010901894,14200010901894,Wenckebachlaan,Henri Dunantlaan,,,56,95.0,,,ac,ac,Groningen,Groningen,730075.2243601586,7019021.185715942
14200010820011,14200010820011,Werfstraat,Werfstraat,9712VN,9712VN,1,1.0,b,c,4,,Groningen,Groningen,729909.4352383739,7023749.861966274
14200010902645,14200010902645,Veldspaatstraat,Granietstraat,,,48,53.0,,,aa,aa,Groningen,Groningen,726438.2466421863,7024601.654444132
14200010902660,14200010902660,Veldspaatstraat,Marmerstraat,,,98,53.0,,,aa,aa,Groningen,Groningen,726290.1630391108,7024556.143112713
14200010902661,14200010902661,Veldspaatstraat,Marmerstraat,,,98,53.0,,,ab,ab,Groningen,Groningen,726295.4370444305,7024557.62360232
14200010902662,14200010902662,Veldspaatstraat,Marmerstraat,,,98,53.0,,,ac,ac,Groningen,Groningen,726305.9923950507,7024561.155907319
14200010902663,14200010902663,Veldspaatstraat,Marmerstraat,,,98,53.0,,,ad,ad,Groningen,Groningen,726311.4147677266,7024563.060121032
14200010902664,14200010902664,Veldspaatstraat,Marmerstraat,,,98,53.0,,,ae,ae,Groningen,Groningen,726317.1349575559,7024564.717334274
14200010902665,14200010902665,Veldspaatstraat,Marmerstraat,,,98,53.0,,,af,af,Groningen,Groningen,726322.5528787259,7024566.444495112
14200010902666,14200010902666,Veldspaatstraat,Marmerstraat,,,98,53.0,,,ag,ag,Groningen,Groningen,726333.5292541878,7024569.719464976
14200010902667,14200010902667,Veldspaatstraat,Marmerstraat,,,98,53.0,,,ah,ah,Groningen,Groningen,726338.9838628722,7024571.5529733645
14200010902668,14200010902668,Veldspaatstraat,Marmerstraat,,,98,53.0,,,ak,ak,Groningen,Groningen,726344.3557430472,7024572.896539915
14200010902669,14200010902669,Veldspaatstraat,Marmerstraat,,,98,53.0,,,am,am,Groningen,Groningen,726349.789208162,7024574.551588743
14200010902670,14200010902670,Veldspaatstraat,Marmerstraat,,,98,53.0,,,an,an,Groningen,Groningen,726360.72934592,7024577.746894777
14200010902671,14200010902671,Veldspaatstraat,Marmerstraat,,,98,53.0,,,ap,ap,Groningen,Groningen,726366.4346293018,7024579.514592487
14200010902672,14200010902672,Veldspaatstraat,Marmerstraat,,,98,53.0,,,aq,aq,Groningen,Groningen,726371.7240494319,7024581.12512364
14200010902673,14200010902673,Veldspaatstraat,Marmerstraat,,,98,53.0,,,ar,ar,Groningen,Groningen,726376.723663343,7024582.750267547
14200010902674,14200010902674,Veldspaatstraat,Marmerstraat,,,98,53.0,,,as,as,Groningen,Groningen,726387.2356000909,7024586.590613388
14200010902675,14200010902675,Veldspaatstraat,Marmerstraat,,,98,53.0,,,at,at,Groningen,Groningen,726392.9646138685,7024588.488249844
14200010848157,14200010848157,Visserstraat,Visserstraat,9712CT,9712CT,51,51.0,d,c,,,Groningen,Groningen,730146.7294460299,7023668.798402988
14200010899278,14200010899278,Groningerweg,Groningerweg,,,17,18.0,,,aa,aa,Groningen,Groningen,731359.2238481075,7028315.269121629
14200010899279,14200010899279,Groningerweg,Groningerweg,,,17,18.0,,,ab,ab,Groningen,Groningen,731360.4801365372,7028310.721474689
14200010899280,14200010899280,Groningerweg,Groningerweg,,,17,18.0,,,ac,ac,Groningen,Groningen,731361.7363961714,7028306.17215888
14200010899281,14200010899281,Groningerweg,Groningerweg,,,17,18.0,,,ad,ad,Groningen,Groningen,731362.9926543948,7028301.622845432
14200010899282,14200010899282,Groningerweg,Groningerweg,,,17,18.0,,,ae,ae,Groningen,Groningen,731364.2489385926,7028297.075205607
14200010899283,14200010899283,Groningerweg,Groningerweg,,,17,18.0,,,af,af,Groningen,Groningen,731365.5051939945,7028292.525896918
14200010899284,14200010899284,Groningerweg,Groningerweg,,,17,18.0,,,ag,ag,Groningen,Groningen,731366.7631152052,7028287.976563139
14200010899285,14200010899285,Groningerweg,Groningerweg,,,17,18.0,,,ah,ah,Groningen,Groningen,731368.0193951702,7028283.428930427
14200010899286,14200010899286,Groningerweg,Groningerweg,,,17,18.0,,,ak,ak,Groningen,Groningen,731369.2756463382,7028278.879628845
14200010899287,14200010899287,Groningerweg,Groningerweg,,,17,18.0,,,am,am,Groningen,Groningen,731370.5318960957,7028274.330329631
14200010898510,14200010898510,Aweg,Aweg,,9718CS,4,4.0,,,aa,1a,Groningen,Groningen,729897.4178093561,7023158.922158874
14200010881733,14200010881733,Trompsingel,Trompsingel,9724CZ,9724CX,13,13.0,,,,,Groningen,Groningen,731894.8905022321,7022629.26147355
14200010884009,14200010884009,Trompsingel,Trompsingel,9724CZ,9724CX,15,15.0,,,,,Groningen,Groningen,731897.6098857558,7022631.97623339
14200010876826,14200010876826,Trompsingel,Trompsingel,9724CZ,9724CX,19,19.0,,,,,Groningen,Groningen,731903.6426143958,7022637.649855277
14200022188547,14200022188547,Burchtstraat,Burchtstraat,9711LT,9711LT,5,5.0,g,a,,,Groningen,Groningen,731288.9593295195,7022976.763567811
14200010898124,14200010898124,Duindoornstraat,Elzenlaan,,,1,72.0,,,bc,bc,Groningen,Groningen,728638.463831209,7026847.452068538
14200022197022,14200022197022,Damsterdiep,Damsterdiep,9711SX,9711SK,8,8.0,a,a,,,Groningen,Groningen,731893.1641571117,7023288.853478179
14200022197023,14200022197023,Damsterdiep,Damsterdiep,9711SX,9711SK,8,8.0,b,b,,,Groningen,Groningen,731891.045288914,7023292.871357027
14200022197024,14200022197024,Damsterdiep,Damsterdiep,9711SX,9711SK,8,8.0,c,c,,,Groningen,Groningen,731888.5380085508,7023297.4920836305
14200010884010,14200010884010,Trompsingel,Trompsingel,9724CZ,9724CX,17,17.0,,,,,Groningen,Groningen,731900.7734007045,7022634.742120562
14200010898879,14200010898879,Hoendiep,Hoendiep,,,182,184.0,,,aa,aa,Groningen,Groningen,724135.8413988478,7023259.284846431
14200010898880,14200010898880,Hoendiep,Hoendiep,,,182,184.0,,,ab,ab,Groningen,Groningen,724136.4937400802,7023263.850572201
14200010898881,14200010898881,Hoendiep,Hoendiep,,,182,184.0,,,ac,ac,Groningen,Groningen,724137.1460820654,7023268.416300499
14200010898882,14200010898882,Hoendiep,Hoendiep,,,182,184.0,,,ad,ad,Groningen,Groningen,724137.8000910144,7023272.982005403
14200010898883,14200010898883,Hoendiep,Hoendiep,,,182,184.0,,,ae,ae,Groningen,Groningen,724138.4524086437,7023277.546068512
14200010898884,14200010898884,Hoendiep,Hoendiep,,,182,184.0,,,af,af,Groningen,Groningen,724139.1047528873,7023282.111804377
14200010898885,14200010898885,Hoendiep,Hoendiep,,,182,184.0,,,ag,ag,Groningen,Groningen,724139.7570978833,7023286.677542776
14200010898886,14200010898886,Hoendiep,Hoendiep,,,182,184.0,,,ah,ah,Groningen,Groningen,724140.4111098468,7023291.24325777
14200010898887,14200010898887,Hoendiep,Hoendiep,,,182,184.0,,,ak,ak,Groningen,Groningen,724141.063456349,7023295.809001215
14200010898888,14200010898888,Hoendiep,Hoendiep,,,182,184.0,,,am,am,Groningen,Groningen,724141.7158036035,7023300.3747471785
14200010898889,14200010898889,Hoendiep,Hoendiep,,,182,184.0,,,an,an,Groningen,Groningen,724142.3681516104,7023304.94049567
14200010898890,14200010898890,Hoendiep,Hoendiep,,,182,184.0,,,ap,ap,Groningen,Groningen,724143.022166589,7023309.506220762
14200010898891,14200010898891,Hoendiep,Hoendiep,,,182,184.0,,,aq,aq,Groningen,Groningen,724143.6745161021,7023314.071974307
14200010898892,14200010898892,Hoendiep,Hoendiep,,,182,184.0,,,ar,ar,Groningen,Groningen,724144.3268663677,7023318.637730373
14200010898893,14200010898893,Hoendiep,Hoendiep,,,182,184.0,,,as,as,Groningen,Groningen,724144.979217386,7023323.203488955
14200010898895,14200010898895,Hoendiep,Hoendiep,,,182,184.0,,,au,au,Groningen,Groningen,724146.2855879032,7023332.334987782
14200022199388,14200022199388,Gelkingestraat,Entensgang,9711NB,9711NJ,27,7.0,,,6,,Groningen,Groningen,731142.8656228635,7023195.7999008205
14200010898510,14200010898510,Aweg,Aweg,,9718CS,4,4.0,,,aa,1a,Groningen,Groningen,729897.4178093561,7023158.922158874
14200010898122,14200010898122,Duindoornstraat,Elzenlaan,,,1,72.0,,,ba,ba,Groningen,Groningen,728649.1874089527,7026850.824176401
14200022196088,14200022196088,Paterswoldseweg,Paterswoldseweg,9726GC,9726BC,2,2.0,c,c,,,Groningen,Groningen,729822.080884427,7022600.638666593
14200022199640,14200022199640,Kieler Bocht,Kieler Bocht,,9723JA,15,15.0,c,d,,,Groningen,Groningen,735764.856127565,7023081.455407041
14200010898053,14200010898053,Helene Swarthlaan,Helene Swarthlaan,,,21,21.0,,,at,ah,Groningen,Groningen,730997.4720158885,7018633.220850411
14200010898101,14200010898101,Duindoornstraat,Elzenlaan,,,1,72.0,,,ab,ab,Groningen,Groningen,728792.0262048602,7026894.972709447
14200022196079,14200022196079,Stationsstraat,Gedempte Zuiderdiep,,9711HN,1,144.0,e,,,,Groningen,Groningen,730521.2810917877,7022789.252372685
14200022188492,14200022188492,Lissabonstraat,Lissabonstraat,9718AA,9718AZ,50,50.0,,,,,Groningen,Groningen,729762.7951154269,7022846.512381502
14200022188491,14200022188491,Lissabonstraat,Lissabonstraat,9718AA,9718AZ,48,48.0,,,,,Groningen,Groningen,729758.4549058672,7022844.316004743
14200022188493,14200022188493,Lissabonstraat,Lissabonstraat,9718AA,9718AZ,46,46.0,,,,,Groningen,Groningen,729753.6446366298,7022842.6284389105
14200022188495,14200022188495,Lissabonstraat,Lissabonstraat,9718AA,9718AZ,44,44.0,,,,,Groningen,Groningen,729748.9344739891,7022839.814953747
14200022200150,14200022200150,Poelestraat,Poelestraat,9712JV,9712KA,18,18.0,,,,,Groningen,Groningen,731346.055363644,7023497.0363926655
14200022199640,14200022199640,Kieler Bocht,Kieler Bocht,,9723JA,15,15.0,c,d,,,Groningen,Groningen,735764.856127565,7023081.455407041
14200022201522,14200022201522,Parkweg,Parkweg,9727HD,9727HC,112,112.0,,,,,Groningen,Groningen,730378.9513148974,7021429.07275906
14200022201523,14200022201523,Parkweg,Parkweg,9727HD,9727HC,112,112.0,,,1,1,Groningen,Groningen,730372.2836031874,7021426.855004556
14200022201867,14200022201867,Violenstraat,Violenstraat,9717NA,9712RD,21,21.0,a,a,,,Groningen,Groningen,730321.7132123683,7024649.014505978
14200022201868,14200022201868,Violenstraat,Violenstraat,9717NA,9712RD,21,21.0,b,b,,,Groningen,Groningen,730319.1551672333,7024652.747390348
14200022202406,14200022202406,Korte Nieuwstraat,Korte Nieuwstraat,9724LC,9724LC,4,4.0,b,a,,,Groningen,Groningen,732508.4570202179,7022513.004041738
14200010898111,14200010898111,Duindoornstraat,Elzenlaan,,,1,72.0,,,ap,ap,Groningen,Groningen,728723.6737566,7026873.8863475835
40200000019403,40200000019403,Zuiderweg,Zuiderweg,9623PD,9622PD,11,11.0,,,,,Lageland GN,Lageland GN,741618.3908834915,7027443.606451906
40200000012727,40200000012727,Driemerenweg,Driemerenweg,9617AG,9614AH,6,6.0,,,,,Harkstede GN,Harkstede GN,743001.355398211,7026580.708837205
40200000012728,40200000012728,Driemerenweg,Driemerenweg,9617AG,9614AH,8,8.0,,,,,Harkstede GN,Harkstede GN,743021.9907197981,7026580.723446707
40200000019653,40200000019653,Slochterdiep,Slochterdiep,9623TH,9622TJ,2,2.0,A,a,,,Lageland GN,Lageland GN,740328.5268454365,7026646.24275452
40200000011700,40200000011700,Bieleveldslaan,Bieleveldslaan,9617TA,9614TA,1,1.0,,,,,Harkstede GN,Harkstede GN,743939.9750961588,7021309.330628139
40200000014974,40200000014974,Hoofdweg,Hoofdweg,9617AE,9614AE,169,169.0,,,,,Harkstede GN,Harkstede GN,740806.1076254528,7022494.895149323
40200000012726,40200000012726,Driemerenweg,Driemerenweg,9617AG,9614AH,4,4.0,,,,,Harkstede GN,Harkstede GN,742446.5130752226,7026599.844807626
40200000018622,40200000018622,Slochterdiep,Slochterdiep,9623TH,9622TH,13,13.0,,,,,Lageland GN,Lageland GN,746674.6356481109,7026689.658432319
40200000015998,40200000015998,Kooilaan,Kooilaan,9617TC,9614TC,4,4.0,,,,,Harkstede GN,Harkstede GN,743321.0913100224,7024313.170348151
40200000018599,40200000018599,Slochterdiep,Slochterdiep,9623TH,9622TJ,2,2.0,,,,,Lageland GN,Lageland GN,740283.8549046173,7026650.135298035
40200000015115,40200000015115,Hoofdweg,Hoofdweg,9617AE,9614AE,203,203.0,,,,,Harkstede GN,Harkstede GN,739876.9273760983,7024225.523843766
40200000015063,40200000015063,Hoofdweg,Hoofdweg,9617AE,9614AE,189,189.0,,,,,Harkstede GN,Harkstede GN,740411.8021442713,7023590.8487729635
40200000014984,40200000014984,Hoofdweg,Hoofdweg,9617AE,9614AE,171,171.0,,,,,Harkstede GN,Harkstede GN,740784.3281759738,7022551.659593337
40200000015059,40200000015059,Hoofdweg,Hoofdweg,9617AL,9614AL,188,188.0,,,,,Harkstede GN,Harkstede GN,742883.0366641962,7021774.686878591
40200000012735,40200000012735,Eemskanaal Zz,Eemskanaal Zz,9623PE,9622PE,1,1.0,,,,,Lageland GN,Lageland GN,742185.4691033877,7028131.567810122
40200000015112,40200000015112,Hoofdweg,Hoofdweg,9617AM,9614AM,202,202.0,,,,,Harkstede GN,Harkstede GN,741097.4041701553,7022026.346876211
40200000015018,40200000015018,Hoofdweg,Hoofdweg,9617AL,9614AL,178,178.0,,,,,Harkstede GN,Harkstede GN,743096.6129011322,7021764.062190148
40200000015101,40200000015101,Hoofdweg,Hoofdweg,9617AE,9614AE,199,199.0,,,,,Harkstede GN,Harkstede GN,739963.3550802402,7023983.048557756
40200000014764,40200000014764,Hoofdweg,Hoofdweg,9617AD,9614AD,135,135.0,,,,,Harkstede GN,Harkstede GN,743088.7856474263,7021807.562209293
40200000016003,40200000016003,Kooilaan,Kooilaan,9617TC,9614TC,8,8.0,,,,,Harkstede GN,Harkstede GN,743828.0967646096,7024402.120166425
40200000014812,40200000014812,Hoofdweg,Hoofdweg,9617AD,9614AD,143,143.0,,,,,Harkstede GN,Harkstede GN,742692.071895012,7021824.344376136
40200000015003,40200000015003,Hoofdweg,Hoofdweg,9617AE,9614AE,175,175.0,,,,,Harkstede GN,Harkstede GN,740598.4575634103,7022708.093606122
40200000019399,40200000019399,Zuiderweg,Zuiderweg,9623PD,9622PD,9,9.0,,,,,Lageland GN,Lageland GN,741620.3724017798,7027207.418795447
40200000013475,40200000013475,Hoofdlaan,Hoofdlaan,9617TB,9614TB,2,2.0,,,,,Harkstede GN,Harkstede GN,743792.196310088,7022342.37381389
40200000015100,40200000015100,Hoofdweg,Hoofdweg,9617AM,9614AM,198,198.0,,,,,Harkstede GN,Harkstede GN,741619.6330597724,7022143.195335334
40200000015995,40200000015995,Kooilaan,Kooilaan,9617TC,9614TC,3,3.0,,,,,Harkstede GN,Harkstede GN,742880.4341631583,7024238.487701839
40200000015070,40200000015070,Hoofdweg,Hoofdweg,9617AE,9614AE,191,191.0,,,,,Harkstede GN,Harkstede GN,740126.8492525133,7023450.682380073
40200000015986,40200000015986,Kooilaan,Kooilaan,9617TC,9614TC,1,1.0,,,,,Harkstede GN,Harkstede GN,742365.7565976885,7022488.367238994
40200000015045,40200000015045,Hoofdweg,Hoofdweg,9617AL,9614AL,184,184.0,,,,,Harkstede GN,Harkstede GN,743029.0657294362,7021772.555763388
40200000019410,40200000019410,Zuiderweg,Zuiderweg,9623PD,9622PD,15,15.0,,,,,Lageland GN,Lageland GN,741750.5629649264,7027650.996191765
40200000014751,40200000014751,Hoofdweg,Hoofdweg,9617AD,9614AD,133,133.0,,,,,Harkstede GN,Harkstede GN,743138.0128100382,7021809.5058216145
40200000016304,40200000016304,Lagelandsterweg,Lagelandsterweg,9623PC,9622PC,6,6.0,,,,,Lageland GN,Lageland GN,746940.5103262885,7029058.9376525115
40200000013479,40200000013479,Hoofdlaan,Hoofdlaan,9617TB,9614TB,6,6.0,,,,,Harkstede GN,Harkstede GN,743549.9740129523,7024098.288584073
40200000014970,40200000014970,Hoofdweg,Hoofdweg,9617AL,9614AL,168,168.0,,,,,Harkstede GN,Harkstede GN,743360.3458419859,7021768.645172663
40200000405042,40200000405042,Hoofdweg,Hoofdweg,9617AC,9614AC,87,87.0,,,,,Harkstede GN,Harkstede GN,744386.8109747303,7022597.225543749
40200000015160,40200000015160,Hoofdweg,Hoofdweg,9617AG,9614AG,219,219.0,,,,,Harkstede GN,Harkstede GN,739346.461491709,7025392.284035558
40200000016005,40200000016005,Kooilaan,Kooilaan,9617TC,9614TC,10,10.0,,,,,Harkstede GN,Harkstede GN,743888.4761754515,7024383.881474761
40200000012738,40200000012738,Eemskanaal Zz,Eemskanaal Zz,9623PE,9622PE,3,3.0,,,,,Lageland GN,Lageland GN,742161.1417936605,7028225.942384707
40200000014779,40200000014779,Hoofdweg,Hoofdweg,9617AD,9614AD,137,137.0,,,,,Harkstede GN,Harkstede GN,742994.9179368906,7021811.566314666
40200000012748,40200000012748,Eemskanaal Zz,Eemskanaal Zz,9623PE,9622PE,13,13.0,,,,,Lageland GN,Lageland GN,744665.4257320869,7028987.976144761
40200000014895,40200000014895,Hoofdweg,Hoofdweg,9617AD,9614AD,161,161.0,,,,,Harkstede GN,Harkstede GN,741512.2000410802,7022246.294004271
40200000019396,40200000019396,Zuiderweg,Zuiderweg,9623PD,9622PD,7,7.0,,,,,Lageland GN,Lageland GN,741621.5156945549,7027173.8700246345
40200000014791,40200000014791,Hoofdweg,Hoofdweg,9617AD,9614AD,139,139.0,,,,,Harkstede GN,Harkstede GN,742811.9412190712,7021814.979379795
40200000014882,40200000014882,Hoofdweg,Hoofdweg,9617AD,9614AD,159,159.0,,,,,Harkstede GN,Harkstede GN,741830.960016347,7022114.158865184
40200000015027,40200000015027,Hoofdweg,Hoofdweg,9617AL,9614AL,180,180.0,,,,,Harkstede GN,Harkstede GN,743139.7214350072,7021688.445089663
40200000015055,40200000015055,Hoofdweg,Hoofdweg,9617AE,9614AE,187,187.0,,,,,Harkstede GN,Harkstede GN,740203.6286440182,7023314.745540155
40200000014986,40200000014986,Hoofdweg,Hoofdweg,9617AE,9614AE,171,171.0,A,a,,,Harkstede GN,Harkstede GN,740732.8614333133,7022546.429767621
40200000018629,40200000018629,Slochterdiep,Slochterdiep,9623TH,9622TH,17,17.0,,,,,Lageland GN,Lageland GN,744888.2303692726,7026688.193312548
40200000018650,40200000018650,Slochterdiep,Slochterdiep,9623TH,9622TH,39,39.0,,,,,Lageland GN,Lageland GN,740313.5077445564,7026717.632623379
40200000015081,40200000015081,Hoofdweg,Hoofdweg,9617AE,9614AE,193,193.0,,,,,Harkstede GN,Harkstede GN,740066.2059883607,7023686.716431555
40200000014692,40200000014692,Hoofdweg,Hoofdweg,9617AD,9614AD,125,125.0,,,,,Harkstede GN,Harkstede GN,743173.3660514063,7022222.644726915
40200000015142,40200000015142,Hoofdweg,Hoofdweg,9617AG,9614AG,211,211.0,A,a,,,Harkstede GN,Harkstede GN,739729.4677802712,7024732.327774451
40200000014902,40200000014902,Hoofdweg,Hoofdweg,9617AL,9614AL,162,162.0,,,,,Harkstede GN,Harkstede GN,743554.3079080465,7021778.558729293
40200000014921,40200000014921,Hoofdweg,Hoofdweg,9617AL,9614AL,164,164.0,,,,,Harkstede GN,Harkstede GN,743446.2993204277,7021767.70887122
40200000018612,40200000018612,Slochterdiep,Slochterdiep,9623TH,9622TJ,6,6.0,,,,,Lageland GN,Lageland GN,740570.4885214785,7026416.495098188
40200000018634,40200000018634,Slochterdiep,Slochterdiep,9623TH,9622TH,21,21.0,,,,,Lageland GN,Lageland GN,744000.20182301,7026743.248969875
40200000015035,40200000015035,Hoofdweg,Hoofdweg,9617AL,9614AL,182,182.0,,,,,Harkstede GN,Harkstede GN,743081.9579360357,7021687.222480872
40200000014706,40200000014706,Hoofdweg,Hoofdweg,9617AD,9614AD,127,127.0,,,,,Harkstede GN,Harkstede GN,743237.8094034869,7021812.596333404
40200000014723,40200000014723,Hoofdweg,Hoofdweg,9617AD,9614AD,129,129.0,,,,,Harkstede GN,Harkstede GN,743190.2702569166,7021810.188750764
40200000015052,40200000015052,Hoofdweg,Hoofdweg,9617AL,9614AL,186,186.0,,,,,Harkstede GN,Harkstede GN,742914.8576181717,7021761.990241566
40200000019393,40200000019393,Zuiderweg,Zuiderweg,9623PD,9622PD,5,5.0,,,,,Lageland GN,Lageland GN,741622.661134003,7027143.18126222
40200000014740,40200000014740,Hoofdweg,Hoofdweg,9617AD,9614AD,131,131.0,,,,,Harkstede GN,Harkstede GN,743157.4174594454,7021808.848778765
40200000014822,40200000014822,Hoofdweg,Hoofdweg,9617AD,9614AD,145,145.0,,,,,Harkstede GN,Harkstede GN,742219.2901128177,7021924.066577325
40200000019389,40200000019389,Zuiderweg,Zuiderweg,9623PD,9622PD,3,3.0,,,,,Lageland GN,Lageland GN,741623.3053364329,7027107.527198133
40200000018651,40200000018651,Slochterdiep,Slochterdiep,9623TH,9622TH,41,41.0,,,,,Lageland GN,Lageland GN,740370.9725329774,7026785.390010775
40200000015128,40200000015128,Hoofdweg,Hoofdweg,9617AE,9614AE,207,207.0,,,,,Harkstede GN,Harkstede GN,739832.634756638,7024367.4100308325
40200000015042,40200000015042,Hoofdweg,Hoofdweg,9617AE,9614AE,183,183.0,A,a,,,Harkstede GN,Harkstede GN,740500.4133793792,7023346.470173424
40200000015049,40200000015049,Hoofdweg,Hoofdweg,9617AE,9614AE,185,185.0,,,,,Harkstede GN,Harkstede GN,740249.5704527267,7023268.448964974
40200000015082,40200000015082,Hoofdweg,Hoofdweg,9617AM,9614AM,194,194.0,,,,,Harkstede GN,Harkstede GN,742099.9184472319,7021879.727237671
40200000015041,40200000015041,Hoofdweg,Hoofdweg,9617AE,9614AE,183,183.0,,,,,Harkstede GN,Harkstede GN,740423.0440544914,7023399.526684248
40200000018626,40200000018626,Slochterdiep,Slochterdiep,9623TH,9622TH,15,15.0,,,,,Lageland GN,Lageland GN,744954.9463984151,7026691.115121092
40200000015090,40200000015090,Hoofdweg,Hoofdweg,9617AM,9614AM,196,196.0,,,,,Harkstede GN,Harkstede GN,741768.0962103602,7021743.027676805
40200000015121,40200000015121,Hoofdweg,Hoofdweg,9617AE,9614AE,205,205.0,,,,,Harkstede GN,Harkstede GN,739860.3602823021,7024263.544322866
40200000015164,40200000015164,Hoofdweg,Hoofdweg,9617AG,9614AG,221,221.0,,,,,Harkstede GN,Harkstede GN,739335.8088692165,7025417.7122754
40200000017178,40200000017178,Molenerf,Molenerf,9617BV,9614BV,21,21.0,,,,,Harkstede GN,Harkstede GN,745630.1539410651,7023271.144791855
40200000014801,40200000014801,Hoofdweg,Hoofdweg,9617AD,9614AD,141,141.0,,,,,Harkstede GN,Harkstede GN,742760.6918385893,7021817.473062994
40200000016311,40200000016311,Lagelandsterweg,Lagelandsterweg,9623PC,9622PC,14,14.0,,,,,Lageland GN,Lageland GN,745993.3108759429,7030245.335086096
40200000012749,40200000012749,Eemskanaal Zz,Eemskanaal Zz,9623PE,9622PE,15,15.0,,,,,Lageland GN,Lageland GN,744661.5375403517,7029442.508008702
40200000015174,40200000015174,Hoofdweg,Hoofdweg,9617AG,9614AG,227,227.0,,,,,Harkstede GN,Harkstede GN,739409.4318091815,7025548.163587931
40200000018636,40200000018636,Slochterdiep,Slochterdiep,9623TH,9622TH,23,23.0,,,,,Lageland GN,Lageland GN,743067.1380336351,7026713.18033137
40200000015988,40200000015988,Kooilaan,Kooilaan,9617TC,9614TC,1,1.0,A,a,,,Harkstede GN,Harkstede GN,742468.9287644026,7022914.431754889
40200000012740,40200000012740,Eemskanaal Zz,Eemskanaal Zz,9623PE,9622PE,5,5.0,,,,,Lageland GN,Lageland GN,742234.6387626689,7028287.545981042
40200000015008,40200000015008,Hoofdweg,Hoofdweg,9617AL,9614AL,176,176.0,,,,,Harkstede GN,Harkstede GN,743219.0526280307,7021765.6444728635
40200000014995,40200000014995,Hoofdweg,Hoofdweg,9617AE,9614AE,173,173.0,,,,,Harkstede GN,Harkstede GN,740684.5734245878,7022563.181226761
40200000015170,40200000015170,Hoofdweg,Hoofdweg,9617AG,9614AG,225,225.0,,,,,Harkstede GN,Harkstede GN,739316.0537457675,7025481.805663629
40200000013477,40200000013477,Hoofdlaan,Hoofdlaan,9617TB,9614TB,4,4.0,,,,,Harkstede GN,Harkstede GN,743260.3854486349,7023742.983995986
40200000019385,40200000019385,Zuiderweg,Zuiderweg,9623PD,9622PD,1,1.0,,,,,Lageland GN,Lageland GN,741625.8020378031,7027070.92779165
40200000012745,40200000012745,Eemskanaal Zz,Eemskanaal Zz,9623PE,9622PE,9,9.0,,,,,Lageland GN,Lageland GN,743742.4754587776,7028938.75707274
40200000014937,40200000014937,Hoofdweg,Hoofdweg,9617AL,9614AL,166,166.0,,,,,Harkstede GN,Harkstede GN,743394.1380402847,7021769.315979173
40200000014885,40200000014885,Hoofdweg,Hoofdweg,9617AD,9614AD,159,159.0,A,a,,,Harkstede GN,Harkstede GN,741730.8109957806,7022206.3344904585
40200000014987,40200000014987,Hoofdweg,Hoofdweg,9617AL,9614AL,172,172.0,,,,,Harkstede GN,Harkstede GN,743279.8911100856,7021765.00022443
14200022199379,14200022199379,Gelkingestraat,Entensgang,9711NB,9711NJ,27,6.0,,,5,,Groningen,Groningen,731124.1699721937,7023188.28353245
14200022206218,14200022206218,Energieweg,Suikerlaan,9743AN,9743DA,16,51.0,,,,,Groningen,Groningen,727076.8216130753,7022294.452494553
14200022202157,14200022202157,Siersteenlaan,Siersteenlaan,9743ER,9743ER,365,363.0,h,g,,,Groningen,Groningen,726063.3289784141,7024720.587165378
40200000012750,40200000012750,Eemskanaal Zz,Eemskanaal Zz,9623PE,9622PE,19,19.0,,,,,Lageland GN,Lageland GN,745273.6942822501,7030094.281788783
14200022207146,14200022207146,Steentilkade,Steentilkade,9613GB,9713GB,7,7.0,b,b,,,Groningen,Groningen,732231.9965317271,7023598.549178867
40200000018644,40200000018644,Slochterdiep,Slochterdiep,9623TH,9622TH,31,31.0,,,,,Lageland GN,Lageland GN,742457.1585616224,7026713.845455988
14200022199640,14200022199640,Kieler Bocht,Kieler Bocht,,9723JA,15,15.0,c,d,,,Groningen,Groningen,735764.856127565,7023081.455407041
14200022205631,14200022205631,Hora Siccamasingel,Hora Siccamasingel,9712HZ,9721HZ,380,380.0,,,,,Groningen,Groningen,732211.4992294976,7019002.408834242
14200022205635,14200022205635,Hora Siccamasingel,Hora Siccamasingel,9712HZ,9721HZ,388,388.0,,,,,Groningen,Groningen,732222.387890752,7019005.117159223
14200022205634,14200022205634,Hora Siccamasingel,Hora Siccamasingel,9712HZ,9721HZ,386,386.0,,,,,Groningen,Groningen,732218.1247675753,7019000.440613756
14200022205633,14200022205633,Hora Siccamasingel,Hora Siccamasingel,9712HZ,9721HZ,384,384.0,,,,,Groningen,Groningen,732216.4798350766,7019004.734141528
14200022201520,14200022201520,Sabangplein,Sabangplein,9715CV,9715CW,21,21.0,,,,,Groningen,Groningen,730597.1813523477,7025554.780550971
14200022201521,14200022201521,Sabangplein,Sabangplein,9715CV,9715CW,21,21.0,a,a,,,Groningen,Groningen,730600.9502817516,7025551.891314747
14200022206827,14200022206827,Friesestraatweg,Friesestraatweg,9743AA,9743AA,153,153.0,,,42,43,Groningen,Groningen,727986.3792850618,7024099.966320758
14200022206834,14200022206834,Friesestraatweg,Friesestraatweg,9743AA,9743AA,153,153.0,,,49,50,Groningen,Groningen,727973.8723948657,7024104.397444445
14200022205632,14200022205632,Hora Siccamasingel,Hora Siccamasingel,9712HZ,9721HZ,382,382.0,,,,,Groningen,Groningen,732213.2169820259,7018998.389615256
40200000013478,40200000013478,Hoofdlaan,Hoofdlaan,9617TB,9614TB,5,5.0,,,,,Harkstede GN,Harkstede GN,744040.1920845059,7026542.554271962
14200022200150,14200022200150,Poelestraat,Poelestraat,9712JV,9712KA,18,18.0,,,,,Groningen,Groningen,731346.055363644,7023497.0363926655
14200022206824,14200022206824,Friesestraatweg,Friesestraatweg,9743AA,9743AA,153,153.0,,,39,40,Groningen,Groningen,728011.2985823906,7024095.419590145
14200022206826,14200022206826,Friesestraatweg,Friesestraatweg,9743AA,9743AA,153,153.0,,,41,42,Groningen,Groningen,727982.2416978709,7024100.032688762
14200022206823,14200022206823,Friesestraatweg,Friesestraatweg,9743AA,9743AA,153,153.0,,,38,39,Groningen,Groningen,728007.3243015888,7024095.483351095
14200022206825,14200022206825,Friesestraatweg,Friesestraatweg,9743AA,9743AA,153,153.0,,,40,41,Groningen,Groningen,727978.1028307655,7024100.018875818
14200022209011,14200022209011,Boteringesingel,Boteringesingel,9712XR,9712XR,14,14.0,c,d,,,Groningen,Groningen,730112.4767232247,7024858.619016958
14200010900865,14200010900865,Zonnelaan,Meteoorstraat,,,86,6.0,,,ad,au,Groningen,Groningen,727924.7681456812,7026353.4932491
17200000353369,17200000353369,Essenlande,Essenlande,9751WB,9751WB,53,55.0,,,,,Haren Gn,Haren Gn,736085.7868975606,7015978.521850578
17200000353369,17200000353369,Essenlande,Essenlande,9751WB,9751WB,53,55.0,,,,,Haren Gn,Haren Gn,736085.7868975606,7015978.521850578
