BAGNUMIDENTIFICATIE,B_NUMMERAANDUIDING,OPENBARERUIMTENAAM,B_OPENBARERUIMTE,POSTCODE,B_POSTCODE,HUISNUMMER,B_HUISNUMMER,HUISLETTER,B_HUISLETTER,HUISNUMMERTOEVOEGING,B_HUISNUMMERTOEVOEGING,WOONPLAATSNAAM,B_WOONPLAATSNAAM,x,y
59200000851497,59200000851497,W Barteles vd Kooiwei,Willem Barteles van der Kooiwei,9284TH,9284TH,31,31.0,,,,,Augustinusga,Augustinusga,686043.468023881,7022911.287941329
59200000851425,59200000851425,W Barteles vd Kooiwei,Willem Barteles van der Kooiwei,9284TH,9284TH,33,33.0,,,,,Augustinusga,Augustinusga,686146.5198110038,7022897.128229793
59200000851427,59200000851427,W Barteles vd Kooiwei,Willem Barteles van der Kooiwei,9284TH,9284TH,35,35.0,,,,,Augustinusga,Augustinusga,686158.4759307303,7022897.834235161
59200000851429,59200000851429,W Barteles vd Kooiwei,Willem Barteles van der Kooiwei,9284TH,9284TH,37,37.0,,,,,Augustinusga,Augustinusga,686170.4488948919,7022898.556745502
59200000852263,59200000852263,W Barteles vd Kooiwei,Willem Barteles van der Kooiwei,9284TJ,9284TJ,38,38.0,,,,,Augustinusga,Augustinusga,686114.9356929471,7022837.799936835
59200000851431,59200000851431,W Barteles vd Kooiwei,Willem Barteles van der Kooiwei,9284TH,9284TH,39,39.0,,,,,Augustinusga,Augustinusga,686182.4216814078,7022899.262535048
59200000852265,59200000852265,W Barteles vd Kooiwei,Willem Barteles van der Kooiwei,9284TJ,9284TJ,40,40.0,,,,,Augustinusga,Augustinusga,686125.1930397495,7022838.607864408
59200000852267,59200000852267,W Barteles vd Kooiwei,Willem Barteles van der Kooiwei,9284TJ,9284TJ,42,42.0,,,,,Augustinusga,Augustinusga,686135.8839742121,7022839.444502549
59200000852269,59200000852269,W Barteles vd Kooiwei,Willem Barteles van der Kooiwei,9284TJ,9284TJ,44,44.0,,,,,Augustinusga,Augustinusga,686146.3581179951,7022840.266764941
59200000852271,59200000852271,W Barteles vd Kooiwei,Willem Barteles van der Kooiwei,9284TJ,9284TJ,46,46.0,,,,,Augustinusga,Augustinusga,686165.4566586964,7022846.558468394
59200000852273,59200000852273,W Barteles vd Kooiwei,Willem Barteles van der Kooiwei,9284TJ,9284TJ,48,48.0,,,,,Augustinusga,Augustinusga,686175.9967460164,7022847.313160779
59200000852275,59200000852275,W Barteles vd Kooiwei,Willem Barteles van der Kooiwei,9284TJ,9284TJ,50,50.0,,,,,Augustinusga,Augustinusga,686186.3031998167,7022848.03695623
59200000852277,59200000852277,W Barteles vd Kooiwei,Willem Barteles van der Kooiwei,9284TJ,9284TJ,52,52.0,,,,,Augustinusga,Augustinusga,686197.0600841237,7022848.805981447
59200000849783,59200000849783,W Barteles vd Kooiwei,Willem Barteles van der Kooiwei,9284TH,9284TH,41,41.0,,,,,Augustinusga,Augustinusga,686188.4343632904,7022923.737030469
59200000856109,59200000856109,Domela Nieuwenhuisstr,Domela Nieuwenhuisstrjitte,9233KT,9233KT,8,8.0,,,,,Boelenslaan,Boelenslaan,683708.2798241202,7012997.248483875
59200000851019,59200000851019,Domela Nieuwenhuisstr,Domela Nieuwenhuisstrjitte,9233KN,9233KN,9,9.0,,,,,Boelenslaan,Boelenslaan,683754.3842304002,7012828.537351042
59200000856111,59200000856111,Domela Nieuwenhuisstr,Domela Nieuwenhuisstrjitte,9233KT,9233KT,10,10.0,,,,,Boelenslaan,Boelenslaan,683680.4830197447,7013011.471779343
59200000851021,59200000851021,Domela Nieuwenhuisstr,Domela Nieuwenhuisstrjitte,9233KN,9233KN,11,11.0,,,,,Boelenslaan,Boelenslaan,683750.3615851713,7012836.988370376
59200000856113,59200000856113,Domela Nieuwenhuisstr,Domela Nieuwenhuisstrjitte,9233KT,9233KT,12,12.0,,,,,Boelenslaan,Boelenslaan,683674.8382370087,7013019.20586274
59200000851023,59200000851023,Domela Nieuwenhuisstr,Domela Nieuwenhuisstrjitte,9233KN,9233KN,13,13.0,,,,,Boelenslaan,Boelenslaan,683746.322289587,7012845.439571382
59200000851025,59200000851025,Domela Nieuwenhuisstr,Domela Nieuwenhuisstrjitte,9233KN,9233KN,15,15.0,,,,,Boelenslaan,Boelenslaan,683742.1042839458,7012854.309758597
59200000850693,59200000850693,Domela Nieuwenhuisstr,Domela Nieuwenhuisstrjitte,9233KN,9233KN,17,17.0,,,,,Boelenslaan,Boelenslaan,683732.5847726207,7012871.89469431
59200000850695,59200000850695,Domela Nieuwenhuisstr,Domela Nieuwenhuisstrjitte,9233KN,9233KN,19,19.0,,,,,Boelenslaan,Boelenslaan,683728.4156178292,7012880.664285175
59200000850697,59200000850697,Domela Nieuwenhuisstr,Domela Nieuwenhuisstrjitte,9233KN,9233KN,21,21.0,,,,,Boelenslaan,Boelenslaan,683724.2462796133,7012889.417201082
59200000850699,59200000850699,Domela Nieuwenhuisstr,Domela Nieuwenhuisstrjitte,9233KN,9233KN,23,23.0,,,,,Boelenslaan,Boelenslaan,683720.2724524233,7012897.767650733
59200000855263,59200000855263,Domela Nieuwenhuisstr,Domela Nieuwenhuisstrjitte,9233KN,9233KN,25,25.0,,,,,Boelenslaan,Boelenslaan,683704.3458302243,7012918.623299144
59200000839327,59200000839327,W Barteles vd Kooiwei,Willem Barteles van der Kooiwei,9284TJ,9284TJ,2,2.0,,,,,Augustinusga,Augustinusga,685803.8473613051,7022939.296159384
59200000855265,59200000855265,Domela Nieuwenhuisstr,Domela Nieuwenhuisstrjitte,9233KN,9233KN,27,27.0,,,,,Boelenslaan,Boelenslaan,683698.3055598487,7012926.728516587
59200000841939,59200000841939,W Barteles vd Kooiwei,Willem Barteles van der Kooiwei,9284TJ,9284TJ,4,4.0,,,,,Augustinusga,Augustinusga,685855.0544526094,7022926.533390014
59200000855267,59200000855267,Domela Nieuwenhuisstr,Domela Nieuwenhuisstrjitte,9233KN,9233KN,29,29.0,,,,,Boelenslaan,Boelenslaan,683692.2652773078,7012934.83373764
59200000859931,59200000859931,W Barteles vd Kooiwei,Willem Barteles van der Kooiwei,9284TJ,9284TJ,4,4.0,A,A,,,Augustinusga,Augustinusga,685900.6390994217,7022858.805122793
59200000855269,59200000855269,Domela Nieuwenhuisstr,Domela Nieuwenhuisstrjitte,9233KN,9233KN,31,31.0,,,,,Boelenslaan,Boelenslaan,683685.9625426691,7012943.30877122
59200000855271,59200000855271,Domela Nieuwenhuisstr,Domela Nieuwenhuisstrjitte,9233KN,9233KN,33,33.0,,,,,Boelenslaan,Boelenslaan,683661.481786237,7012949.922426953
59200000848749,59200000848749,W Barteles vd Kooiwei,Willem Barteles van der Kooiwei,9284TH,9284TH,5,5.0,,,,,Augustinusga,Augustinusga,685803.6519625264,7022989.496830112
59200000855273,59200000855273,Domela Nieuwenhuisstr,Domela Nieuwenhuisstrjitte,9233KN,9233KN,35,35.0,,,,,Boelenslaan,Boelenslaan,683655.5409536596,7012957.993230889
59200000852225,59200000852225,W Barteles vd Kooiwei,Willem Barteles van der Kooiwei,9284TJ,9284TJ,6,6.0,,,,,Augustinusga,Augustinusga,685950.0290779681,7022870.884780769
59200000852985,59200000852985,Domela Nieuwenhuisstr,Domela Nieuwenhuisstrjitte,9233KN,9233KN,37,37.0,,,,,Boelenslaan,Boelenslaan,683649.6001091681,7012966.064038506
59200000853389,59200000853389,W Barteles vd Kooiwei,Willem Barteles van der Kooiwei,9284TH,9284TH,7,7.0,,,,,Augustinusga,Augustinusga,685829.1580310783,7022984.110446682
59200000853391,59200000853391,W Barteles vd Kooiwei,Willem Barteles van der Kooiwei,9284TH,9284TH,9,9.0,,,,,Augustinusga,Augustinusga,685849.8787727244,7022980.045115871
59200000852987,59200000852987,Domela Nieuwenhuisstr,Domela Nieuwenhuisstrjitte,9233KN,9233KN,39,39.0,,,,,Boelenslaan,Boelenslaan,683643.6590785742,7012974.1181673035
59200000848161,59200000848161,W Barteles vd Kooiwei,Willem Barteles van der Kooiwei,9284TH,9284TH,11,11.0,,,,,Augustinusga,Augustinusga,685878.9343547671,7022965.332349921
59200000849781,59200000849781,W Barteles vd Kooiwei,Willem Barteles van der Kooiwei,9284TH,9284TH,13,13.0,,,,,Augustinusga,Augustinusga,685902.3683732857,7022960.987080233
59200000855695,59200000855695,Domela Nieuwenhuisstr,Domela Nieuwenhuisstrjitte,9233KN,9233KN,41,41.0,,,,,Boelenslaan,Boelenslaan,683602.6574383044,7012936.724952005
59200000852793,59200000852793,W Barteles vd Kooiwei,Willem Barteles van der Kooiwei,9284TH,9284TH,15,15.0,,,,,Augustinusga,Augustinusga,685924.5377784438,7022953.715298408
59200000855697,59200000855697,Domela Nieuwenhuisstr,Domela Nieuwenhuisstrjitte,9233KN,9233KN,43,43.0,,,,,Boelenslaan,Boelenslaan,683594.1430807695,7012932.643173367
59200000852795,59200000852795,W Barteles vd Kooiwei,Willem Barteles van der Kooiwei,9284TH,9284TH,17,17.0,,,,,Augustinusga,Augustinusga,685936.179504282,7022949.964798362
59200000856661,59200000856661,Domela Nieuwenhuisstr,Domela Nieuwenhuisstrjitte,9233KN,9233KN,45,45.0,,,,,Boelenslaan,Boelenslaan,683585.2272327123,7012928.365386434
59200000852797,59200000852797,W Barteles vd Kooiwei,Willem Barteles van der Kooiwei,9284TH,9284TH,19,19.0,,,,,Augustinusga,Augustinusga,685947.8380612439,7022946.2308065025
59200000856663,59200000856663,Domela Nieuwenhuisstr,Domela Nieuwenhuisstrjitte,9233KN,9233KN,47,47.0,,,,,Boelenslaan,Boelenslaan,683576.2947520289,7012924.087766277
59200000852799,59200000852799,W Barteles vd Kooiwei,Willem Barteles van der Kooiwei,9284TH,9284TH,21,21.0,,,,,Augustinusga,Augustinusga,685959.4964280468,7022942.4800963765
59200000861693,59200000861693,Domela Nieuwenhuisstr,Domela Nieuwenhuisstrjitte,9233KN,9233KN,49,49.0,,,,,Boelenslaan,Boelenslaan,683545.3191651033,7012911.198541737
59200000850685,59200000850685,W Barteles vd Kooiwei,Willem Barteles van der Kooiwei,9284TH,9284TH,23,23.0,,,,,Augustinusga,Augustinusga,686002.7577770681,7022923.83840464
59200000850687,59200000850687,W Barteles vd Kooiwei,Willem Barteles van der Kooiwei,9284TH,9284TH,25,25.0,,,,,Augustinusga,Augustinusga,686012.8231015941,7022920.7228989275
59200000856321,59200000856321,Domela Nieuwenhuisstr,Domela Nieuwenhuisstrjitte,9233KN,9233KN,51,51.0,,,,,Boelenslaan,Boelenslaan,683524.6777507984,7012944.432940349
59200000850689,59200000850689,W Barteles vd Kooiwei,Willem Barteles van der Kooiwei,9284TH,9284TH,27,27.0,,,,,Augustinusga,Augustinusga,686022.9052604105,7022917.6239049025
59200000850691,59200000850691,W Barteles vd Kooiwei,Willem Barteles van der Kooiwei,9284TH,9284TH,29,29.0,,,,,Augustinusga,Augustinusga,686032.9707487064,7022914.525079243
59200000861695,59200000861695,Domela Nieuwenhuisstr,Domela Nieuwenhuisstrjitte,9233KN,9233KN,53,53.0,,,,,Boelenslaan,Boelenslaan,683478.31920389,7012987.063096537
59200000851501,59200000851501,Domela Nieuwenhuisstr,Domela Nieuwenhuisstrjitte,9233KN,9233KN,1,1.0,,,,,Boelenslaan,Boelenslaan,683776.0009172588,7012785.232151774
59200000854117,59200000854117,Domela Nieuwenhuisstr,Domela Nieuwenhuisstrjitte,9233KT,9233KT,2,2.0,,,,,Boelenslaan,Boelenslaan,683732.0933383459,7012963.412806807
59200000851503,59200000851503,Domela Nieuwenhuisstr,Domela Nieuwenhuisstrjitte,9233KN,9233KN,3,3.0,,,,,Boelenslaan,Boelenslaan,683771.9611511417,7012793.633265033
59200000854119,59200000854119,Domela Nieuwenhuisstr,Domela Nieuwenhuisstrjitte,9233KT,9233KT,4,4.0,,,,,Boelenslaan,Boelenslaan,683726.2529430501,7012971.532675262
59200000851505,59200000851505,Domela Nieuwenhuisstr,Domela Nieuwenhuisstrjitte,9233KN,9233KN,5,5.0,,,,,Boelenslaan,Boelenslaan,683767.7425030574,7012802.436680123
59200000856107,59200000856107,Domela Nieuwenhuisstr,Domela Nieuwenhuisstrjitte,9233KT,9233KT,6,6.0,,,,,Boelenslaan,Boelenslaan,683714.3532472772,7012989.126155972
59200000851017,59200000851017,Domela Nieuwenhuisstr,Domela Nieuwenhuisstrjitte,9233KN,9233KN,7,7.0,,,,,Boelenslaan,Boelenslaan,683763.5072039088,7012811.240277457
59200000845163,59200000845163,Kammingastrjitte,Ruterspet,9281PE,9281SB,52,10.0,,,,,Harkema,Harkema,683108.5527602057,7016917.944723634
59200000857761,59200000857761,Menno van Coehoornstr,Menno van Coehoornstrjitte,9288CS,9288CS,1,1.0,,,,,Kootstertille,Kootstertille,677996.6215918151,7023268.095225115
59200000857763,59200000857763,Menno van Coehoornstr,Menno van Coehoornstrjitte,9288CS,9288CS,2,2.0,,,,,Kootstertille,Kootstertille,678078.2081197151,7023264.005096097
59200000857765,59200000857765,Menno van Coehoornstr,Menno van Coehoornstrjitte,9288CS,9288CS,3,3.0,,,,,Kootstertille,Kootstertille,677998.2105344371,7023272.105701591
59200000857767,59200000857767,Menno van Coehoornstr,Menno van Coehoornstrjitte,9288CS,9288CS,4,4.0,,,,,Kootstertille,Kootstertille,678087.8354017783,7023260.051768407
59200000857769,59200000857769,Menno van Coehoornstr,Menno van Coehoornstrjitte,9288CS,9288CS,5,5.0,,,,,Kootstertille,Kootstertille,678000.003837075,7023276.565228613
59200000857771,59200000857771,Menno van Coehoornstr,Menno van Coehoornstrjitte,9288CS,9288CS,6,6.0,,,,,Kootstertille,Kootstertille,678097.462674345,7023256.098431094
59200000852847,59200000852847,Menno van Coehoornstr,Menno van Coehoornstrjitte,9288CS,9288CS,7,7.0,,,,,Kootstertille,Kootstertille,678001.8146191692,7023281.108114323
59200000852849,59200000852849,Menno van Coehoornstr,Menno van Coehoornstrjitte,9288CS,9288CS,8,8.0,,,,,Kootstertille,Kootstertille,678106.8574614652,7023252.230890751
59200000852851,59200000852851,Menno van Coehoornstr,Menno van Coehoornstrjitte,9288CS,9288CS,9,9.0,,,,,Kootstertille,Kootstertille,678003.5059905316,7023285.368176795
59200000856449,59200000856449,Menno van Coehoornstr,Menno van Coehoornstrjitte,9288CS,9288CS,10,10.0,,,,,Kootstertille,Kootstertille,678124.5299101972,7023251.2724578185
59200000856451,59200000856451,Menno van Coehoornstr,Menno van Coehoornstrjitte,9288CS,9288CS,11,11.0,,,,,Kootstertille,Kootstertille,678005.1457449545,7023289.461690869
59200000856453,59200000856453,Menno van Coehoornstr,Menno van Coehoornstrjitte,9288CS,9288CS,12,12.0,,,,,Kootstertille,Kootstertille,678134.3066375686,7023247.267498279
59200000856455,59200000856455,Menno van Coehoornstr,Menno van Coehoornstrjitte,9288CS,9288CS,13,13.0,,,,,Kootstertille,Kootstertille,678006.7345333137,7023293.455472252
59200000858795,59200000858795,Menno van Coehoornstr,Menno van Coehoornstrjitte,9288CS,9288CS,14,14.0,,,,,Kootstertille,Kootstertille,678144.0500279503,7023243.262855684
59200000858797,59200000858797,Menno van Coehoornstr,Menno van Coehoornstrjitte,9288CS,9288CS,15,15.0,,,,,Kootstertille,Kootstertille,678008.5280082402,7023297.931713114
59200000853947,59200000853947,Menno van Coehoornstr,Menno van Coehoornstrjitte,9288CS,9288CS,16,16.0,,,,,Kootstertille,Kootstertille,678153.610924325,7023239.343520656
59200000858747,59200000858747,Menno van Coehoornstr,Menno van Coehoornstrjitte,9288CR,9288CR,17,17.0,,,,,Kootstertille,Kootstertille,678025.4578234536,7023318.23029665
59200000858749,59200000858749,Menno van Coehoornstr,Menno van Coehoornstrjitte,9288CR,9288CR,19,19.0,,,,,Kootstertille,Kootstertille,678027.4725686514,7023316.339534789
59200000858751,59200000858751,Menno van Coehoornstr,Menno van Coehoornstrjitte,9288CR,9288CR,21,21.0,,,,,Kootstertille,Kootstertille,678034.9268629103,7023315.130543147
59200000858753,59200000858753,Menno van Coehoornstr,Menno van Coehoornstrjitte,9288CR,9288CR,23,23.0,,,,,Kootstertille,Kootstertille,678036.1710016032,7023312.829687209
59200000858755,59200000858755,Menno van Coehoornstr,Menno van Coehoornstrjitte,9288CR,9288CR,25,25.0,,,,,Kootstertille,Kootstertille,678040.7194474974,7023310.997633625
59200000856953,59200000856953,Menno van Coehoornstr,Menno van Coehoornstrjitte,9288CS,9288CS,26,26.0,,,,,Kootstertille,Kootstertille,678178.7991288366,7023303.212231415
59200000858757,59200000858757,Menno van Coehoornstr,Menno van Coehoornstrjitte,9288CR,9288CR,27,27.0,,,,,Kootstertille,Kootstertille,678045.3342206172,7023309.131516888
59200000856955,59200000856955,Menno van Coehoornstr,Menno van Coehoornstrjitte,9288CS,9288CS,28,28.0,,,,,Kootstertille,Kootstertille,678182.5744716633,7023312.663970062
59200000858759,59200000858759,Menno van Coehoornstr,Menno van Coehoornstrjitte,9288CR,9288CR,29,29.0,,,,,Kootstertille,Kootstertille,678051.5091949957,7023306.615300101
59200000856957,59200000856957,Menno van Coehoornstr,Menno van Coehoornstrjitte,9288CS,9288CS,30,30.0,,,,,Kootstertille,Kootstertille,678186.3836403543,7023322.165503017
59200000858761,59200000858761,Menno van Coehoornstr,Menno van Coehoornstrjitte,9288CR,9288CR,31,31.0,,,,,Kootstertille,Kootstertille,678054.8460668147,7023305.296277326
59200000858609,59200000858609,Menno van Coehoornstr,Menno van Coehoornstrjitte,9288CS,9288CS,32,32.0,,,,,Kootstertille,Kootstertille,678190.1877409823,7023344.7977530975
59200000858131,59200000858131,Menno van Coehoornstr,Menno van Coehoornstrjitte,9288CR,9288CR,33,33.0,,,,,Kootstertille,Kootstertille,678158.7561498738,7023394.237735989
59200000858611,59200000858611,Menno van Coehoornstr,Menno van Coehoornstrjitte,9288CS,9288CS,34,34.0,,,,,Kootstertille,Kootstertille,678194.0807426553,7023354.348614708
59200000858133,59200000858133,Menno van Coehoornstr,Menno van Coehoornstrjitte,9288CR,9288CR,35,35.0,,,,,Kootstertille,Kootstertille,678162.3941234148,7023403.27329327
59200000858613,59200000858613,Menno van Coehoornstr,Menno van Coehoornstrjitte,9288CS,9288CS,36,36.0,,,,,Kootstertille,Kootstertille,678197.8886395174,7023363.71655813
59200000859711,59200000859711,Menno van Coehoornstr,Menno van Coehoornstrjitte,9288CR,9288CR,37,37.0,,,,,Kootstertille,Kootstertille,678174.1569200048,7023423.438757129
59200000858615,59200000858615,Menno van Coehoornstr,Menno van Coehoornstrjitte,9288CS,9288CS,38,38.0,,,,,Kootstertille,Kootstertille,678201.6965452809,7023373.084510572
59200000859713,59200000859713,Menno van Coehoornstr,Menno van Coehoornstrjitte,9288CR,9288CR,39,39.0,,,,,Kootstertille,Kootstertille,678177.7959028872,7023432.574565584
59200000858617,59200000858617,Menno van Coehoornstr,Menno van Coehoornstrjitte,9288CS,9288CS,40,40.0,,,,,Kootstertille,Kootstertille,678207.0700596626,7023396.002195114
59200000858619,59200000858619,Menno van Coehoornstr,Menno van Coehoornstrjitte,9288CS,9288CS,42,42.0,,,,,Kootstertille,Kootstertille,678210.980423054,7023405.619762175
59200000858621,59200000858621,Menno van Coehoornstr,Menno van Coehoornstrjitte,9288CS,9288CS,44,44.0,,,,,Kootstertille,Kootstertille,678214.873642266,7023415.187389665
59200000847379,59200000847379,B Jacobus Schurerwg,Bartholomeus Jacobus Schurerweg,9231CE,9231CE,5,5.0,,,,,Surhuisterveen,Surhuisterveen,686376.7757558154,7016559.32343324
59200000842511,59200000842511,B Jacobus Schurerwg,Bartholomeus Jacobus Schurerweg,9231CE,9231CE,3,3.0,,,,,Surhuisterveen,Surhuisterveen,686362.5831513205,7016535.641365715
59200000870784,59200000870784,Langelaan,Langelaan,9231EM,9231EP,62,62.0,,,,,Surhuisterveen,Surhuisterveen,687514.7163374835,7016385.207941183
59200000870787,59200000870787,Langelaan,Langelaan,9231EM,9231EP,64,64.0,,,,,Surhuisterveen,Surhuisterveen,687526.2090841848,7016380.343076033
59200000870790,59200000870790,Langelaan,Langelaan,9231EM,9231EP,66,66.0,,,,,Surhuisterveen,Surhuisterveen,687556.4130980392,7016367.137329668
59200000870796,59200000870796,Langelaan,Langelaan,9231EP,9231EM,97,97.0,,,,,Surhuisterveen,Surhuisterveen,687508.6337844469,7016449.08801271
59200000870799,59200000870799,Langelaan,Langelaan,9231EP,9231EM,99,99.0,,,,,Surhuisterveen,Surhuisterveen,687519.8962348744,7016444.472681887
59200000870802,59200000870802,Langelaan,Langelaan,9231EP,9231EM,101,101.0,,,,,Surhuisterveen,Surhuisterveen,687544.0239842999,7016433.508489063
59200000870805,59200000870805,Langelaan,Langelaan,9231EP,9231EM,103,103.0,,,,,Surhuisterveen,Surhuisterveen,687555.8275358214,7016428.129378892
59200000870808,59200000870808,Langelaan,Langelaan,9231EP,9231EM,105,105.0,,,,,Surhuisterveen,Surhuisterveen,687590.2295080989,7016425.741831021
59200000870772,59200000870772,Langelaan,Langelaan,9231EM,9231EP,54,54.0,,,,,Surhuisterveen,Surhuisterveen,687439.7307505679,7016426.197107031
59200000870775,59200000870775,Langelaan,Langelaan,9231EM,9231EP,56,56.0,,,,,Surhuisterveen,Surhuisterveen,687451.4582755787,7016421.474966556
59200000870778,59200000870778,Langelaan,Langelaan,9231EM,9231EP,58,58.0,,,,,Surhuisterveen,Surhuisterveen,687476.2713370948,7016401.598584999
59200000870781,59200000870781,Langelaan,Langelaan,9231EM,9231EP,60,60.0,,,,,Surhuisterveen,Surhuisterveen,687487.7641306304,7016396.733765044
59200000852537,59200000852537,H J van der Veenstrjitte,H.J. van der Veenstrjitte,9283TN,9283TN,27,27.0,,,,,Surhuizum,Surhuizum,687824.3141502923,7021482.344360625
59200000853237,59200000853237,H J van der Veenstrjitte,H.J. van der Veenstrjitte,9283TP,9283TP,28,28.0,,,,,Surhuizum,Surhuizum,687813.9382036912,7021592.158036184
59200000852539,59200000852539,H J van der Veenstrjitte,H.J. van der Veenstrjitte,9283TN,9283TN,29,29.0,,,,,Surhuizum,Surhuizum,687819.5432688561,7021490.948343359
59200000853211,59200000853211,H J van der Veenstrjitte,H.J. van der Veenstrjitte,9283TN,9283TN,1,1.0,,,,,Surhuizum,Surhuizum,687899.0766507338,7021342.794822505
59200000853239,59200000853239,H J van der Veenstrjitte,H.J. van der Veenstrjitte,9283TP,9283TP,30,30.0,,,,,Surhuizum,Surhuizum,687808.0420601015,7021601.476018473
59200000859285,59200000859285,H J van der Veenstrjitte,H.J. van der Veenstrjitte,9283TP,9283TP,2,2.0,,,,,Surhuizum,Surhuizum,687953.1961197845,7021344.602899529
59200000852541,59200000852541,H J van der Veenstrjitte,H.J. van der Veenstrjitte,9283TN,9283TN,31,31.0,,,,,Surhuizum,Surhuizum,687814.5600119027,7021499.938818412
59200000853213,59200000853213,H J van der Veenstrjitte,H.J. van der Veenstrjitte,9283TN,9283TN,3,3.0,,,,,Surhuizum,Surhuizum,687894.6786696012,7021351.962448877
59200000859287,59200000859287,H J van der Veenstrjitte,H.J. van der Veenstrjitte,9283TP,9283TP,4,4.0,,,,,Surhuizum,Surhuizum,687945.6226688088,7021365.012454239
59200000853241,59200000853241,H J van der Veenstrjitte,H.J. van der Veenstrjitte,9283TP,9283TP,32,32.0,,,,,Surhuizum,Surhuizum,687801.8833710673,7021611.164348476
59200000853215,59200000853215,H J van der Veenstrjitte,H.J. van der Veenstrjitte,9283TN,9283TN,5,5.0,,,,,Surhuizum,Surhuizum,687890.085163093,7021361.533080606
59200000852543,59200000852543,H J van der Veenstrjitte,H.J. van der Veenstrjitte,9283TN,9283TN,33,33.0,,,,,Surhuizum,Surhuizum,687810.001292324,7021508.1396278655
59200000859289,59200000859289,H J van der Veenstrjitte,H.J. van der Veenstrjitte,9283TP,9283TP,6,6.0,,,,,Surhuizum,Surhuizum,687941.3825225111,7021373.376705983
59200000853149,59200000853149,H J van der Veenstrjitte,H.J. van der Veenstrjitte,9283TN,9283TN,35,35.0,,,,,Surhuizum,Surhuizum,687803.7873857795,7021527.983311936
59200000853217,59200000853217,H J van der Veenstrjitte,H.J. van der Veenstrjitte,9283TN,9283TN,7,7.0,,,,,Surhuizum,Surhuizum,687885.5083051329,7021371.103537397
59200000853151,59200000853151,H J van der Veenstrjitte,H.J. van der Veenstrjitte,9283TN,9283TN,37,37.0,,,,,Surhuizum,Surhuizum,687798.6508550321,7021536.674868647
59200000859291,59200000859291,H J van der Veenstrjitte,H.J. van der Veenstrjitte,9283TP,9283TP,8,8.0,,,,,Surhuizum,Surhuizum,687931.6005865529,7021391.439029107
59200000854599,59200000854599,H J van der Veenstrjitte,H.J. van der Veenstrjitte,9283TN,9283TN,39,39.0,,,,,Surhuizum,Surhuizum,687793.4974703263,7021545.349914839
59200000859293,59200000859293,H J van der Veenstrjitte,H.J. van der Veenstrjitte,9283TP,9283TP,8,8.0,A,A,,,Surhuizum,Surhuizum,687920.7755151198,7021413.137184575
59200000854601,59200000854601,H J van der Veenstrjitte,H.J. van der Veenstrjitte,9283TN,9283TN,41,41.0,,,,,Surhuizum,Surhuizum,687788.1152296863,7021554.428338534
59200000853999,59200000853999,H J van der Veenstrjitte,H.J. van der Veenstrjitte,9283TN,9283TN,9,9.0,,,,,Surhuizum,Surhuizum,687875.4364520767,7021390.087580775
59200000853219,59200000853219,H J van der Veenstrjitte,H.J. van der Veenstrjitte,9283TP,9283TP,10,10.0,,,,,Surhuizum,Surhuizum,687873.6874858995,7021488.8484584205
59200000854001,59200000854001,H J van der Veenstrjitte,H.J. van der Veenstrjitte,9283TN,9283TN,11,11.0,,,,,Surhuizum,Surhuizum,687870.9618870453,7021398.354193909
59200000853221,59200000853221,H J van der Veenstrjitte,H.J. van der Veenstrjitte,9283TP,9283TP,12,12.0,,,,,Surhuizum,Surhuizum,687867.3616319629,7021498.471739811
59200000854003,59200000854003,H J van der Veenstrjitte,H.J. van der Veenstrjitte,9283TN,9283TN,13,13.0,,,,,Surhuizum,Surhuizum,687866.4871296328,7021406.604113227
59200000853223,59200000853223,H J van der Veenstrjitte,H.J. van der Veenstrjitte,9283TP,9283TP,14,14.0,,,,,Surhuizum,Surhuizum,687861.1501828317,7021507.893342094
59200000854005,59200000854005,H J van der Veenstrjitte,H.J. van der Veenstrjitte,9283TN,9283TN,15,15.0,,,,,Surhuizum,Surhuizum,687861.8001854179,7021415.25722147
59200000853225,59200000853225,H J van der Veenstrjitte,H.J. van der Veenstrjitte,9283TP,9283TP,16,16.0,,,,,Surhuizum,Surhuizum,687854.9389023362,7021517.331650632
59200000854007,59200000854007,H J van der Veenstrjitte,H.J. van der Veenstrjitte,9283TN,9283TN,17,17.0,,,,,Surhuizum,Surhuizum,687851.8340228974,7021431.734891029
59200000853227,59200000853227,H J van der Veenstrjitte,H.J. van der Veenstrjitte,9283TP,9283TP,18,18.0,,,,,Surhuizum,Surhuizum,687846.7394617724,7021535.3934491
59200000852529,59200000852529,H J van der Veenstrjitte,H.J. van der Veenstrjitte,9283TN,9283TN,19,19.0,,,,,Surhuizum,Surhuizum,687847.1642573924,7021440.437933735
59200000853229,59200000853229,H J van der Veenstrjitte,H.J. van der Veenstrjitte,9283TP,9283TP,20,20.0,,,,,Surhuizum,Surhuizum,687840.497204451,7021545.049247088
59200000852531,59200000852531,H J van der Veenstrjitte,H.J. van der Veenstrjitte,9283TN,9283TN,21,21.0,,,,,Surhuizum,Surhuizum,687842.5113245667,7021449.157499431
59200000853231,59200000853231,H J van der Veenstrjitte,H.J. van der Veenstrjitte,9283TP,9283TP,22,22.0,,,,,Surhuizum,Surhuizum,687834.2549321553,7021554.705051795
59200000852533,59200000852533,H J van der Veenstrjitte,H.J. van der Veenstrjitte,9283TN,9283TN,23,23.0,,,,,Surhuizum,Surhuizum,687838.0705616273,7021457.47388739
59200000853233,59200000853233,H J van der Veenstrjitte,H.J. van der Veenstrjitte,9283TP,9283TP,24,24.0,,,,,Surhuizum,Surhuizum,687828.1439094226,7021564.175693236
59200000852535,59200000852535,H J van der Veenstrjitte,H.J. van der Veenstrjitte,9283TN,9283TN,25,25.0,,,,,Surhuizum,Surhuizum,687833.4174259893,7021466.1767663155
59200000853235,59200000853235,H J van der Veenstrjitte,H.J. van der Veenstrjitte,9283TP,9283TP,26,26.0,,,,,Surhuizum,Surhuizum,687819.9655986591,7021582.654890063
59200000858301,59200000858301,Simke Kloostermanstr,Simke Kloostermanstrjitte,9286EP,9286EP,5,5.0,B,B,,,Twijzel,Twijzel,677857.5792517852,7026499.913891038
59200000854617,59200000854617,Simke Kloostermanstr,Simke Kloostermanstrjitte,9286EP,9286EP,38,38.0,,,,,Twijzel,Twijzel,678053.4570340463,7026503.2279718565
59200000854277,59200000854277,Simke Kloostermanstr,Simke Kloostermanstrjitte,9286EP,9286EP,40,40.0,,,,,Twijzel,Twijzel,678063.1887154592,7026499.322228814
59200000852503,59200000852503,Simke Kloostermanstr,Simke Kloostermanstrjitte,9286EP,9286EP,42,42.0,,,,,Twijzel,Twijzel,678080.4328189486,7026489.610563069
59200000852505,59200000852505,Simke Kloostermanstr,Simke Kloostermanstrjitte,9286EP,9286EP,44,44.0,,,,,Twijzel,Twijzel,678089.7658498529,7026485.859111076
59200000852507,59200000852507,Simke Kloostermanstr,Simke Kloostermanstrjitte,9286EP,9286EP,46,46.0,,,,,Twijzel,Twijzel,678098.9329839507,7026482.192837169
59200000851195,59200000851195,Simke Kloostermanstr,Simke Kloostermanstrjitte,9286EP,9286EP,48,48.0,,,,,Twijzel,Twijzel,678108.0999466018,7026478.509843872
59200000849947,59200000849947,Simke Kloostermanstr,Simke Kloostermanstrjitte,9286EP,9286EP,1,1.0,,,,,Twijzel,Twijzel,677819.4584637751,7026322.386887063
59200000853265,59200000853265,Simke Kloostermanstr,Simke Kloostermanstrjitte,9286EP,9286EP,2,2.0,,,,,Twijzel,Twijzel,677907.7716582603,7026339.906726719
59200000857429,59200000857429,Simke Kloostermanstr,Simke Kloostermanstrjitte,9286EP,9286EP,3,3.0,,,,,Twijzel,Twijzel,677843.2865759964,7026351.9847674165
59200000853267,59200000853267,Simke Kloostermanstr,Simke Kloostermanstrjitte,9286EP,9286EP,4,4.0,,,,,Twijzel,Twijzel,677910.6271198256,7026350.65796812
59200000853269,59200000853269,Simke Kloostermanstr,Simke Kloostermanstrjitte,9286EP,9286EP,6,6.0,,,,,Twijzel,Twijzel,677913.465756336,7026361.392675501
59200000853271,59200000853271,Simke Kloostermanstr,Simke Kloostermanstrjitte,9286EP,9286EP,8,8.0,,,,,Twijzel,Twijzel,677916.252112963,7026371.893940335
59200000852149,59200000852149,Simke Kloostermanstr,Simke Kloostermanstrjitte,9286EP,9286EP,10,10.0,,,,,Twijzel,Twijzel,677928.1515322273,7026392.015732717
59200000852829,59200000852829,Simke Kloostermanstr,Simke Kloostermanstrjitte,9286EP,9286EP,11,11.0,,,,,Twijzel,Twijzel,677964.5220855894,7026596.685092823
59200000852151,59200000852151,Simke Kloostermanstr,Simke Kloostermanstrjitte,9286EP,9286EP,12,12.0,,,,,Twijzel,Twijzel,677931.0599786327,7026403.067334338
59200000852831,59200000852831,Simke Kloostermanstr,Simke Kloostermanstrjitte,9286EP,9286EP,13,13.0,,,,,Twijzel,Twijzel,677988.3203217811,7026587.143335944
59200000852153,59200000852153,Simke Kloostermanstr,Simke Kloostermanstrjitte,9286EP,9286EP,14,14.0,,,,,Twijzel,Twijzel,677933.951437497,7026414.085692205
59200000857431,59200000857431,Simke Kloostermanstr,Simke Kloostermanstrjitte,9286EP,9286EP,15,15.0,,,,,Twijzel,Twijzel,678009.7777283974,7026578.627184858
59200000852155,59200000852155,Simke Kloostermanstr,Simke Kloostermanstrjitte,9286EP,9286EP,16,16.0,,,,,Twijzel,Twijzel,677936.7909412815,7026424.9040277675
59200000857433,59200000857433,Simke Kloostermanstr,Simke Kloostermanstrjitte,9286EP,9286EP,17,17.0,,,,,Twijzel,Twijzel,678018.7456101766,7026575.029762414
59200000852093,59200000852093,Simke Kloostermanstr,Simke Kloostermanstrjitte,9286EP,9286EP,18,18.0,,,,,Twijzel,Twijzel,677949.4470198796,7026464.504845237
59200000857435,59200000857435,Simke Kloostermanstr,Simke Kloostermanstrjitte,9286EP,9286EP,19,19.0,,,,,Twijzel,Twijzel,678027.4809111784,7026571.518171362
59200000852095,59200000852095,Simke Kloostermanstr,Simke Kloostermanstrjitte,9286EP,9286EP,20,20.0,,,,,Twijzel,Twijzel,677953.1913874244,7026474.077688922
59200000857437,59200000857437,Simke Kloostermanstr,Simke Kloostermanstrjitte,9286EP,9286EP,21,21.0,,,,,Twijzel,Twijzel,678036.4487770546,7026567.920732283
59200000852097,59200000852097,Simke Kloostermanstr,Simke Kloostermanstrjitte,9286EP,9286EP,22,22.0,,,,,Twijzel,Twijzel,677956.7991463688,7026483.317635615
59200000857439,59200000857439,Simke Kloostermanstr,Simke Kloostermanstrjitte,9286EP,9286EP,23,23.0,,,,,Twijzel,Twijzel,678076.0972589824,7026556.184557429
59200000854009,59200000854009,Simke Kloostermanstr,Simke Kloostermanstrjitte,9286EP,9286EP,24,24.0,,,,,Twijzel,Twijzel,677960.4065881307,7026492.524170026
59200000857441,59200000857441,Simke Kloostermanstr,Simke Kloostermanstrjitte,9286EP,9286EP,25,25.0,,,,,Twijzel,Twijzel,678084.5058316112,7026551.656662787
59200000854605,59200000854605,Simke Kloostermanstr,Simke Kloostermanstrjitte,9286EP,9286EP,26,26.0,,,,,Twijzel,Twijzel,677985.8422063293,7026524.446240341
59200000857443,59200000857443,Simke Kloostermanstr,Simke Kloostermanstrjitte,9286EP,9286EP,27,27.0,,,,,Twijzel,Twijzel,678092.9974209988,7026547.094523329
59200000854607,59200000854607,Simke Kloostermanstr,Simke Kloostermanstrjitte,9286EP,9286EP,28,28.0,,,,,Twijzel,Twijzel,677995.3504930985,7026521.562204396
59200000857445,59200000857445,Simke Kloostermanstr,Simke Kloostermanstrjitte,9286EP,9286EP,29,29.0,,,,,Twijzel,Twijzel,678101.2900966279,7026542.651313648
59200000854609,59200000854609,Simke Kloostermanstr,Simke Kloostermanstrjitte,9286EP,9286EP,30,30.0,,,,,Twijzel,Twijzel,678004.9087842294,7026518.6776684765
59200000857447,59200000857447,Simke Kloostermanstr,Simke Kloostermanstrjitte,9286EP,9286EP,31,31.0,,,,,Twijzel,Twijzel,678121.3823375751,7026537.774858636
59200000854611,59200000854611,Simke Kloostermanstr,Simke Kloostermanstrjitte,9286EP,9286EP,32,32.0,,,,,Twijzel,Twijzel,678014.6166134625,7026515.741520929
59200000857449,59200000857449,Simke Kloostermanstr,Simke Kloostermanstrjitte,9286EP,9286EP,33,33.0,,,,,Twijzel,Twijzel,678129.4262361814,7026533.467762651
59200000854613,59200000854613,Simke Kloostermanstr,Simke Kloostermanstrjitte,9286EP,9286EP,34,34.0,,,,,Twijzel,Twijzel,678034.5916589544,7026510.816311122
59200000857451,59200000857451,Simke Kloostermanstr,Simke Kloostermanstrjitte,9286EP,9286EP,35,35.0,,,,,Twijzel,Twijzel,678137.91794387,7026528.92229658
59200000854615,59200000854615,Simke Kloostermanstr,Simke Kloostermanstrjitte,9286EP,9286EP,36,36.0,,,,,Twijzel,Twijzel,678044.0244324295,7026507.03050146
59200000857453,59200000857453,Simke Kloostermanstr,Simke Kloostermanstrjitte,9286EP,9286EP,37,37.0,,,,,Twijzel,Twijzel,678146.4926677216,7026524.342585092
59200000862159,59200000862159,B Jacobus Schurerwg,Bartholomeus Jacobus Schurerweg,9231CE,9231CE,2,2.0,,,,,Surhuisterveen,Surhuisterveen,686405.1903704421,7016488.977090525
59200000858299,59200000858299,Simke Kloostermanstr,Simke Kloostermanstrjitte,9286EP,9286EP,5,5.0,,,,,Twijzel,Twijzel,677857.3811408906,7026448.6930734925
59200000860589,59200000860589,B Jacobus Schurerwg,Bartholomeus Jacobus Schurerweg,9231CE,9231CE,1,1.0,A,A,,,Surhuisterveen,Surhuisterveen,686328.0552171291,7016508.4907165775
59200000861153,59200000861153,B Jacobus Schurerwg,Bartholomeus Jacobus Schurerweg,9231CE,9231CE,1,1.0,B,B,,,Surhuisterveen,Surhuisterveen,686333.2840604249,7016505.429590807
59200000861155,59200000861155,B Jacobus Schurerwg,Bartholomeus Jacobus Schurerweg,9231CE,9231CE,1,1.0,C,C,,,Surhuisterveen,Surhuisterveen,686338.8933179864,7016502.130659457
59200000861157,59200000861157,B Jacobus Schurerwg,Bartholomeus Jacobus Schurerweg,9231CE,9231CE,1,1.0,D,D,,,Surhuisterveen,Surhuisterveen,686344.5027508305,7016498.848415255
59200000861159,59200000861159,B Jacobus Schurerwg,Bartholomeus Jacobus Schurerweg,9231CE,9231CE,1,1.0,E,E,,,Surhuisterveen,Surhuisterveen,686278.3124831769,7016489.466597997
59200000861161,59200000861161,B Jacobus Schurerwg,Bartholomeus Jacobus Schurerweg,9231CE,9231CE,1,1.0,F,F,,,Surhuisterveen,Surhuisterveen,686283.8880793636,7016493.862921668
59200000861163,59200000861163,B Jacobus Schurerwg,Bartholomeus Jacobus Schurerweg,9231CE,9231CE,1,1.0,G,G,,,Surhuisterveen,Surhuisterveen,686289.7997261109,7016498.539364608
59200000861165,59200000861165,B Jacobus Schurerwg,Bartholomeus Jacobus Schurerweg,9231CE,9231CE,1,1.0,H,H,,,Surhuisterveen,Surhuisterveen,686295.7280291502,7016503.215625639
59200000859887,59200000859887,B Jacobus Schurerwg,Bartholomeus Jacobus Schurerweg,9231CE,9231CE,1,1.0,J,J,,,Surhuisterveen,Surhuisterveen,686307.5513570212,7016512.568503086
59200000859889,59200000859889,B Jacobus Schurerwg,Bartholomeus Jacobus Schurerweg,9231CE,9231CE,1,1.0,K,K,,,Surhuisterveen,Surhuisterveen,686313.4796807133,7016517.244759024
59200000859891,59200000859891,B Jacobus Schurerwg,Bartholomeus Jacobus Schurerweg,9231CE,9231CE,1,1.0,L,L,,,Surhuisterveen,Surhuisterveen,686273.6929606325,7016494.991451286
59200000859893,59200000859893,B Jacobus Schurerwg,Bartholomeus Jacobus Schurerweg,9231CE,9231CE,1,1.0,M,M,,,Surhuisterveen,Surhuisterveen,686279.5367463398,7016499.551795216
59200000859895,59200000859895,B Jacobus Schurerwg,Bartholomeus Jacobus Schurerweg,9231CE,9231CE,1,1.0,N,N,,,Surhuisterveen,Surhuisterveen,686284.876561743,7016503.700300542
59200000859553,59200000859553,B Jacobus Schurerwg,Bartholomeus Jacobus Schurerweg,9231CE,9231CE,1,1.0,P,P,,,Surhuisterveen,Surhuisterveen,686296.4125222025,7016512.655704772
59200000859555,59200000859555,B Jacobus Schurerwg,Bartholomeus Jacobus Schurerweg,9231CE,9231CE,1,1.0,Q,Q,,,Surhuisterveen,Surhuisterveen,686302.2729830634,7016517.215861749
59200000859557,59200000859557,B Jacobus Schurerwg,Bartholomeus Jacobus Schurerweg,9231CE,9231CE,1,1.0,R,R,,,Surhuisterveen,Surhuisterveen,686308.1166212892,7016521.759507492
59200000865521,59200000865521,Einsteinstraat,Einsteinstraat,9285WN,9285WN,1,1.0,A,A,B,C,Buitenpost,Buitenpost,683671.1918731122,7030976.266377636
59200000863845,59200000863845,B Jacobus Schurerwg,Bartholomeus Jacobus Schurerweg,9231CE,9231CE,14,14.0,A,A,,,Surhuisterveen,Surhuisterveen,686415.6961630397,7016403.969988076
59200000861887,59200000861887,Simke Kloostermanstr,Simke Kloostermanstrjitte,9286EP,9286EP,7,7.0,,,,,Twijzel,Twijzel,677854.8144732167,7026489.913594236
59200000861067,59200000861067,W Barteles vd Kooiwei,Willem Barteles van der Kooiwei,9284TJ,9284TJ,6,6.0,A,A,,,Augustinusga,Augustinusga,685952.8086438695,7022862.803084551
