BAGNUMIDENTIFICATIE,B_NUMMERAANDUIDING,OPENBARERUIMTENAAM,B_OPENBARERUIMTE,POSTCODE,B_POSTCODE,HUISNUMMER,B_HUISNUMMER,HUISLETTER,B_HUISLETTER,HUISNUMMERTOEVOEGING,B_HUISNUMMERTOEVOEGING,WOONPLAATSNAAM,B_WOONPLAATSNAAM,x,y
98200001041268,98200001041268,Rijsberkamperweg,Rijsberkamperweg,8392TP,8392TS,9,9.0,,,TR01,TR01,Boijl,Boijl,690963.6913473712,6969363.601802048
98200000017291,98200000017291,Ds.Reitsmastraat,Ds. Reitsmastraat,8391CA,8391CA,6,6.0,,,,,Noordwolde Fr,Noordwolde,683712.538646639,6962648.237755623
98200000017445,98200000017445,Ds.Reitsmastraat,Ds. Reitsmastraat,8391BT,8391BT,7,7.0,,,,,Noordwolde Fr,Noordwolde,683755.749722937,6962713.501509157
98200000017567,98200000017567,Ds.Reitsmastraat,Ds. Reitsmastraat,8391CA,8391CA,8,8.0,,,,,Noordwolde Fr,Noordwolde,683738.6590416019,6962658.0666421605
98200000017659,98200000017659,Ds.Reitsmastraat,Ds. Reitsmastraat,8391BT,8391BT,9,9.0,,,,,Noordwolde Fr,Noordwolde,683779.3764794426,6962724.794068128
98200000015855,98200000015855,Ds.Reitsmastraat,Ds. Reitsmastraat,8391CA,8391CA,10,10.0,,,,,Noordwolde Fr,Noordwolde,683760.3148132988,6962661.512214804
98200000015914,98200000015914,Ds.Reitsmastraat,Ds. Reitsmastraat,8391BT,8391BT,11,11.0,,,,,Noordwolde Fr,Noordwolde,683785.6958405866,6962727.733911612
98200000016006,98200000016006,Ds.Reitsmastraat,Ds. Reitsmastraat,8391BT,8391BT,13,13.0,,,,,Noordwolde Fr,Noordwolde,683811.4616829752,6962744.759234622
98200000016091,98200000016091,Ds.Reitsmastraat,Ds. Reitsmastraat,8391BT,8391BT,15,15.0,,,,,Noordwolde Fr,Noordwolde,683822.4999454897,6962750.854652573
98200000016168,98200000016168,Ds.Reitsmastraat,Ds. Reitsmastraat,8391BT,8391BT,17,17.0,,,,,Noordwolde Fr,Noordwolde,683813.1807200479,6962739.737036167
98200000016204,98200000016204,Ds.Reitsmastraat,Ds. Reitsmastraat,8391CA,8391CA,18,18.0,,,,,Noordwolde Fr,Noordwolde,683813.9943975433,6962667.977694482
98200000016242,98200000016242,Ds.Reitsmastraat,Ds. Reitsmastraat,8391BV,8391BV,19,19.0,,,,,Noordwolde Fr,Noordwolde,683824.6497277046,6962744.949131352
98200000016336,98200000016336,Ds.Reitsmastraat,Ds. Reitsmastraat,8391CA,8391CA,20,20.0,,,,,Noordwolde Fr,Noordwolde,683826.5910065648,6962670.939485051
98200000016390,98200000016390,Ds.Reitsmastraat,Ds. Reitsmastraat,8391CA,8391CA,22,22.0,,,,,Noordwolde Fr,Noordwolde,683845.8190760353,6962675.526208406
98200000016443,98200000016443,Ds.Reitsmastraat,Ds. Reitsmastraat,8391CA,8391CA,24,24.0,,,,,Noordwolde Fr,Noordwolde,683858.1197810534,6962678.343488759
98200000016493,98200000016493,Ds.Reitsmastraat,Ds. Reitsmastraat,8391CA,8391CA,26,26.0,,,,,Noordwolde Fr,Noordwolde,683876.9032230987,6962682.639670167
98200000016547,98200000016547,Ds.Reitsmastraat,Ds. Reitsmastraat,8391CA,8391CA,28,28.0,,,,,Noordwolde Fr,Noordwolde,683889.3527964954,6962685.455341775
98200000016685,98200000016685,Ds.Reitsmastraat,Ds. Reitsmastraat,8391CB,8391CB,32,32.0,,,,,Noordwolde Fr,Noordwolde,684099.9691844693,6962745.581499447
98200000016730,98200000016730,Ds.Reitsmastraat,Ds. Reitsmastraat,8391CB,8391CB,34,34.0,,,,,Noordwolde Fr,Noordwolde,684109.985424839,6962748.042768312
98200000016779,98200000016779,Ds.Reitsmastraat,Ds. Reitsmastraat,8391CB,8391CB,36,36.0,,,,,Noordwolde Fr,Noordwolde,684118.2911519024,6962749.850508438
98200000016827,98200000016827,Ds.Reitsmastraat,Ds. Reitsmastraat,8391CB,8391CB,38,38.0,,,,,Noordwolde Fr,Noordwolde,684129.2380026851,6962752.567250074
98200000016917,98200000016917,Ds.Reitsmastraat,Ds. Reitsmastraat,8391CB,8391CB,40,40.0,,,,,Noordwolde Fr,Noordwolde,684137.3304072582,6962754.378876744
98200000016960,98200000016960,Ds.Reitsmastraat,Ds. Reitsmastraat,8391CC,8391CC,42,42.0,,,,,Noordwolde Fr,Noordwolde,684244.5313453403,6962810.510093593
98200000016996,98200000016996,Ds.Reitsmastraat,Ds. Reitsmastraat,8391CC,8391CC,44,44.0,,,,,Noordwolde Fr,Noordwolde,684254.5926543613,6962815.361735519
98200000017032,98200000017032,Ds.Reitsmastraat,Ds. Reitsmastraat,8391CC,8391CC,46,46.0,,,,,Noordwolde Fr,Noordwolde,684264.8859366301,6962820.093193748
98200000017161,98200000017161,Ds.Reitsmastraat,Ds. Reitsmastraat,8391BW,8391BW,51,51.0,,,,,Noordwolde Fr,Noordwolde,684020.035090844,6962766.85401734
98200000017192,98200000017192,Ds.Reitsmastraat,Ds. Reitsmastraat,8391BW,8391BW,53,53.0,,,,,Noordwolde Fr,Noordwolde,684039.6848403966,6962771.240239371
98200000017218,98200000017218,Ds.Reitsmastraat,Ds. Reitsmastraat,8391BW,8391BW,55,55.0,,,,,Noordwolde Fr,Noordwolde,684049.9704541678,6962773.519680614
98200000017246,98200000017246,Ds.Reitsmastraat,Ds. Reitsmastraat,8391BW,8391BW,57,57.0,,,,,Noordwolde Fr,Noordwolde,684069.8133351874,6962780.075927021
98200000017273,98200000017273,Ds.Reitsmastraat,Ds. Reitsmastraat,8391BW,8391BW,59,59.0,,,,,Noordwolde Fr,Noordwolde,684079.1731839889,6962780.191292715
98200000017344,98200000017344,Ds.Reitsmastraat,Ds. Reitsmastraat,8391BW,8391BW,61,61.0,,,,,Noordwolde Fr,Noordwolde,684097.9853836196,6962791.933300223
98200000017394,98200000017394,Ds.Reitsmastraat,Ds. Reitsmastraat,8391BX,8391BX,65,65.0,,,,,Noordwolde Fr,Noordwolde,684225.9622721602,6962840.401247036
98200000017414,98200000017414,Ds.Reitsmastraat,Ds. Reitsmastraat,8391BX,8391BX,67,67.0,,,,,Noordwolde Fr,Noordwolde,684236.2749979798,6962845.250278647
98200000017421,98200000017421,Ds.Reitsmastraat,Ds. Reitsmastraat,8391BX,8391BX,67,67.0,,,TR01,TR01,Noordwolde Fr,Noordwolde,684208.955788801,6962873.252337094
98200000017570,98200000017570,Elsweg,Elsweg,8391KB,8391KB,8,6.0,,,,,Noordwolde Fr,Noordwolde,682824.6017271071,6961055.327013255
98200001041292,98200001041292,Zuiderweg,Zuiderweg,8391KL,8391KH,68,68.0,,,TR01,TR01,Noordwolde Fr,Noordwolde,683541.7473797058,6959512.980216237
98200001041309,98200001041309,Stellingenweg,Stellingenweg,8474EB,8474EA,26,26.0,,,TR01,TR01,Oldeholtpade,Oldeholtpade,673013.4704450786,6962433.149974221
98200001041379,98200001041379,Sasweg,Sasweg,8487KA,8478KA,9,9.0,,,TR01,TR01,Sonnega,Sonnega,665301.1440021888,6954842.226103947
98200000019049,98200000019049,Cornelis Westerveldstr,Cornelis Westerveldstraat,8395PW,8395PW,1,1.0,,,,,Steggerda,Steggerda,676505.6422091738,6956557.826284329
98200000019293,98200000019293,Cornelis Westerveldstr,Cornelis Westerveldstraat,8395PW,8395PW,3,3.0,,,,,Steggerda,Steggerda,676530.7059752828,6956522.772932507
98200000019337,98200000019337,Cornelis Westerveldstr,Cornelis Westerveldstraat,8395PW,8395PW,4,4.0,,,,,Steggerda,Steggerda,676456.0066692164,6956545.025521084
98200000019384,98200000019384,Cornelis Westerveldstr,Cornelis Westerveldstraat,8395PW,8395PW,5,5.0,,,,,Steggerda,Steggerda,676531.0106669727,6956495.452402832
98200000019413,98200000019413,Cornelis Westerveldstr,Cornelis Westerveldstraat,8395PW,8395PW,6,6.0,,,,,Steggerda,Steggerda,676459.9798679982,6956534.78641451
98200000019441,98200000019441,Cornelis Westerveldstr,Cornelis Westerveldstraat,8395PW,8395PW,7,7.0,,,,,Steggerda,Steggerda,676533.776088291,6956489.078643959
98200000019468,98200000019468,Cornelis Westerveldstr,Cornelis Westerveldstraat,8395PW,8395PW,8,8.0,,,,,Steggerda,Steggerda,676461.0886167369,6956524.699008169
98200000019493,98200000019493,Cornelis Westerveldstr,Cornelis Westerveldstraat,8395PW,8395PW,9,9.0,,,,,Steggerda,Steggerda,676543.1919443832,6956468.472099548
98200000019058,98200000019058,Cornelis Westerveldstr,Cornelis Westerveldstraat,8395PW,8395PW,10,10.0,,,,,Steggerda,Steggerda,676473.7176418777,6956504.958027159
98200000019082,98200000019082,Cornelis Westerveldstr,Cornelis Westerveldstraat,8395PW,8395PW,11,11.0,,,,,Steggerda,Steggerda,676545.959511773,6956462.325319713
98200000019111,98200000019111,Cornelis Westerveldstr,Cornelis Westerveldstraat,8395PW,8395PW,12,12.0,,,,,Steggerda,Steggerda,676479.3647541951,6956492.434751823
98200000019131,98200000019131,Cornelis Westerveldstr,Cornelis Westerveldstraat,8395PW,8395PW,13,13.0,,,,,Steggerda,Steggerda,676554.6004416943,6956443.65312084
98200000019147,98200000019147,Cornelis Westerveldstr,Cornelis Westerveldstraat,8395PW,8395PW,14,14.0,,,,,Steggerda,Steggerda,676484.3445201692,6956481.1654628385
98200000019167,98200000019167,Cornelis Westerveldstr,Cornelis Westerveldstraat,8395PW,8395PW,15,15.0,,,,,Steggerda,Steggerda,676557.1367438772,6956436.827626915
98200000019181,98200000019181,Cornelis Westerveldstr,Cornelis Westerveldstraat,8395PW,8395PW,16,16.0,,,,,Steggerda,Steggerda,676489.7749206643,6956469.66488701
98200000019190,98200000019190,Cornelis Westerveldstr,Cornelis Westerveldstraat,8395PW,8395PW,17,17.0,,,,,Steggerda,Steggerda,676568.426297047,6956411.330578149
98200000019198,98200000019198,Cornelis Westerveldstr,Cornelis Westerveldstraat,8395PW,8395PW,18,18.0,,,,,Steggerda,Steggerda,676500.3590647412,6956453.015301981
98200000019227,98200000019227,Cornelis Westerveldstr,Cornelis Westerveldstraat,8395PW,8395PW,20,20.0,,,,,Steggerda,Steggerda,676506.0104269991,6956440.946011168
98200000019246,98200000019246,Cornelis Westerveldstr,Cornelis Westerveldstraat,8395PW,8395PW,22,22.0,,,,,Steggerda,Steggerda,676510.8755840547,6956429.450893133
98200000019258,98200000019258,Cornelis Westerveldstr,Cornelis Westerveldstraat,8395PW,8395PW,24,24.0,,,,,Steggerda,Steggerda,676515.861247929,6956418.635578107
98200000020961,98200000020961,Beethovenstraat,Beethovenstraat,8471NK,8471NK,20,16.0,,,,,Wolvega,Wolvega,668484.4472140153,6958864.141092326
98200000019818,98200000019818,Mr.Groen v Prinstererstr,Mr.Groen van Prinstererstraat,8471LX,8471LX,1,1.0,,,,,Wolvega,Wolvega,668301.2866290672,6959452.632713746
98200000021543,98200000021543,Mr.Groen v Prinstererstr,Mr.Groen van Prinstererstraat,8471MA,8471MA,2,2.0,,,,,Wolvega,Wolvega,668272.2784446534,6959434.939486604
98200000022684,98200000022684,Mr.Groen v Prinstererstr,Mr.Groen van Prinstererstraat,8471LX,8471LX,3,3.0,,,,,Wolvega,Wolvega,668306.5676122315,6959444.307103721
98200000023559,98200000023559,Mr.Groen v Prinstererstr,Mr.Groen van Prinstererstraat,8471MA,8471MA,4,4.0,,,,,Wolvega,Wolvega,668278.1085637843,6959426.055643062
98200000024231,98200000024231,Mr.Groen v Prinstererstr,Mr.Groen van Prinstererstraat,8471LX,8471LX,5,5.0,,,,,Wolvega,Wolvega,668311.0484508197,6959437.738568288
98200000024710,98200000024710,Mr.Groen v Prinstererstr,Mr.Groen van Prinstererstraat,8471MA,8471MA,6,6.0,,,,,Wolvega,Wolvega,668283.200173963,6959418.401286392
98200000025075,98200000025075,Mr.Groen v Prinstererstr,Mr.Groen van Prinstererstraat,8471LX,8471LX,7,7.0,,,,,Wolvega,Wolvega,668317.3619995579,6959427.771584805
98200000025394,98200000025394,Mr.Groen v Prinstererstr,Mr.Groen van Prinstererstraat,8471MA,8471MA,8,8.0,,,,,Wolvega,Wolvega,668289.4869258482,6959408.197569828
98200000025657,98200000025657,Mr.Groen v Prinstererstr,Mr.Groen van Prinstererstraat,8471LX,8471LX,9,9.0,,,,,Wolvega,Wolvega,668322.0683134027,6959420.501702448
98200000019984,98200000019984,Mr.Groen v Prinstererstr,Mr.Groen van Prinstererstraat,8471MA,8471MA,10,10.0,,,,,Wolvega,Wolvega,668298.6472636093,6959393.928534296
98200000020171,98200000020171,Mr.Groen v Prinstererstr,Mr.Groen van Prinstererstraat,8471LX,8471LX,11,11.0,,,,,Wolvega,Wolvega,668327.6931136193,6959411.589762789
98200000020358,98200000020358,Mr.Groen v Prinstererstr,Mr.Groen van Prinstererstraat,8471MA,8471MA,12,12.0,,,,,Wolvega,Wolvega,668304.7008751084,6959385.085895704
98200000020532,98200000020532,Mr.Groen v Prinstererstr,Mr.Groen van Prinstererstraat,8471LX,8471LX,13,13.0,,,,,Wolvega,Wolvega,668337.1129698689,6959397.515685411
98200000020709,98200000020709,Mr.Groen v Prinstererstr,Mr.Groen van Prinstererstraat,8471MA,8471MA,14,14.0,,,,,Wolvega,Wolvega,668309.9088981844,6959376.935003415
98200000020873,98200000020873,Mr Groen v Prinstererstr,Mr.Groen van Prinstererstraat,8471LX,8471LX,15,15.0,,,,,Wolvega,Wolvega,668342.51358764,6959389.656469295
98200000021023,98200000021023,Mr.Groen v Prinstererstr,Mr.Groen van Prinstererstraat,8471MA,8471MA,16,16.0,,,,,Wolvega,Wolvega,668316.1278824359,6959367.3235867005
98200000021162,98200000021162,Mr.Groen v Prinstererstr,Mr.Groen van Prinstererstraat,8471LX,8471LX,17,17.0,,,,,Wolvega,Wolvega,668347.2198565777,6959382.386606522
98200000021288,98200000021288,Mr.Groen v Prinstererstr,Mr.Groen van Prinstererstraat,8471MA,8471MA,18,18.0,,,,,Wolvega,Wolvega,668321.2520897576,6959359.428660332
98200000021412,98200000021412,Mr.Groen v Prinstererstr,Mr.Groen van Prinstererstraat,8471LX,8471LX,19,19.0,,,,,Wolvega,Wolvega,668353.7684118713,6959372.651341759
98200000021677,98200000021677,Mr.Groen v Prinstererstr,Mr.Groen van Prinstererstraat,8471MA,8471MA,20,20.0,,,,,Wolvega,Wolvega,668330.3292708123,6959345.697379243
98200000021788,98200000021788,Mr.Groen v Prinstererstr,Mr.Groen van Prinstererstraat,8471LX,8471LX,21,21.0,,,,,Wolvega,Wolvega,668358.35694424,6959365.148803786
98200000021901,98200000021901,Mr.Groen v Prinstererstr,Mr.Groen van Prinstererstraat,8471MA,8471MA,22,22.0,,,,,Wolvega,Wolvega,668336.8783868101,6959335.058892561
98200000022033,98200000022033,Mr.Groen v Prinstererstr,Mr.Groen van Prinstererstraat,8471LX,8471LX,23,23.0,,,,,Wolvega,Wolvega,668363.5270591814,6959357.407596297
98200000022145,98200000022145,Mr.Groen v Prinstererstr,Mr.Groen van Prinstererstraat,8471MA,8471MA,24,24.0,,,,,Wolvega,Wolvega,668341.7619701292,6959328.616255433
98200000022243,98200000022243,Mr.Groen v Prinstererstr,Mr.Groen van Prinstererstraat,8471LZ,8471LZ,25,25.0,,,,,Wolvega,Wolvega,668444.9375826218,6959232.51592798
98200000022340,98200000022340,Mr.Groen v Prinstererstr,Mr.Groen van Prinstererstraat,8471MA,8471MA,26,26.0,,,,,Wolvega,Wolvega,668347.384073369,6959319.0099826185
98200000022420,98200000022420,Mr.Groen v Prinstererstr,Mr.Groen van Prinstererstraat,8471LZ,8471LZ,27,27.0,,,,,Wolvega,Wolvega,668450.9189006909,6959224.534144751
98200000022504,98200000022504,Mr.Groen v Prinstererstr,Mr.Groen van Prinstererstraat,8471MB,8471MB,28,28.0,,,,,Wolvega,Wolvega,668417.0503299526,6959213.022488444
98200000022581,98200000022581,Mr.Groen v Prinstererstr,Mr.Groen van Prinstererstraat,8471LZ,8471LZ,29,29.0,,,,,Wolvega,Wolvega,668455.8501101846,6959216.329341684
98200000022812,98200000022812,Mr.Groen v Prinstererstr,Mr.Groen van Prinstererstraat,8471MB,8471MB,30,30.0,,,,,Wolvega,Wolvega,668424.367033491,6959202.463705596
98200000022890,98200000022890,Mr.Groen v Prinstererstr,Mr.Groen van Prinstererstraat,8471LZ,8471LZ,31,31.0,,,,,Wolvega,Wolvega,668461.3618968022,6959207.769860737
98200000022968,98200000022968,Mr.Groen v Prinstererstr,Mr.Groen van Prinstererstraat,8471MB,8471MB,32,32.0,,,,,Wolvega,Wolvega,668429.1521290764,6959194.571777126
98200000023038,98200000023038,Mr.Groen v Prinstererstr,Mr.Groen van Prinstererstraat,8471LZ,8471LZ,33,33.0,,,,,Wolvega,Wolvega,668471.5777225199,6959191.706950768
98200000023113,98200000023113,Mr.Groen v Prinstererstr,Mr.Groen van Prinstererstraat,8471MB,8471MB,34,34.0,,,,,Wolvega,Wolvega,668435.9599504627,6959184.44331087
98200000023179,98200000023179,Mr.Groen v Prinstererstr,Mr.Groen van Prinstererstraat,8471LZ,8471LZ,35,35.0,,,,,Wolvega,Wolvega,668476.9760763645,6959183.614174675
98200000023252,98200000023252,Mr.Groen v Prinstererstr,Mr.Groen van Prinstererstraat,8471MB,8471MB,36,36.0,,,,,Wolvega,Wolvega,668441.084856242,6959176.463953833
98200000023318,98200000023318,Mr.Groen v Prinstererstr,Mr.Groen van Prinstererstraat,8471LZ,8471LZ,37,37.0,,,,,Wolvega,Wolvega,668482.6038681817,6959175.285747469
98200000023387,98200000023387,Mr.Groen v Prinstererstr,Mr.Groen van Prinstererstraat,8471MB,8471MB,38,38.0,,,,,Wolvega,Wolvega,668450.2395724964,6959161.792462433
98200000023449,98200000023449,Mr.Groen v Prinstererstr,Mr.Groen van Prinstererstraat,8471LZ,8471LZ,39,39.0,,,,,Wolvega,Wolvega,668488.002199973,6959167.19298041
98200000023658,98200000023658,Mr.Groen v Prinstererstr,Mr.Groen van Prinstererstraat,8471MB,8471MB,40,40.0,,,,,Wolvega,Wolvega,668455.8648694435,6959152.782927852
98200000023773,98200000023773,Mr.Groen v Prinstererstr,Mr.Groen van Prinstererstraat,8471MB,8471MB,42,42.0,,,,,Wolvega,Wolvega,668460.73660497,6959144.976467452
98200001040918,98200001040918,Paulus Potterstraat,Paulus Potterstraat,8471VM,8471VN,19,19.0,,,,,Wolvega,Wolvega,666644.9262402168,6958877.398011133
98200000021684,98200000021684,Peter Paulus Rubensstr,Peter Paulus Rubensstraat,8471TH,8471TH,20,20.0,,,,,Wolvega,Wolvega,666953.4459277862,6959149.5423439
98200000021795,98200000021795,Peter Paulus Rubensstr,Peter Paulus Rubensstraat,8471TC,8471TC,21,21.0,,,,,Wolvega,Wolvega,667050.4009228228,6958923.890962008
98200000021909,98200000021909,Peter Paulus Rubensstr,Peter Paulus Rubensstraat,8471TH,8471TH,22,22.0,,,,,Wolvega,Wolvega,666948.7393449554,6959157.898395163
98200000022040,98200000022040,Peter Paulus Rubensstr,Peter Paulus Rubensstraat,8471TC,8471TC,23,23.0,,,,,Wolvega,Wolvega,667038.3723019534,6958925.515077018
98200000022153,98200000022153,Peter Paulus Rubensstr,Peter Paulus Rubensstraat,8471TH,8471TH,24,24.0,,,,,Wolvega,Wolvega,666944.2791373703,6959165.665683904
98200000022249,98200000022249,Peter Paulus Rubensstr,Peter Paulus Rubensstraat,8471TC,8471TC,25,25.0,,,,,Wolvega,Wolvega,667015.7721660719,6958926.265067255
98200000022348,98200000022348,Peter Paulus Rubensstr,Peter Paulus Rubensstraat,8471TH,8471TH,26,26.0,,,,,Wolvega,Wolvega,666939.4882237131,6959174.022453707
98200000022427,98200000022427,Peter Paulus Rubensstr,Peter Paulus Rubensstraat,8471TC,8471TC,27,27.0,,,,,Wolvega,Wolvega,667010.7066631381,6958935.566944423
98200000022511,98200000022511,Peter Paulus Rubensstr,Peter Paulus Rubensstraat,8471TH,8471TH,28,28.0,,,,,Wolvega,Wolvega,666937.1097775904,6959190.340805851
98200000022587,98200000022587,Peter Paulus Rubensstr,Peter Paulus Rubensstraat,8471TD,8471TD,29,29.0,,,,,Wolvega,Wolvega,667005.515269297,6958944.049520778
98200000022817,98200000022817,Peter Paulus Rubensstr,Peter Paulus Rubensstraat,8471TH,8471TH,30,30.0,,,,,Wolvega,Wolvega,666932.6551290576,6959198.777644069
98200000022897,98200000022897,Peter Paulus Rubensstr,Peter Paulus Rubensstraat,8471TD,8471TD,31,31.0,,,,,Wolvega,Wolvega,667001.3690713941,6958951.585292482
98200000022973,98200000022973,Peter Paulus Rubensstr,Peter Paulus Rubensstraat,8471TH,8471TH,32,32.0,,,,,Wolvega,Wolvega,666927.8613898384,6959206.799678448
98200000023044,98200000023044,Peter Paulus Rubensstr,Peter Paulus Rubensstraat,8471TD,8471TD,33,33.0,,,,,Wolvega,Wolvega,666996.0678083615,6958960.771499941
98200000023118,98200000023118,Peter Paulus Rubensstr,Peter Paulus Rubensstraat,8471TH,8471TH,34,34.0,,,,,Wolvega,Wolvega,666923.3196164889,6959214.902472728
98200000023186,98200000023186,Peter Paulus Rubensstr,Peter Paulus Rubensstraat,8471TD,8471TD,35,35.0,,,,,Wolvega,Wolvega,666991.455722269,6958968.546531062
98200000019827,98200000019827,Peter Paulus Rubensstr,Peter Paulus Rubensstraat,8471TC,8471TC,1,1.0,,,,,Wolvega,Wolvega,667131.8362726944,6958863.268652009
98200000023257,98200000023257,Peter Paulus Rubensstr,Peter Paulus Rubensstraat,8471TH,8471TH,36,36.0,,,,,Wolvega,Wolvega,666918.693778003,6959222.838584032
98200000021549,98200000021549,Peter Paulus Rubensstr,Peter Paulus Rubensstraat,8471TG,8471TG,2,2.0,,,,,Wolvega,Wolvega,667029.1990086538,6958993.225161518
98200000023323,98200000023323,Peter Paulus Rubensstr,Peter Paulus Rubensstraat,8471TD,8471TD,37,37.0,,,,,Wolvega,Wolvega,666989.8153051746,6958982.155214941
98200000023392,98200000023392,Peter Paulus Rubensstr,Peter Paulus Rubensstraat,8471TH,8471TH,38,38.0,,,,,Wolvega,Wolvega,666913.653364876,6959231.616801932
98200000022693,98200000022693,Peter Paulus Rubensstr,Peter Paulus Rubensstraat,8471TC,8471TC,3,3.0,,,,,Wolvega,Wolvega,667125.8431186547,6958873.5147025045
98200000023454,98200000023454,Peter Paulus Rubensstr,Peter Paulus Rubensstraat,8471TD,8471TD,39,39.0,,,,,Wolvega,Wolvega,666984.0491193931,6958991.698359462
98200000023567,98200000023567,Peter Paulus Rubensstr,Peter Paulus Rubensstraat,8471TG,8471TG,4,4.0,,,,,Wolvega,Wolvega,667024.0341237854,6959003.101389813
98200000023720,98200000023720,Peter Paulus Rubensstr,Peter Paulus Rubensstraat,8471TD,8471TD,41,41.0,,,,,Wolvega,Wolvega,666980.1356572566,6958998.996872017
98200000024241,98200000024241,Peter Paulus Rubensstr,Peter Paulus Rubensstraat,8471TC,8471TC,5,5.0,,,,,Wolvega,Wolvega,667122.8511188602,6958879.28403564
98200000023830,98200000023830,Peter Paulus Rubensstr,Peter Paulus Rubensstraat,8471TD,8471TD,43,43.0,,,,,Wolvega,Wolvega,666974.7179485726,6959008.301765671
98200000024718,98200000024718,Peter Paulus Rubensstr,Peter Paulus Rubensstraat,8471TG,8471TG,6,6.0,,,,,Wolvega,Wolvega,667018.8571773012,6959011.535861829
98200000023954,98200000023954,Peter Paulus Rubensstr,Peter Paulus Rubensstraat,8471TD,8471TD,45,45.0,,,,,Wolvega,Wolvega,666962.7567149325,6959018.012928505
98200000025084,98200000025084,Peter Paulus Rubensstr,Peter Paulus Rubensstraat,8471TC,8471TC,7,7.0,,,,,Wolvega,Wolvega,667116.7464646904,6958890.235386646
98200000024057,98200000024057,Peter Paulus Rubensstr,Peter Paulus Rubensstraat,8471TD,8471TD,47,47.0,,,,,Wolvega,Wolvega,666957.1061916497,6959027.555125021
98200000025401,98200000025401,Peter Paulus Rubensstr,Peter Paulus Rubensstraat,8471TG,8471TG,8,8.0,,,,,Wolvega,Wolvega,667014.360001106,6959019.213865298
98200000024141,98200000024141,Peter Paulus Rubensstr,Peter Paulus Rubensstraat,8471TD,8471TD,49,49.0,,,,,Wolvega,Wolvega,666953.1878036528,6959034.268663169
98200000025666,98200000025666,Peter Paulus Rubensstr,Peter Paulus Rubensstraat,8471TC,8471TC,9,9.0,,,,,Wolvega,Wolvega,667113.5193793926,6958895.769712278
98200000024357,98200000024357,Peter Paulus Rubensstr,Peter Paulus Rubensstraat,8471TD,8471TD,51,51.0,,,,,Wolvega,Wolvega,666947.8903467113,6959043.923922645
98200000019992,98200000019992,Peter Paulus Rubensstr,Peter Paulus Rubensstraat,8471TG,8471TG,10,10.0,,,,,Wolvega,Wolvega,667009.4363286359,6959028.085410969
98200000024430,98200000024430,Peter Paulus Rubensstr,Peter Paulus Rubensstraat,8471TD,8471TD,53,53.0,,,,,Wolvega,Wolvega,666937.0909580265,6959052.804965944
98200000020179,98200000020179,Peter Paulus Rubensstr,Peter Paulus Rubensstraat,8471TC,8471TC,11,11.0,,,,,Wolvega,Wolvega,667107.5284631759,6958906.48644315
98200000024497,98200000024497,Peter Paulus Rubensstr,Peter Paulus Rubensstraat,8471TD,8471TD,55,55.0,,,,,Wolvega,Wolvega,666931.9042938981,6959061.872613466
98200000020365,98200000020365,Peter Paulus Rubensstr,Peter Paulus Rubensstraat,8471TG,8471TG,12,12.0,,,,,Wolvega,Wolvega,667004.3206196323,6959036.333765107
98200000024558,98200000024558,Peter Paulus Rubensstr,Peter Paulus Rubensstraat,8471TE,8471TE,57,57.0,,,,,Wolvega,Wolvega,666927.7521024444,6959068.705798763
98200000020541,98200000020541,Peter Paulus Rubensstr,Peter Paulus Rubensstraat,8471TC,8471TC,13,13.0,,,,,Wolvega,Wolvega,667087.7794183663,6958919.591012819
98200000024621,98200000024621,Peter Paulus Rubensstr,Peter Paulus Rubensstraat,8471TE,8471TE,59,59.0,,,,,Wolvega,Wolvega,666922.5651207622,6959077.539776956
98200000024812,98200000024812,Peter Paulus Rubensstr,Peter Paulus Rubensstraat,8471TE,8471TE,61,61.0,,,,,Wolvega,Wolvega,666918.5390964899,6959085.4276331775
98200000020880,98200000020880,Peter Paulus Rubensstr,Peter Paulus Rubensstraat,8471TC,8471TC,15,15.0,,,,,Wolvega,Wolvega,667075.0472640895,6958921.10508556
98200000024858,98200000024858,Peter Paulus Rubensstr,Peter Paulus Rubensstraat,8471TE,8471TE,63,63.0,,,,,Wolvega,Wolvega,666913.0019208714,6959094.498244037
98200000024908,98200000024908,Peter Paulus Rubensstr,Peter Paulus Rubensstraat,8471TE,8471TE,65,65.0,,,,,Wolvega,Wolvega,666913.3481328433,6959121.922611072
98200000021030,98200000021030,Peter Paulus Rubensstr,Peter Paulus Rubensstraat,8471TH,8471TH,16,16.0,,,,,Wolvega,Wolvega,666963.1098814493,6959132.57458101
98200000021169,98200000021169,Peter Paulus Rubensstr,Peter Paulus Rubensstraat,8471TC,8471TC,17,17.0,,,,,Wolvega,Wolvega,667069.0893421429,6958921.74018725
98200000024950,98200000024950,Peter Paulus Rubensstr,Peter Paulus Rubensstraat,8471TE,8471TE,67,67.0,,,,,Wolvega,Wolvega,666907.2342028936,6959131.8184789205
98200000021295,98200000021295,Peter Paulus Rubensstr,Peter Paulus Rubensstraat,8471TH,8471TH,18,18.0,,,,,Wolvega,Wolvega,666958.2354010575,6959141.016553861
98200000024988,98200000024988,Peter Paulus Rubensstr,Peter Paulus Rubensstraat,8471TE,8471TE,69,69.0,,,,,Wolvega,Wolvega,666903.0848856717,6959139.003042805
98200000021419,98200000021419,Peter Paulus Rubensstr,Peter Paulus Rubensstraat,8471TC,8471TC,19,19.0,,,,,Wolvega,Wolvega,667057.2935179912,6958923.12869453
98200000025173,98200000025173,Peter Paulus Rubensstr,Peter Paulus Rubensstraat,8471TE,8471TE,71,71.0,,,,,Wolvega,Wolvega,666898.0164845956,6959148.187444397
98200000025204,98200000025204,Peter Paulus Rubensstr,Peter Paulus Rubensstraat,8471TE,8471TE,73,73.0,,,,,Wolvega,Wolvega,666893.9806137157,6959154.902037863
98200000025244,98200000025244,Peter Paulus Rubensstr,Peter Paulus Rubensstraat,8471TE,8471TE,75,75.0,,,,,Wolvega,Wolvega,666888.6781272669,6959163.972399338
98200000025282,98200000025282,Peter Paulus Rubensstr,Peter Paulus Rubensstraat,8471TE,8471TE,77,77.0,,,,,Wolvega,Wolvega,666874.6889406984,6959205.12403734
98200000025313,98200000025313,Peter Paulus Rubensstr,Peter Paulus Rubensstraat,8471TE,8471TE,79,79.0,,,,,Wolvega,Wolvega,666865.0350301635,6959199.535118304
98200000025482,98200000025482,Peter Paulus Rubensstr,Peter Paulus Rubensstraat,8471TE,8471TE,81,81.0,,,,,Wolvega,Wolvega,666858.062725278,6959195.526386952
98200000025507,98200000025507,Peter Paulus Rubensstr,Peter Paulus Rubensstraat,8471TE,8471TE,83,83.0,,,,,Wolvega,Wolvega,666847.7645817057,6959189.405868792
98200000022056,98200000022056,V Nijm Schonegevelstr,Van Nijmegen Schonegevelstraat,8471BR,8471BR,23,23.0,,,,,Wolvega,Wolvega,667726.0892787179,6960425.836390207
98200000022264,98200000022264,V Nijm Schonegevelstr,Van Nijmegen Schonegevelstraat,8471BR,8471BR,25,25.0,,,,,Wolvega,Wolvega,667699.2114841696,6960415.139167431
98200000022439,98200000022439,V Nijm Schonegevelstr,Van Nijmegen Schonegevelstraat,8471BR,8471BR,27,27.0,,,,,Wolvega,Wolvega,667688.3058706647,6960408.42223705
98200000022598,98200000022598,V Nijm Schonegevelstr,Van Nijmegen Schonegevelstraat,8471BR,8471BR,29,29.0,,,,,Wolvega,Wolvega,667667.7355652356,6960397.62004343
98200000022908,98200000022908,V Nijm Schonegevelstr,Van Nijmegen Schonegevelstraat,8471BR,8471BR,31,31.0,,,,,Wolvega,Wolvega,667658.4631550306,6960392.210345992
98200000023055,98200000023055,V Nijm Schonegevelstr,Van Nijmegen Schonegevelstraat,8471BR,8471BR,33,33.0,,,,,Wolvega,Wolvega,667638.1852177915,6960380.185627436
98200000023196,98200000023196,V Nijm Schonegevelstr,Van Nijmegen Schonegevelstraat,8471BR,8471BR,35,35.0,,,,,Wolvega,Wolvega,667630.0323964304,6960375.376415223
98200000023335,98200000023335,V Nijm Schonegevelstr,Van Nijmegen Schonegevelstraat,8471BR,8471BR,37,37.0,,,,,Wolvega,Wolvega,667611.1825294303,6960364.252885862
98200000023465,98200000023465,V Nijm Schonegevelstr,Van Nijmegen Schonegevelstraat,8471BR,8471BR,39,39.0,,,,,Wolvega,Wolvega,667590.7987985114,6960351.82287601
98200000023731,98200000023731,V Nijm Schonegevelstr,Van Nijmegen Schonegevelstraat,8471BR,8471BR,41,41.0,,,,,Wolvega,Wolvega,667571.8507661655,6960341.006772813
98200000021573,98200000021573,V Nijm Schonegevelstr,Van Nijmegen Schonegevelstraat,8471BP,8471BP,2,2.0,,,,,Wolvega,Wolvega,668007.6555182571,6960545.552079476
98200000022716,98200000022716,V Nijm Schonegevelstr,Van Nijmegen Schonegevelstraat,8471BP,8471BP,3,3.0,,,,,Wolvega,Wolvega,667969.3905921852,6960503.850573988
98200000023589,98200000023589,V Nijm Schonegevelstr,Van Nijmegen Schonegevelstraat,8471BP,8471BP,4,4.0,,,,,Wolvega,Wolvega,667980.0869653656,6960546.70198435
98200000024267,98200000024267,V Nijm Schonegevelstr,Van Nijmegen Schonegevelstraat,8471BP,8471BP,5,5.0,,,,,Wolvega,Wolvega,667958.2294909342,6960502.929504203
98200000024746,98200000024746,V Nijm Schonegevelstr,Van Nijmegen Schonegevelstraat,8471BP,8471BP,6,6.0,,,,,Wolvega,Wolvega,667968.4722684168,6960548.458549328
98200000024766,98200000024766,V Nijm Schonegevelstr,Van Nijmegen Schonegevelstraat,8471BP,8471BP,6,6.0,,,GARA,GARA,Wolvega,Wolvega,667956.4424429312,6960618.69907614
98200000025109,98200000025109,V N Schonegevelstr,Van Nijmegen Schonegevelstraat,8471BP,8471BP,7,7.0,,,,,Wolvega,Wolvega,667935.4462029268,6960499.945825927
98200000025431,98200000025431,V Nijm Schonegevelstr,Van Nijmegen Schonegevelstraat,8471BR,8471BR,8,8.0,,,,,Wolvega,Wolvega,667667.4645138197,6960438.591733206
98200000025688,98200000025688,V Nijm Schonegevelstr,Van Nijmegen Schonegevelstraat,8471BP,8471BP,9,9.0,,,,,Wolvega,Wolvega,667912.705198932,6960494.533307648
98200000020019,98200000020019,V Nijm Schonegevelstr,Van Nijmegen Schonegevelstraat,8471BR,8471BR,10,10.0,,,,,Wolvega,Wolvega,667649.4194968009,6960426.8530388335
98200000020199,98200000020199,V Nijm Schonegevelstr,Van Nijmegen Schonegevelstraat,8471BP,8471BP,11,11.0,,,,,Wolvega,Wolvega,667890.0360038751,6960489.786481383
98200000020562,98200000020562,V Nijm Schonegevelstr,Van Nijmegen Schonegevelstraat,8471BP,8471BP,13,13.0,,,,,Wolvega,Wolvega,667867.3836205157,6960484.873689001
98200000020737,98200000020737,V Nijm Schonegevelstr,Van Nijmegen Schonegevelstraat,8471BR,8471BR,14,14.0,,,,,Wolvega,Wolvega,667562.7653914043,6960380.35210493
98200000020901,98200000020901,V Nijm Schonegevelstr,Van Nijmegen Schonegevelstraat,8471BP,8471BP,15,15.0,,,,,Wolvega,Wolvega,667844.1899987912,6960477.354687746
98200000021052,98200000021052,V Nijm Schonegevelstr,Van Nijmegen Schonegevelstraat,8471BR,8471BR,16,16.0,,,,,Wolvega,Wolvega,667542.8435921952,6960365.043767384
98200000021187,98200000021187,V Nijm Schonegevelstr,Van Nijmegen Schonegevelstraat,8471BP,8471BP,17,17.0,,,,,Wolvega,Wolvega,667813.1310464782,6960467.16905806
98200000021814,98200000021814,V Nijm Schonegevelstr,Van Nijmegen Schonegevelstraat,8471BP,8471BP,21,21.0,,,,,Wolvega,Wolvega,667766.8253205724,6960447.659442244
98200000021585,98200000021585,Willem III straat,Willem III-straat,8471PD,8471PD,2,2.0,,,,,Wolvega,Wolvega,667772.3284551215,6958981.279156291
98200000023603,98200000023603,Willem III straat,Willem III-straat,8471PD,8471PD,4,4.0,,,,,Wolvega,Wolvega,667777.6006590202,6958971.691584868
98200000024759,98200000024759,Willem III straat,Willem III-straat,8471PD,8471PD,6,6.0,,,,,Wolvega,Wolvega,667787.2163184121,6958954.912532888
98200000025445,98200000025445,Willem III straat,Willem III-straat,8471PD,8471PD,8,8.0,,,,,Wolvega,Wolvega,667793.0806010291,6958944.963632637
98200000020035,98200000020035,Willem III straat,Willem III-straat,8471PD,8471PD,10,10.0,,,,,Wolvega,Wolvega,667802.5724781678,6958927.826034387
98200000020403,98200000020403,Willem III straat,Willem III-straat,8471PD,8471PD,12,12.0,,,,,Wolvega,Wolvega,667808.6744069783,6958917.636485679
98200000020751,98200000020751,Willem III straat,Willem III-straat,8471PD,8471PD,14,14.0,,,,,Wolvega,Wolvega,667817.5771645431,6958901.221541663
98200000021067,98200000021067,Willem III straat,Willem III-straat,8471PD,8471PD,16,16.0,,,,,Wolvega,Wolvega,667823.0909821749,6958891.870631608
98200000016596,98200000016596,De Elzenhof,Het Bosmeer,8391LD,8391ZZ,3,65.0,,,,,Noordwolde Fr,Noordwolde,683102.0175934149,6961488.125530526
98200000017285,98200000017285,De Elzenhof,Het Bosmeer,8391LD,8391ZZ,6,60.0,,,,,Noordwolde Fr,Noordwolde,683113.1277076326,6961390.227421161
98200000015802,98200000015802,De Elzenhof,Het Bosmeer,8391LD,8391ZZ,1,66.0,,,,,Noordwolde Fr,Noordwolde,683083.0509748835,6961476.688101892
98200000016276,98200000016276,De Elzenhof,Het Bosmeer,8391LD,8391ZZ,2,58.0,,,,,Noordwolde Fr,Noordwolde,683088.787094286,6961440.502431961
98200000016867,98200000016867,De Elzenhof,Het Bosmeer,8391LD,8391ZZ,4,59.0,,,,,Noordwolde Fr,Noordwolde,683101.157900632,6961416.117953091
98200000017096,98200000017096,De Elzenhof,Het Bosmeer,8391LD,8391ZZ,5,64.0,,,,,Noordwolde Fr,Noordwolde,683117.3951795789,6961465.833291839
98200000017440,98200000017440,De Elzenhof,Het Bosmeer,8391LD,8391ZZ,7,61.0,,,,,Noordwolde Fr,Noordwolde,683125.9663606271,6961367.917093823
98200000017561,98200000017561,De Elzenhof,Het Bosmeer,8391LD,8391ZZ,8,62.0,,,,,Noordwolde Fr,Noordwolde,683124.5776753793,6961405.327118068
98200000017654,98200000017654,De Elzenhof,Het Bosmeer,8391LD,8391ZZ,9,63.0,,,,,Noordwolde Fr,Noordwolde,683129.1677474381,6961439.419095685
98200000016601,98200000016601,Ds.Reitsmastraat,Ds. Reitsmastraat,8391BT,8391BT,3,3.0,,,,,Noordwolde Fr,Noordwolde,683726.3889123654,6962699.554709365
98200000015807,98200000015807,Ds.Reitsmastraat,Ds. Reitsmastraat,8391BT,8391BT,1,1.0,,,,,Noordwolde Fr,Noordwolde,683718.8055737012,6962695.948260698
98200000021438,98200000021438,V Nijm Schonegevelstr,Van Nijmegen Schonegevelstraat,8471BP,8471BP,19,19.0,,,,,Wolvega,Wolvega,667777.881226195,6960451.797433829
98200000022319,98200000022319,Hoofdstraat West,Merelstraat,8471HV,8471DB,26,5.0,,,,,Wolvega,Wolvega,667405.729236508,6959741.673552021
98200000022482,98200000022482,Hoofdstraat West,Merelstraat,8471HV,8471DB,28,5.0,,A,,,Wolvega,Wolvega,667395.4553429135,6959734.636534418
98200000017101,98200000017101,Ds.Reitsmastraat,Ds. Reitsmastraat,8391BT,8391BT,5,5.0,,,,,Noordwolde Fr,Noordwolde,683749.6255391581,6962710.559600686
98200000019224,98200000019224,Cornelis Westerveldstr,Cornelis Westerveldstraat,8395PW,8395PW,2,2.0,A,A,,,Steggerda,Steggerda,676446.7141656518,6956578.439930879
98200000358711,98200000358711,Lenna,Lenna,8471MT,8471MX,141,141.0,,,,,Wolvega,Wolvega,668641.1733485644,6959081.266443709
98200000017352,98200000017352,Ds.Reitsmastraat,Ds. Reitsmastraat,8391BW,8391BW,61,61.0,,,BEDR,BEDR,Noordwolde Fr,Noordwolde,684033.7744108711,6962942.121116252
98200000015081,98200000015081,Langelilleweg,Langelilleweg,8484KE,8484KE,2,6.0,,,RECR,,Langelille,Langelille,651019.5884915984,6956456.804772819
98200000019226,98200000019226,Cornelis Westerveldstr,Cornelis Westerveldstraat,8395PW,8395PW,2,2.0,B,B,,,Steggerda,Steggerda,676451.0343844274,6956557.08842945
98200000019881,98200000019881,V Nijm Schonegevelstr,Van Nijmegen Schonegevelstraat,8471BP,8471BP,1,1.0,A,A,,,Wolvega,Wolvega,667994.1493356362,6960506.180798342
98200000019215,98200000019215,Cornelis Westerveldstr,Cornelis Westerveldstraat,8395PW,8395PW,2,2.0,,,,,Steggerda,Steggerda,676434.409227714,6956604.288357747
98200000019851,98200000019851,V Nijm Schonegevelstr,Van Nijmegen Schonegevelstraat,8471BP,8471BP,1,1.0,,,,,Wolvega,Wolvega,668021.8866487854,6960500.964917799
98200000025957,98200000025957,Buitenweg,Buitenweg,8395TD,8395TD,15,13.0,,,TR01,TR01,Steggerda,Steggerda,675012.700607016,6957614.923566542
98200000025578,98200000025578,Nijverheidsstraat,Aan de Schipsloot,8471AB,8471AC,12,9.0,,,,,Wolvega,Wolvega,667086.1131042391,6961021.96731147
98200000016566,98200000016566,Ds.Reitsmastraat,Ds. Reitsmastraat,8391CA,8391CA,28,28.0,A,A,,,Noordwolde Fr,Noordwolde,683933.392755381,6962705.189884268
98200000016567,98200000016567,Ds.Reitsmastraat,Ds. Reitsmastraat,8391CA,8391CA,28,28.0,B,B,,,Noordwolde Fr,Noordwolde,683969.531309486,6962715.256027062
98200000016568,98200000016568,Ds.Reitsmastraat,Ds. Reitsmastraat,8391CA,8391CA,28,28.0,C,C,,,Noordwolde Fr,Noordwolde,683978.4534679188,6962717.335983849
98200000025344,98200000025344,Dr.Beelstraat,Dr. Beelstraat,8471KV,8471KV,8,8.0,,,,,Wolvega,Wolvega,668107.4994865634,6960012.990974962
98200000024658,98200000024658,Dr.Beelstraat,Dr. Beelstraat,8471KV,8471KV,6,6.0,,,,,Wolvega,Wolvega,668106.1819659524,6960012.246388196
98200000023506,98200000023506,Dr.Beelstraat,Dr. Beelstraat,8471KV,8471KV,4,4.0,,,,,Wolvega,Wolvega,668104.7531225908,6960011.438107886
98200000021489,98200000021489,Dr.Beelstraat,Dr. Beelstraat,8471KV,8471KV,2,2.0,,,,,Wolvega,Wolvega,668103.433935068,6960010.69187751
98200000022103,98200000022103,Dr.Beelstraat,Dr. Beelstraat,8471KV,8471KV,24,24.0,,,,,Wolvega,Wolvega,668119.3688690497,6960019.705409664
98200000021860,98200000021860,Dr.Beelstraat,Dr. Beelstraat,8471KV,8471KV,22,22.0,,,,,Wolvega,Wolvega,668117.8303672713,6960018.835080996
98200000021629,98200000021629,Dr.Beelstraat,Dr. Beelstraat,8471KV,8471KV,20,20.0,,,,,Wolvega,Wolvega,668116.3466937003,6960017.995777122
98200000021243,98200000021243,Dr.Beelstraat,Dr. Beelstraat,8471KV,8471KV,18,18.0,,,,,Wolvega,Wolvega,668114.8081925738,6960017.125448064
98200000023748,98200000023748,Dr.Beelstraat,Dr. Beelstraat,8471KV,8471KV,42,42.0,,,,,Wolvega,Wolvega,668113.9804621479,6960014.477159007
98200000023632,98200000023632,Dr.Beelstraat,Dr. Beelstraat,8471KV,8471KV,40,40.0,,,,,Wolvega,Wolvega,668112.5516176114,6960013.668879875
98200000023356,98200000023356,Dr.Beelstraat,Dr. Beelstraat,8471KV,8471KV,38,38.0,,,,,Wolvega,Wolvega,668111.1244267059,6960012.860586455
98200000023221,98200000023221,Dr.Beelstraat,Dr. Beelstraat,8471KV,8471KV,36,36.0,,,,,Wolvega,Wolvega,668109.5842737783,6960011.990271044
98200000023081,98200000023081,Dr.Beelstraat,Dr. Beelstraat,8471KV,8471KV,34,34.0,,,,,Wolvega,Wolvega,668108.2119112652,6960011.213002287
98200000019931,98200000019931,Dr.Beelstraat,Dr. Beelstraat,8471KV,8471KV,10,10.0,,,,,Wolvega,Wolvega,668108.7638470205,6960013.706179853
98200000020306,98200000020306,Dr.Beelstraat,Dr. Beelstraat,8471KV,8471KV,12,12.0,,,,,Wolvega,Wolvega,668110.302346843,6960014.576509708
98200000020656,98200000020656,Dr.Beelstraat,Dr. Beelstraat,8471KV,8471KV,14,14.0,,,,,Wolvega,Wolvega,668111.8956748394,6960015.477864372
98200000020975,98200000020975,Dr.Beelstraat,Dr. Beelstraat,8471KV,8471KV,16,16.0,,,,,Wolvega,Wolvega,668113.269691779,6960016.255118799
98200000022302,98200000022302,Dr.Beelstraat,Dr. Beelstraat,8471KV,8471KV,26,26.0,,,,,Wolvega,Wolvega,668121.0718548947,6960020.668813036
98200000022467,98200000022467,Dr.Beelstraat,Dr. Beelstraat,8471KV,8471KV,28,28.0,,,,,Wolvega,Wolvega,668104.1995348893,6960008.944944847
98200000022777,98200000022777,Dr.Beelstraat,Dr. Beelstraat,8471KV,8471KV,30,30.0,,,,,Wolvega,Wolvega,668105.4090525665,6960009.627467461
98200000022937,98200000022937,Dr.Beelstraat,Dr. Beelstraat,8471KV,8471KV,32,32.0,,,,,Wolvega,Wolvega,668106.6734123101,6960010.342672383
98200000023870,98200000023870,Dr.Beelstraat,Dr. Beelstraat,8471KV,8471KV,44,44.0,,,,,Wolvega,Wolvega,668115.5737905339,6960015.378512938
98200000023984,98200000023984,Dr.Beelstraat,Dr. Beelstraat,8471KV,8471KV,46,46.0,,,,,Wolvega,Wolvega,668117.1122914086,6960016.248841661
98200000024081,98200000024081,Dr.Beelstraat,Dr. Beelstraat,8471KV,8471KV,48,48.0,,,,,Wolvega,Wolvega,668118.4863089812,6960017.026095266
98200000024296,98200000024296,Dr.Beelstraat,Dr. Beelstraat,8471KV,8471KV,50,50.0,,,,,Wolvega,Wolvega,668120.0796383738,6960017.927448574
98200000024378,98200000024378,Dr.Beelstraat,Dr. Beelstraat,8471KV,8471KV,52,52.0,,,,,Wolvega,Wolvega,668121.6746214682,6960018.828787552
98200001040991,98200001040991,Hoofdweg,Hoofdweg,8478HB,8478GA,1,1.0,,,,,Sonnega,Sonnega,665185.7534092931,6959572.293812054
98200001041793,98200001041793,Dr.Dreeslaan,Dr.Dreeslaan,8171LG,8471LG,28,28.0,P,P,,,Wolvega,Wolvega,668227.7792120263,6959617.886978051
98200001042177,98200001042177,Heerenveenseweg,Heerenveenseweg,8471ZA,8471BD,97,97.0,A,A,,,Wolvega,Wolvega,667916.8758533087,6961736.032530812
98200001042146,98200001042146,Langelilleweg,H.W. Stekelenburgweg,8484KE,8484KL,2,3.0,A,,3,,Langelille,Langelille,651258.884489719,6957204.24339232
98200001042142,98200001042142,Langelilleweg,H.W. Stekelenburgweg,8484KE,8484KL,2,25.0,A,,25,,Langelille,Langelille,651323.6939427112,6957019.130329808
98200001042145,98200001042145,Langelilleweg,H.W. Stekelenburgweg,8484KE,8484KL,2,28.0,A,,28,,Langelille,Langelille,651320.6673921077,6956989.693635336
98200001042305,98200001042305,V N Schonegevelstr,Van Nijmegen Schonegevelstraat,8471BR,8471BR,12,12.0,,,,,Wolvega,Wolvega,667626.6061768896,6960424.974391588
98200001042306,98200001042306,V N Schonegevelstr,Van Nijmegen Schonegevelstraat,8471BR,8471BR,12,12.0,A,A,,,Wolvega,Wolvega,667615.7579950144,6960420.552652636
98200001042326,98200001042326,Langelilleweg,H.W. Stekelenburgweg,8484KE,8484KL,2,22.0,A,,22,,Langelille,Langelille,651297.6955876122,6957058.4601326035
98200001042143,98200001042143,Langelilleweg,H.W. Stekelenburgweg,8484KE,8484KL,2,26.0,A,,26,,Langelille,Langelille,651319.7503360024,6957009.336985922
98200001042325,98200001042325,Langelilleweg,H.W. Stekelenburgweg,8484KE,8484KL,2,21.0,A,,21,,Langelille,Langelille,651292.274527107,6957064.69349381
98200001042328,98200001042328,Langelilleweg,H.W. Stekelenburgweg,8484KE,8484KL,2,24.0,A,,24,,Langelille,Langelille,651313.3457366988,6957047.533196282
98200001042345,98200001042345,Langelilleweg,H.W. Stekelenburgweg,8484KE,8484KL,2,1.0,A,,1,,Langelille,Langelille,651246.4522051743,6957247.731731419
98200001042360,98200001042360,Langelilleweg,H.W. Stekelenburgweg,8484KE,8484KL,2,8.0,A,,8,,Langelille,Langelille,651379.4541240518,6957155.9695374705
98200001042327,98200001042327,Langelilleweg,H.W. Stekelenburgweg,8484KE,8484KL,2,23.0,A,,23,,Langelille,Langelille,651306.0778770417,6957052.383340084
98200001042322,98200001042322,Langelilleweg,H.W. Stekelenburgweg,8484KE,8484KL,2,18.0,A,,18,,Langelille,Langelille,651257.9104852154,6957085.639152877
98200001042321,98200001042321,Langelilleweg,H.W. Stekelenburgweg,8484KE,8484KL,2,17.0,A,,17,,Langelille,Langelille,651248.7533053188,6957088.415373096
98200001042144,98200001042144,Langelilleweg,H.W. Stekelenburgweg,8484KE,8484KL,2,27.0,A,,27,,Langelille,Langelille,651320.7303103146,6956999.511946706
98200001042324,98200001042324,Langelilleweg,H.W. Stekelenburgweg,8484KE,8484KL,2,20.0,A,,20,,Langelille,Langelille,651274.887468883,6957080.5708205355
98200001042323,98200001042323,Langelilleweg,H.W. Stekelenburgweg,8484KE,8484KL,2,19.0,A,,19,,Langelille,Langelille,651266.4875058657,6957083.37863922
98200001042346,98200001042346,Langelilleweg,H.W. Stekelenburgweg,8484KE,8484KL,2,2.0,A,,2,,Langelille,Langelille,651250.3864511767,6957223.51515147
98200001042446,98200001042446,Langelilleweg,H.W. Stekelenburgweg,,8484KL,2,9.0,A,,9,,Langelille,Langelille,651377.8301607899,6957127.495932216
98200001042216,98200001042216,Kommavlinder,Kommavlinder,8471CE,8472CE,21,21.0,,,,,Wolvega,Wolvega,669744.7312895869,6960746.987145389
98200001042447,98200001042447,Langelilleweg,H.W. Stekelenburgweg,,8484KL,2,14.0,A,,14,,Langelille,Langelille,651251.5303670709,6957130.040660314
