BAGNUMIDENTIFICATIE,B_NUMMERAANDUIDING,OPENBARERUIMTENAAM,B_OPENBARERUIMTE,POSTCODE,B_POSTCODE,HUISNUMMER,B_HUISNUMMER,HUISLETTER,B_HUISLETTER,HUISNUMMERTOEVOEGING,B_HUISNUMMERTOEVOEGING,WOONPLAATSNAAM,B_WOONPLAATSNAAM,x,y
184200000000474,184200000000474,Burg v Suchtelenln,Burgemeester van Suchtelenlaan,8321GV,8321GV,1,1.0,,,,,Urk,Urk,623214.7984604202,6921193.24927579
184200000000475,184200000000475,Burg v Suchtelenln,Burgemeester van Suchtelenlaan,8321GV,8321GV,2,2.0,,,,,Urk,Urk,623193.3492804369,6921181.296690418
184200000000476,184200000000476,Burg v Suchtelenln,Burgemeester van Suchtelenlaan,8321GV,8321GV,3,3.0,,,,,Urk,Urk,623183.3329262007,6921178.369998765
184200000000477,184200000000477,Burg v Suchtelenln,Burgemeester van Suchtelenlaan,8321GV,8321GV,4,4.0,,,,,Urk,Urk,623173.2190804994,6921175.8658686
184200000000478,184200000000478,Burg v Suchtelenln,Burgemeester van Suchtelenlaan,8321GV,8321GV,5,5.0,,,,,Urk,Urk,623138.208020044,6921164.498832227
184200000000479,184200000000479,Burg v Suchtelenln,Burgemeester van Suchtelenlaan,8321GV,8321GV,6,6.0,,,,,Urk,Urk,623127.1532900489,6921160.96477343
184200000000480,184200000000480,Burg v Suchtelenln,Burgemeester van Suchtelenlaan,8321GV,8321GV,7,7.0,,,,,Urk,Urk,623117.0281974872,6921157.973991257
184200000000481,184200000000481,Burg v Suchtelenln,Burgemeester van Suchtelenlaan,8321GV,8321GV,8,8.0,,,,,Urk,Urk,623106.1718894889,6921154.765939593
184200000000482,184200000000482,Burg v Suchtelenln,Burgemeester van Suchtelenlaan,8321GV,8321GV,9,9.0,,,,,Urk,Urk,623097.0580029774,6921152.074053278
184200000000483,184200000000483,Burg v Suchtelenln,Burgemeester van Suchtelenlaan,8321GV,8321GV,10,10.0,,,,,Urk,Urk,623085.1664518667,6921149.345716133
184200000000484,184200000000484,Burg v Suchtelenln,Burgemeester van Suchtelenlaan,8321GV,8321GV,11,11.0,,,,,Urk,Urk,623049.5706572558,6921142.237534083
184200000000485,184200000000485,Burg v Suchtelenln,Burgemeester van Suchtelenlaan,8321GV,8321GV,12,12.0,,,,,Urk,Urk,623040.69528683,6921141.212592996
184200000000486,184200000000486,Burg v Suchtelenln,Burgemeester van Suchtelenlaan,8321GV,8321GV,13,13.0,,,,,Urk,Urk,623030.2866161554,6921140.284476067
184200000000487,184200000000487,Burg v Suchtelenln,Burgemeester van Suchtelenlaan,8321GV,8321GV,14,14.0,,,,,Urk,Urk,623020.4309706526,6921139.40587449
184200000000488,184200000000488,Burg v Suchtelenln,Burgemeester van Suchtelenlaan,8321GV,8321GV,15,15.0,,,,,Urk,Urk,623011.5134879469,6921138.610311883
184200000000489,184200000000489,Burg v Suchtelenln,Burgemeester van Suchtelenlaan,8321GV,8321GV,16,16.0,,,,,Urk,Urk,623001.2204590683,6921137.83852917
184200000000490,184200000000490,Burg v Suchtelenln,Burgemeester van Suchtelenlaan,8321GW,8321GW,17,17.0,,,,,Urk,Urk,622965.7373992852,6921134.9706578
184200000000491,184200000000491,Burg v Suchtelenln,Burgemeester van Suchtelenlaan,8321GW,8321GW,18,18.0,,,,,Urk,Urk,622954.7024094933,6921133.6764096
184200000000492,184200000000492,Burg v Suchtelenln,Burgemeester van Suchtelenlaan,8321GW,8321GW,19,19.0,,,,,Urk,Urk,622944.8747863169,6921132.809181674
184200000000493,184200000000493,Burg v Suchtelenln,Burgemeester van Suchtelenlaan,8321GW,8321GW,20,20.0,,,,,Urk,Urk,622933.4720469422,6921131.802992187
184200000000494,184200000000494,Burg v Suchtelenln,Burgemeester van Suchtelenlaan,8321GW,8321GW,21,21.0,,,,,Urk,Urk,622922.8971949766,6921130.870269754
184200000000495,184200000000495,Burg v Suchtelenln,Burgemeester van Suchtelenlaan,8321GW,8321GW,22,22.0,,,,,Urk,Urk,622912.6838668123,6921129.769882796
184200000000496,184200000000496,Burg v Suchtelenln,Burgemeester van Suchtelenlaan,8321GW,8321GW,23,23.0,,,,,Urk,Urk,622846.3948296484,6921122.485633859
184200000000498,184200000000498,Burg v Suchtelenln,Burgemeester van Suchtelenlaan,8321GW,8321GW,25,25.0,,,,,Urk,Urk,622827.2429134573,6921122.9631489
184200000000499,184200000000499,Burg v Suchtelenln,Burgemeester van Suchtelenlaan,8321GW,8321GW,26,26.0,,,,,Urk,Urk,622816.754855704,6921123.598759941
184200000000500,184200000000500,Burg v Suchtelenln,Burgemeester van Suchtelenlaan,8321GW,8321GW,27,27.0,,,,,Urk,Urk,622796.7758169386,6921157.585976475
184200000000501,184200000000501,Burg v Suchtelenln,Burgemeester van Suchtelenlaan,8321GW,8321GW,28,28.0,,,,,Urk,Urk,622786.6565066633,6921158.868765404
184200000000502,184200000000502,Burg v Suchtelenln,Burgemeester van Suchtelenlaan,8321GW,8321GW,29,29.0,,,,,Urk,Urk,622776.6227290338,6921160.1413984075
184200000000503,184200000000503,Burg v Suchtelenln,Burgemeester van Suchtelenlaan,8321GW,8321GW,30,30.0,,,,,Urk,Urk,622766.4573534471,6921161.429243441
184200000000504,184200000000504,Burg v Suchtelenln,Burgemeester van Suchtelenlaan,8321GW,8321GW,31,31.0,,,,,Urk,Urk,622756.4235647098,6921162.700202066
184200000000505,184200000000505,Burg v Suchtelenln,Burgemeester van Suchtelenlaan,8321GW,8321GW,32,32.0,,,,,Urk,Urk,622744.0030546528,6921164.2765740575
184200000005431,184200000005431,Wijk 1,Wijk 1,8321EM,8321EL,42,42.0,,,,,Urk,Urk,622889.7040755021,6920507.627812217
184200000005432,184200000005432,Wijk 1,Wijk 1,8321EM,8321EL,42,42.0,a,a,,,Urk,Urk,622887.3748797267,6920504.9806191595
184200000000506,184200000000506,Burg J Schipper Kade,Burgemeester J. Schipper Kade,8321EH,8321EH,2,2.0,,,,,Urk,Urk,623109.8851060512,6920199.6271325
184200000000507,184200000000507,Burg J Schipper Kade,Burgemeester J. Schipper Kade,8321EH,8321EH,4,4.0,,,,,Urk,Urk,623111.748415276,6920160.820530586
184200000000508,184200000000508,Burg J Schipper Kade,Burgemeester J. Schipper Kade,8321EH,8321EH,8,8.0,,,,,Urk,Urk,623158.7019830187,6920179.157830331
184200000000509,184200000000509,Burg J Schipper Kade,Burgemeester J. Schipper Kade,8321EH,8321EH,10,10.0,,,,,Urk,Urk,623217.0792808944,6920185.193474275
184200000000511,184200000000511,Burg J Schipper Kade,Burgemeester J. Schipper Kade,8321EH,8321EH,12,12.0,,,,,Urk,Urk,623238.4122796572,6920202.765892194
184200000000119,184200000000119,Ambachtsweg,Ambachtsweg,8321DW,8321DW,7,9.0,b,,,,Urk,Urk,624040.5343261786,6920243.6388443075
184200000000751,184200000000751,De Hors,De Hors,8321WS,8321WS,6,4.0,,,,,Urk,Urk,626346.7564977327,6918940.198606317
184200000000510,184200000000510,Burg J Schipper Kade,Burgemeester J. Schipper Kade,8321EH,8321EH,10,10.0,a,a,,,Urk,Urk,623227.1725032746,6920180.486301045
184200000005078,184200000005078,Vormtweg,Vormtweg,8322NE,8322NE,7,7.0,J,j,,,Urk,Urk,625495.2550784799,6924284.034084798
184200000005084,184200000005084,Vormtweg,Vormtweg,8322NE,8322NE,7,7.0,P,p,,,Urk,Urk,625472.8227993116,6924210.71079923
184200000046548,184200000046548,Burg J Schipper Kade,Burgemeester J. Schipper Kade,8321EH,8321EH,12,12.0,a,a,,,Urk,Urk,623237.0454121955,6920190.490400772
184200000046549,184200000046549,Burg J Schipper Kade,Burgemeester J. Schipper Kade,8321EH,8321EH,12,12.0,b,b,,,Urk,Urk,623255.9692917516,6920191.566326178
184200000046809,184200000046809,Staversekade,Staverse Kade,,,1,1.0,,,,,Urk,Urk,622855.9458077353,6920381.913077427
184200000046546,184200000046546,Burg J Schipper Kade,Burgemeester J. Schipper Kade,8321EH,8321EH,8,8.0,a,a,,,Urk,Urk,623176.7658839955,6920165.727058755
184200000000497,184200000000497,Burg v Suchtelenln,Burgemeester van Suchtelenlaan,8321GW,8321GW,24,24.0,,,,,Urk,Urk,622837.3852879824,6921122.8547276715
184200000047695,184200000047695,Staversekade,Staverse Kade,,8321EN,1,1.0,,,,,Urk,Urk,622879.5441457522,6920357.132017871
184200000047785,184200000047785,Burg J Schipper Kade,Burgemeester J. Schipper Kade,,8321EH,10,10.0,b,b,,,Urk,Urk,623200.9254232795,6920184.459009317
184200000047796,184200000047796,Pieter v Vollenhovenstr,Pieter van Vollenhovenstraat,,8322GJ,4,4.0,,,,,Urk,Urk,627585.307886597,6920335.118335789
184200000047795,184200000047795,Pieter v Vollenhovenstr,Pieter van Vollenhovenstraat,8322GJ,8322GJ,2,2.0,a,a,,,Urk,Urk,627613.9860411143,6920349.003834494
184200000047798,184200000047798,Pieter v Vollenhovenstr,Pieter van Vollenhovenstraat,8322GJ,8322GJ,6,6.0,,,,,Urk,Urk,627567.7730345333,6920322.521825227
184200000047794,184200000047794,Pieter v Vollenhovenstr,Pieter van Vollenhovenstraat,8322GJ,8322GJ,2,2.0,,,,,Urk,Urk,627605.0503646305,6920349.013471756
184200000047797,184200000047797,Pieter v Vollenhovenstr,Pieter van Vollenhovenstraat,8322GJ,8322GJ,4,4.0,a,a,,,Urk,Urk,627594.0674272074,6920335.087890665
184200000047799,184200000047799,Pieter v Vollenhovenstr,Pieter van Vollenhovenstraat,8322GJ,8322GJ,6,6.0,a,a,,,Urk,Urk,627576.5424332988,6920322.4913650025
