BAGNUMIDENTIFICATIE,B_NUMMERAANDUIDING,OPENBARERUIMTENAAM,B_OPENBARERUIMTE,POSTCODE,B_POSTCODE,HUISNUMMER,B_HUISNUMMER,HUISLETTER,B_HUISLETTER,HUISNUMMERTOEVOEGING,B_HUISNUMMERTOEVOEGING,WOONPLAATSNAAM,B_WOONPLAATSNAAM,x,y
189200000022570,189200000022570,Burg J C van den Bergpln,Burgemeester J.C. van den Bergplein,7642GR,7642GR,1,1.0,,,,,Wierden,Wierden,734200.393867179,6864872.090509337
189200000022571,189200000022571,Burg J C van den Bergpln,Burgemeester J.C. van den Bergplein,7642GR,7642GR,1,1.0,a,a,,,Wierden,Wierden,734162.7903231779,6864871.08088616
189200000022573,189200000022573,Burg J C van den Bergpln,Burgemeester J.C. van den Bergplein,7642GR,7642GR,2,2.0,,,,,Wierden,Wierden,734139.8557482207,6864884.044868709
189200000022574,189200000022574,Burg J C van den Bergpln,Burgemeester J.C. van den Bergplein,7642GR,7642GR,2,2.0,a,a,,,Wierden,Wierden,734097.9031265681,6864900.016713514
189200000022575,189200000022575,Burg J C van den Bergpln,Burgemeester J.C. van den Bergplein,7642GR,7642GR,3,3.0,,,,,Wierden,Wierden,733998.4343172285,6864913.146328627
189200000022577,189200000022577,Burg J.C. vd Bergpln,Burgemeester J.C. van den Bergplein,7642GR,7642GR,4,4.0,,,,,Wierden,Wierden,733960.6791909159,6864935.589263864
189200000022579,189200000022579,Burg J C van den Bergpln,Burgemeester J.C. van den Bergplein,7642GR,7642GR,5,5.0,,,,,Wierden,Wierden,733952.9725127621,6864941.019524349
189200000022580,189200000022580,Burg J C van den Bergpln,Burgemeester J.C. van den Bergplein,7642GR,7642GR,7,7.0,,,,,Wierden,Wierden,733943.4847842682,6864950.106767428
189200000022581,189200000022581,Burg J C van den Bergpln,Burgemeester J.C. van den Bergplein,7642GR,7642GR,8,8.0,,,,,Wierden,Wierden,733936.1288615525,6864955.010178037
189200000022582,189200000022582,Burg J C van den Bergpln,Burgemeester J.C. van den Bergplein,7642GR,7642GR,9,9.0,,,,,Wierden,Wierden,733911.0269352222,6864963.755053716
189200000022583,189200000022583,Burg J C van den Bergpln,Burgemeester J.C. van den Bergplein,7642GR,7642GR,10,10.0,,,,,Wierden,Wierden,733886.5747289627,6864967.439676282
189200000022584,189200000022584,Burg J C van den Bergpln,Burgemeester J.C. van den Bergplein,7642GR,7642GR,12,12.0,,,,,Wierden,Wierden,733826.750146555,6865006.119220918
189200000022585,189200000022585,Burg J C van den Bergpln,Burgemeester J.C. van den Bergplein,7642GR,7642GR,13,13.0,,,,,Wierden,Wierden,733820.5954535108,6865029.158653095
189200000022586,189200000022586,Burg J C van den Bergpln,Burgemeester J.C. van den Bergplein,7642GR,7642GR,14,14.0,,,,,Wierden,Wierden,733822.41945742,6865040.596666239
189200000022587,189200000022587,Burg J C van den Bergpln,Burgemeester J.C. van den Bergplein,7642GR,7642GR,15,15.0,,,,,Wierden,Wierden,733814.4950707968,6865055.473941004
189200000022590,189200000022590,Burg J C van den Bergpln,Burgemeester J.C. van den Bergplein,7642GS,7642GS,18,18.0,,,,,Wierden,Wierden,733803.5204306121,6865083.5089307865
189200000022592,189200000022592,Burg J.C. vd Bergpln,Burgemeester J.C. van den Bergplein,7642GS,7642GS,20,20.0,,,,,Wierden,Wierden,733884.0281714206,6865042.634491998
189200000022593,189200000022593,Burg J.C. vd Bergpln,Burgemeester J.C. van den Bergplein,7642GS,7642GS,21,21.0,,,,,Wierden,Wierden,733905.6422665019,6865032.768203601
189200000022594,189200000022594,Burg J.C. vd Bergpln,Burgemeester J.C. van den Bergplein,7642GS,7642GS,22,22.0,,,,,Wierden,Wierden,733912.8133635198,6865026.570289365
189200000022595,189200000022595,Burg J.C. vd Bergpln,Burgemeester J.C. van den Bergplein,7642GS,7642GS,23,23.0,,,,,Wierden,Wierden,733920.7439097499,6865016.801218288
189200000022597,189200000022597,Burg J C van den Bergpln,Burgemeester J.C. van den Bergplein,7642GS,7642GS,25,25.0,,,,,Wierden,Wierden,733947.4282197829,6865012.699122248
189200000022598,189200000022598,Burg J C van den Bergpln,Burgemeester J.C. van den Bergplein,7642GS,7642GS,26,26.0,,,,,Wierden,Wierden,733958.3807931937,6865004.527762972
189200000022599,189200000022599,Burg J C van den Bergpln,Burgemeester J.C. van den Bergplein,7642GS,7642GS,27,27.0,,,,,Wierden,Wierden,733963.933285512,6865000.553854182
189200000022600,189200000022600,Burg J C van den Bergpln,Burgemeester J.C. van den Bergplein,7642GT,7642GT,28,28.0,,,,,Wierden,Wierden,733995.7112759856,6864990.638947763
189200000022601,189200000022601,Burg J C van den Bergpln,Burgemeester J.C. van den Bergplein,7642GT,7642GT,28,28.0,a,a,,,Wierden,Wierden,733995.5724493884,6864993.595189938
189200000022602,189200000022602,Burg J C van den Bergpln,Burgemeester J.C. van den Bergplein,7642GT,7642GT,29,29.0,,,,,Wierden,Wierden,734007.4246652575,6864988.133317066
189200000022604,189200000022604,Burg J C van den Bergpln,Burgemeester J.C. van den Bergplein,7642GT,7642GT,31,31.0,,,,,Wierden,Wierden,734034.1455605186,6864981.520403489
189200000022606,189200000022606,Burg J C van den Bergpln,Burgemeester J.C. van den Bergplein,7642GT,7642GT,32,32.0,,,,,Wierden,Wierden,734090.7961422894,6865062.330775939
189200000022607,189200000022607,Burg J C van den Bergpln,Burgemeester J.C. van den Bergplein,7642GT,7642GT,33,33.0,,,,,Wierden,Wierden,734179.3195534905,6864980.572368939
189200000022608,189200000022608,Burg J C van den Bergpln,Burgemeester J.C. van den Bergplein,7642GT,7642GT,33,33.0,a,a,,,Wierden,Wierden,734211.477233288,6864948.906333607
189200000022609,189200000022609,Burg J C van den Bergpln,Burgemeester J.C. van den Bergplein,7642GT,7642GT,34,34.0,,,,,Wierden,Wierden,734221.1708206355,6864942.190906182
189200000022610,189200000022610,Burg J C van den Bergpln,Burgemeester J.C. van den Bergplein,7642GT,7642GT,35,35.0,,,,,Wierden,Wierden,734276.9915206799,6864957.6404781295
189200000022611,189200000022611,Burgemeester Warnaarsstr,Burgemeester Warnaarsstraat,7642CT,7642CT,1,1.0,,,,,Wierden,Wierden,733743.7819950911,6864951.037052018
189200000022612,189200000022612,Burg Warnaarsstraat,Burgemeester Warnaarsstraat,7642CT,7642CT,2,2.0,,,,,Wierden,Wierden,733783.2677145923,6864957.22388702
189200000022614,189200000022614,Burg Warnaarsstraat,Burgemeester Warnaarsstraat,7642CT,7642CT,4,4.0,,,,,Wierden,Wierden,733776.1531999068,6864971.368242738
189200000022615,189200000022615,Burgemeester Warnaarsstr,Burgemeester Warnaarsstraat,7642CT,7642CT,5,5.0,,,,,Wierden,Wierden,733731.4748827802,6864976.578942713
189200000022616,189200000022616,Burgemeester Warnaarsstr,Burgemeester Warnaarsstraat,7642CT,7642CT,6,6.0,,,,,Wierden,Wierden,733768.7824097066,6864965.922405315
189200000022617,189200000022617,Burgemeester Warnaarsstr,Burgemeester Warnaarsstraat,7642CT,7642CT,10,10.0,,,,,Wierden,Wierden,733757.5069599637,6864963.9936073525
189200000022618,189200000022618,Burgemeester Warnaarsstr,Burgemeester Warnaarsstraat,7642CT,7642CT,12,12.0,,,,,Wierden,Wierden,733758.9113699014,6864961.566767858
189200000022619,189200000022619,Burgemeester Warnaarsstr,Burgemeester Warnaarsstraat,7642CT,7642CT,14,14.0,,,,,Wierden,Wierden,733758.4388289335,6864968.055886589
189200000022620,189200000022620,Burgemeester Warnaarsstr,Burgemeester Warnaarsstraat,7642CT,7642CT,16,16.0,,,,,Wierden,Wierden,733746.2874933073,6864982.885447525
189200000022621,189200000022621,Burgemeester Warnaarsstr,Burgemeester Warnaarsstraat,7642CT,7642CT,18,18.0,,,,,Wierden,Wierden,733738.363022264,6864997.762542081
189200000026068,189200000026068,J.Veldhuijzen vZantenstr,Dokter J. Veldhuijzen van Zantenstraat,7468BA,7468BA,1,1.0,,,,,Enter,Enter,731654.1333633374,6852678.958828416
189200000026069,189200000026069,J.Veldhuijzen vZantenstr,Dokter J. Veldhuijzen van Zantenstraat,7468BA,7468BA,2,2.0,,,,,Enter,Enter,731637.4544372878,6852731.31639148
189200000026070,189200000026070,J.Veldhuijzen vZantenstr,Dokter J. Veldhuijzen van Zantenstraat,7468BA,7468BA,3,3.0,,,,,Enter,Enter,731644.0894826126,6852675.125491932
189200000026071,189200000026071,J.Veldhuijzen vZantenstr,Dokter J. Veldhuijzen van Zantenstraat,7468BA,7468BA,4,4.0,,,,,Enter,Enter,731624.3772588394,6852729.894922474
189200000026072,189200000026072,J.Veldhuijzen vZantenstr,Dokter J. Veldhuijzen van Zantenstraat,7468BA,7468BA,5,5.0,,,,,Enter,Enter,731624.8883473441,6852672.695334039
189200000026073,189200000026073,J.Veldhuijzen vZantenstr,Dokter J. Veldhuijzen van Zantenstraat,7468BA,7468BA,6,6.0,,,,,Enter,Enter,731595.4125584674,6852711.612924266
189200000026074,189200000026074,J.Veldhuijzen vZantenstr,Dokter J. Veldhuijzen van Zantenstraat,7468BA,7468BA,7,7.0,,,,,Enter,Enter,731612.695445044,6852669.659498327
189200000026075,189200000026075,J.Veldhuijzen vZantenstr,Dokter J. Veldhuijzen van Zantenstraat,7468BA,7468BA,8,8.0,,,,,Enter,Enter,731591.117557253,6852723.104896964
189200000026076,189200000026076,J.Veldhuijzen vZantenstr,Dokter J. Veldhuijzen van Zantenstraat,7468BA,7468BA,9,9.0,,,,,Enter,Enter,731585.451584959,6852665.232841285
189200000026077,189200000026077,J.Veldhuijzen vZantenstr,Dokter J. Veldhuijzen van Zantenstraat,7468BA,7468BA,10,10.0,,,,,Enter,Enter,731586.5702240851,6852743.439596897
189200000026078,189200000026078,J.Veldhuijzen vZantenstr,Dokter J. Veldhuijzen van Zantenstraat,7468BA,7468BA,12,12.0,,,,,Enter,Enter,731583.4761071748,6852753.827348278
189200000026079,189200000026079,J.Veldhuijzen vZantenstr,Dokter J. Veldhuijzen van Zantenstraat,7468BA,7468BA,18,18.0,,,,,Enter,Enter,731565.2144457208,6852833.550020568
189200000026080,189200000026080,J.Veldhuijzen vZantenstr,Dokter J. Veldhuijzen van Zantenstraat,7468BB,7468BB,20,20.0,,,,,Enter,Enter,731561.2682011243,6852843.4201782085
189200000026081,189200000026081,J.Veldhuijzen vZantenstr,Dokter J. Veldhuijzen van Zantenstraat,7468BB,7468BB,22,22.0,,,,,Enter,Enter,731558.2972882286,6852852.96190992
189200000026082,189200000026082,J.Veldhuijzen vZantenstr,Dokter J. Veldhuijzen van Zantenstraat,7468BB,7468BB,24,24.0,,,,,Enter,Enter,731555.8825337759,6852862.787363094
189200000026083,189200000026083,J.Veldhuijzen vZantenstr,Dokter J. Veldhuijzen van Zantenstraat,7468BB,7468BB,26,26.0,,,,,Enter,Enter,731548.5205306825,6852880.138832978
189200000026084,189200000026084,J.Veldhuijzen vZantenstr,Dokter J. Veldhuijzen van Zantenstraat,7468BB,7468BB,28,28.0,,,,,Enter,Enter,731545.0427541706,6852890.120783511
189200000026085,189200000026085,J.Veldhuijzen vZantenstr,Dokter J. Veldhuijzen van Zantenstraat,7468BB,7468BB,30,30.0,,,,,Enter,Enter,731542.5862660896,6852899.690125218
189200000026086,189200000026086,J.Veldhuijzen vZantenstr,Dokter J. Veldhuijzen van Zantenstraat,7468BB,7468BB,32,32.0,,,,,Enter,Enter,731537.5863230816,6852917.398851535
189200000026087,189200000026087,J.Veldhuijzen vZantenstr,Dokter J. Veldhuijzen van Zantenstraat,7468BB,7468BB,34,34.0,,,,,Enter,Enter,731534.0774260516,6852927.675815076
189200000026088,189200000026088,J.Veldhuijzen vZantenstr,Dokter J. Veldhuijzen van Zantenstraat,7468BB,7468BB,36,36.0,,,,,Enter,Enter,731532.214967503,6852937.750775733
189200000026089,189200000026089,J.Veldhuijzen vZantenstr,Dokter J. Veldhuijzen van Zantenstraat,7468BB,7468BB,38,38.0,,,,,Enter,Enter,731531.5803941969,6852956.783494149
189200000026090,189200000026090,J.Veldhuijzen vZantenstr,Dokter J. Veldhuijzen van Zantenstraat,7468BB,7468BB,40,40.0,,,,,Enter,Enter,731528.4816211651,6852966.895102628
189200000026091,189200000026091,J.Veldhuijzen vZantenstr,Dokter J. Veldhuijzen van Zantenstraat,7468BB,7468BB,42,42.0,,,,,Enter,Enter,731525.6524309919,6852976.727472889
189200000026092,189200000026092,J.Veldhuijzen vZantenstr,Dokter J. Veldhuijzen van Zantenstraat,7468BB,7468BB,44,44.0,,,,,Enter,Enter,731519.8185305435,6852995.035674523
189200000026093,189200000026093,J.Veldhuijzen vZantenstr,Dokter J. Veldhuijzen van Zantenstraat,7468BB,7468BB,46,46.0,,,,,Enter,Enter,731516.7017626046,6853004.045011643
189200000026094,189200000026094,J.Veldhuijzen vZantenstr,Dokter J. Veldhuijzen van Zantenstraat,7468BB,7468BB,48,48.0,,,,,Enter,Enter,731514.5315439436,6853014.262520942
189200000026095,189200000026095,J.Veldhuijzen vZantenstr,Dokter J. Veldhuijzen van Zantenstraat,7468BB,7468BB,50,50.0,,,,,Enter,Enter,731505.7795837254,6853030.948316365
189200000026096,189200000026096,J.Veldhuijzen vZantenstr,Dokter J. Veldhuijzen van Zantenstraat,7468BB,7468BB,52,52.0,,,,,Enter,Enter,731503.4209186631,6853041.919832678
189200000026097,189200000026097,J.Veldhuijzen vZantenstr,Dokter J. Veldhuijzen van Zantenstraat,7468BB,7468BB,54,54.0,,,,,Enter,Enter,731501.0370606848,6853051.345823981
189200000026098,189200000026098,J.Veldhuijzen vZantenstr,Dokter J. Veldhuijzen van Zantenstraat,7468BB,7468BB,56,56.0,,,,,Enter,Enter,731497.442223878,6853060.461201395
189200000023475,189200000023475,Dorpsstraat,Dorpsstraat,7468CK,7468CL,32,32.0,,,,,Enter,Enter,732212.5515546422,6854169.734497301
189200000035184,189200000035184,Hexelseweg,Hexelseweg,7645AM,7645AM,80,80.0,,,TRAF,traf,Hoge Hexel,Hoge Hexel,729884.8323960666,6875171.195554288
189200000026529,189200000026529,Klokkendijk,Klokkendijk,7467PB,7467PB,15,17.0,a,,,,Notter,Notter,724441.7006546045,6862377.334599097
189200000027447,189200000027447,Marcus Samuelstraat,Marcus Samuelstraat,7468BN,7468BN,1,1.0,b,d,,,Enter,Enter,731709.1695779902,6853926.044362473
189200000029066,189200000029066,Rijssensestraat,Rijssensestraat,7642NN,7642NN,146,150.0,a,,,,Wierden,Wierden,730061.8817581534,6860985.923845369
189200000031011,189200000031011,West Kluinveenweg,West Kluinveenweg,7641AP,7641AP,15,39.0,a,,,,Wierden,Wierden,732952.5886716536,6866601.801950452
189200000031013,189200000031013,West Kluinveenweg,West Kluinveenweg,7641AP,7641AP,17,41.0,,,,,Wierden,Wierden,732887.0084473899,6866589.778887762
189200000031016,189200000031016,West Kluinveenweg,West Kluinveenweg,7641AP,7641AP,19,45.0,,,,,Wierden,Wierden,732970.0100721039,6866667.059997296
189200000031017,189200000031017,West Kluinveenweg,West Kluinveenweg,7641AP,7641AP,19,47.0,a,,,,Wierden,Wierden,732968.5650094767,6866678.55466597
189200000031040,189200000031040,Wethouder van Buurenstr,Wethouder van Buurenstraat,7642AV,7642AV,1,1.0,,,,,Wierden,Wierden,733220.5402014526,6864922.428380847
189200000031041,189200000031041,Wethouder van Buurenstr,Wethouder van Buurenstraat,7642AW,7642AW,2,2.0,,,,,Wierden,Wierden,733207.102695999,6865088.515264721
189200000031042,189200000031042,Wethouder van Buurenstr,Wethouder van Buurenstraat,7642AV,7642AV,3,3.0,,,,,Wierden,Wierden,733214.5520497565,6864945.855888432
189200000031043,189200000031043,Wethouder van Buurenstr,Wethouder van Buurenstraat,7642AV,7642AV,5,5.0,,,,,Wierden,Wierden,733215.8822331837,6864963.365568748
189200000031044,189200000031044,Wethouder van Buurenstr,Wethouder van Buurenstraat,7642AV,7642AV,7,7.0,,,,,Wierden,Wierden,733207.868584236,6864984.8739139475
189200000031045,189200000031045,Wethouder van Buurenstr,Wethouder van Buurenstraat,7642AV,7642AV,9,9.0,,,,,Wierden,Wierden,733197.2265387381,6865003.778374333
189200000031046,189200000031046,Wethouder van Buurenstr,Wethouder van Buurenstraat,7642AV,7642AV,13,13.0,,,,,Wierden,Wierden,733148.356096686,6865068.69776992
189200000031047,189200000031047,Wethouder van Buurenstr,Wethouder van Buurenstraat,7642AV,7642AV,15,15.0,,,,,Wierden,Wierden,733130.3048340445,6865090.318771478
189200000031048,189200000031048,Wethouder van Buurenstr,Wethouder van Buurenstraat,7642AV,7642AV,19,19.0,,,,,Wierden,Wierden,733097.451179023,6865132.387939535
189200000031049,189200000031049,Wethouder van Buurenstr,Wethouder van Buurenstraat,7642AV,7642AV,19,19.0,a,a,,,Wierden,Wierden,733077.6426802537,6865155.189905015
189200000031050,189200000031050,Wethouder van Buurenstr,Wethouder van Buurenstraat,7642AV,7642AV,21,21.0,,,,,Wierden,Wierden,733060.1494954525,6865175.792482807
189200000031051,189200000031051,Wethouder van Buurenstr,Wethouder van Buurenstraat,7642AV,7642AV,25,25.0,,,,,Wierden,Wierden,733026.4671436038,6865234.049655445
189200000031052,189200000031052,Wethouder van Buurenstr,Wethouder van Buurenstraat,7642AV,7642AV,27,27.0,,,,,Wierden,Wierden,733023.7152758698,6865240.308027012
189200000031053,189200000031053,Wethouder van Buurenstr,Wethouder van Buurenstraat,7642AV,7642AV,29,29.0,,,,,Wierden,Wierden,732991.6703320829,6865267.168025129
189200000031054,189200000031054,Wethouder van Buurenstr,Wethouder van Buurenstraat,7642AV,7642AV,31,31.0,,,,,Wierden,Wierden,732948.0720832264,6865262.182229385
189200000031055,189200000031055,Wethouder van Buurenstr,Wethouder van Buurenstraat,7642AV,7642AV,35,35.0,,,,,Wierden,Wierden,732904.1076426596,6865274.146506051
189200000031056,189200000031056,Wethouder van Buurenstr,Wethouder van Buurenstraat,7642AV,7642AV,37,37.0,,,,,Wierden,Wierden,732955.6439901282,6865315.14245468
189200000031057,189200000031057,Wethouder van Buurenstr,Wethouder van Buurenstraat,7642AV,7642AV,39,39.0,,,,,Wierden,Wierden,732952.096254208,6865336.379229937
189200000031058,189200000031058,Wethouder van Buurenstr,Wethouder van Buurenstraat,7642AV,7642AV,41,41.0,,,,,Wierden,Wierden,732950.0384937476,6865345.490090636
189200000031219,189200000031219,Witmoesdijk,Witmoesdijk,7468PS,7468PS,1,1.0,a,b,,,Enter,Enter,731351.5551983389,6855120.462727619
189200000031221,189200000031221,Witmoesdijk,Witmoesdijk,7468PS,7468PS,1,1.0,c,d,,,Enter,Enter,731221.9722156225,6855177.556613963
189200000031223,189200000031223,Witmoesdijk,Witmoesdijk,7468PT,7468PT,2,2.0,a,e,,,Enter,Enter,731330.1222620455,6855215.021490454
189200000247352,189200000247352,Ypeloweg,Ypeloweg,7468RC,7468RB,6,6.0,,,,,Enter,Enter,734779.8533765088,6856472.2348561
189200000022603,189200000022603,Burg J C van den Bergpln,Burgemeester J.C. van den Bergplein,7642GT,7642GT,30,30.0,,,,,Wierden,Wierden,734023.3545250227,6864985.342636668
189200000028268,189200000028268,Notterweg,Notterweg,7642LT,7642LT,1,3.0,a,,,,Wierden,Wierden,730381.6066372527,6864387.859046681
189200000246641,189200000246641,Burg J C van den Bergpln,Burgemeester J.C. van den Bergplein,7642GS,7642GS,19,19.0,,,,,Wierden,Wierden,733878.1405813782,6865057.438535846
189200000022572,189200000022572,Burg J C van den Bergpln,Burgemeester J.C. van den Bergplein,7642GR,7642GR,1,1.0,b,b,,,Wierden,Wierden,734164.2333771082,6864859.588569609
189200000246646,189200000246646,Burg J C van den Bergpln,Burgemeester J.C. van den Bergplein,7642GS,7642GS,24,24.0,,,,,Wierden,Wierden,733933.2954873588,6865017.135695338
189200000246644,189200000246644,Burg J.C. vd Bergpln,Burgemeester J.C. van den Bergplein,7642GS,7642GS,22,22.0,,,,,Wierden,Wierden,733907.3033162935,6865028.969016496
189200000246645,189200000246645,Burg J C van den Bergpln,Burgemeester J.C. van den Bergplein,7642GS,7642GS,23,23.0,,,,,Wierden,Wierden,733919.607916152,6865022.891876672
189200000246642,189200000246642,Burg J C van den Bergpln,Burgemeester J.C. van den Bergplein,7642GS,7642GS,20,20.0,,,,,Wierden,Wierden,733887.8159204544,6865038.277193581
189200000246643,189200000246643,Burg J C van den Bergpln,Burgemeester J.C. van den Bergplein,7642GS,7642GS,21,21.0,,,,,Wierden,Wierden,733885.3951840216,6865047.998578757
189200000247130,189200000247130,Wethouder van Buurenstr,Wethouder van Buurenstraat,7642AW,7642AW,4,4.0,,,,,Wierden,Wierden,732995.2574285897,6865333.466989266
189200000247345,189200000247345,Waterspoor,Watergang,7642JZ,7642JW,4,26.0,,,,,Wierden,Wierden,733452.1159426055,6863893.109955718
189200000247567,189200000247567,Burg J C van den Bergpln,Burgemeester J.C. van den Bergplein,7642GT,7642GT,34,34.0,a,a,,,Wierden,Wierden,734240.9996546201,6864982.108193526
