BAGNUMIDENTIFICATIE,B_NUMMERAANDUIDING,OPENBARERUIMTENAAM,B_OPENBARERUIMTE,POSTCODE,B_POSTCODE,HUISNUMMER,B_HUISNUMMER,HUISLETTER,B_HUISLETTER,HUISNUMMERTOEVOEGING,B_HUISNUMMERTOEVOEGING,WOONPLAATSNAAM,B_WOONPLAATSNAAM,x,y
268200000068720,268200000068720,Lange Hezelstraat,Lange Hezelstraat,6511CL,6511CL,48,46.0,,,,,Nijmegen,Nijmegen,652272.8539743972,6772712.291323509
268200000023154,268200000023154,Kwakkenbergweg,Kwakkenbergweg,6523MS,6571GB,122,122.0,,,,,Nijmegen,Nijmegen,656935.4167931412,6768868.216348939
268200000023155,268200000023155,Kwakkenbergweg,Kwakkenbergweg,6523MS,6571GB,124,124.0,,,,,Nijmegen,Nijmegen,656940.9433613172,6768879.979542015
268200000023156,268200000023156,Kwakkenbergweg,Kwakkenbergweg,6523MS,6571GB,126,126.0,,,,,Nijmegen,Nijmegen,656944.889106789,6768891.753960197
268200000023157,268200000023157,Kwakkenbergweg,Kwakkenbergweg,6523MS,6571GB,128,128.0,,,,,Nijmegen,Nijmegen,656949.7157785868,6768903.875084743
268200000023158,268200000023158,Kwakkenbergweg,Kwakkenbergweg,6523MS,6571GB,130,130.0,,,,,Nijmegen,Nijmegen,656954.419816117,6768915.092078412
268200000023159,268200000023159,Kwakkenbergweg,Kwakkenbergweg,6523MS,6571GB,132,132.0,,,,,Nijmegen,Nijmegen,656999.0306104028,6768900.601255415
268200000023160,268200000023160,Kwakkenbergweg,Kwakkenbergweg,6523MS,6571GB,134,134.0,,,,,Nijmegen,Nijmegen,657013.0755648098,6768899.795659047
268200000023161,268200000023161,Kwakkenbergweg,Kwakkenbergweg,6523MS,6571GB,136,136.0,,,,,Nijmegen,Nijmegen,657025.198588532,6768898.721984701
268200000077513,268200000077513,Kwakkenbergweg,Kwakkenbergweg,6523MS,6571GB,138,138.0,,,,,Nijmegen,Nijmegen,656968.0047046412,6768944.045308865
268200000023162,268200000023162,Kwakkenbergweg,Kwakkenbergweg,6523MS,6571GB,140,140.0,,,,,Nijmegen,Nijmegen,656979.7702062753,6768943.785351233
268200000023163,268200000023163,Kwakkenbergweg,Kwakkenbergweg,6523MS,6571GB,142,142.0,,,,,Nijmegen,Nijmegen,656993.4034191268,6768941.831600722
268200000023164,268200000023164,Kwakkenbergweg,Kwakkenbergweg,6523MS,6571GB,144,144.0,,,,,Nijmegen,Nijmegen,657040.3789771214,6768933.132666535
268200000077514,268200000077514,Kwakkenbergweg,Kwakkenbergweg,6523MS,6571GB,146,146.0,,,,,Nijmegen,Nijmegen,657053.209206116,6768932.267629119
268200000023165,268200000023165,Kwakkenbergweg,Kwakkenbergweg,6523MS,6571GB,148,148.0,,,,,Nijmegen,Nijmegen,657065.9683379857,6768931.168322529
268200000023166,268200000023166,Kwakkenbergweg,Kwakkenbergweg,6523MS,6571GB,152,152.0,,,,,Nijmegen,Nijmegen,657101.7583694496,6768899.955523127
268200000077515,268200000077515,Kwakkenbergweg,Kwakkenbergweg,6523MS,6571GB,154,154.0,,,,,Nijmegen,Nijmegen,657114.3931303351,6768898.631989263
268200000023167,268200000023167,Kwakkenbergweg,Kwakkenbergweg,6523MS,6571GB,160,160.0,,,,,Nijmegen,Nijmegen,657141.8655465045,6768930.919959291
268200000023168,268200000023168,Kwakkenbergweg,Kwakkenbergweg,6523MS,6571GB,162,162.0,,,,,Nijmegen,Nijmegen,657154.5028367644,6768929.9476615535
268200000023169,268200000023169,Kwakkenbergweg,Kwakkenbergweg,6523MS,6571GB,164,164.0,,,,,Nijmegen,Nijmegen,657167.3489757032,6768928.823290738
268200000031013,268200000031013,Sionsweg,Sionsweg,6525EA,6564CR,1,1.0,,,,,Nijmegen,Nijmegen,655306.525276754,6765994.08285521
268200000031018,268200000031018,Sionsweg,Sionsweg,6525EA,6564CR,3,3.0,,,,,Nijmegen,Nijmegen,655095.733407087,6765798.588637382
268200000080691,268200000080691,Sionsweg,Sionsweg,6525EA,6564CR,1,1.0,A,a,,,Nijmegen,Nijmegen,655280.3941731327,6766159.335813822
268200000079588,268200000079588,Tweede Oude Heselaan,Tweede Oude Heselaan,6542VE,6542VE,183,183.0,A,D,,,Nijmegen,Nijmegen,650418.8739873278,6771563.090253986
268200000079588,268200000079588,Tweede Oude Heselaan,Tweede Oude Heselaan,6542VE,6542VE,183,183.0,A,D,,,Nijmegen,Nijmegen,650418.8739873278,6771563.090253986
268200000071763,268200000071763,Sophiaweg,Sophiaweg,6523NJ,6523NJ,398,398.0,,A,A2,2,Nijmegen,Nijmegen,655973.3564125282,6769363.204623338
268200000072452,268200000072452,Sophiaweg,Sophiaweg,6523NJ,6523NJ,398,398.0,,A,A5,5,Nijmegen,Nijmegen,655973.5547602823,6769366.8882649215
268200000072457,268200000072457,Sophiaweg,Sophiaweg,6523NJ,6523NJ,400,400.0,,A,A1,1,Nijmegen,Nijmegen,655972.9987457326,6769359.601429033
268200000072458,268200000072458,Sophiaweg,Sophiaweg,6523NJ,6523NJ,400,400.0,,A,A2,2,Nijmegen,Nijmegen,655972.9626934817,6769356.266379944
268200000072459,268200000072459,Sophiaweg,Sophiaweg,6523NJ,6523NJ,400,400.0,,A,A3,3,Nijmegen,Nijmegen,655972.9987457326,6769359.601429033
268200000072461,268200000072461,Sophiaweg,Sophiaweg,6523NJ,6523NJ,400,400.0,,A,A5,5,Nijmegen,Nijmegen,655972.9987457326,6769359.601429033
268200000072462,268200000072462,Sophiaweg,Sophiaweg,6523NJ,6523NJ,400,400.0,,A,A6,6,Nijmegen,Nijmegen,655972.9626934817,6769356.266379944
268200000072463,268200000072463,Sophiaweg,Sophiaweg,6523NJ,6523NJ,400,400.0,,A,A7,7,Nijmegen,Nijmegen,655972.9987457326,6769359.601429033
268200000093251,268200000093251,Georges Brassensstraat,Georges Brassensstraat,6663MH,,51,52.0,,,,,Lent,Lent,652742.5635115384,6776800.824900438
268200000070394,268200000070394,Sophiaweg,Sophiaweg,6523NJ,6523NJ,324,324.0,,A,A1,1,Nijmegen,Nijmegen,655977.1156634353,6769370.380078877
268200000093482,268200000093482,Groesbeekseweg,Groesbeekseweg,6523PB,6523PB,351,351.0,,A,A1,1,Nijmegen,Nijmegen,654766.7606510848,6767909.030283636
268200000093483,268200000093483,Groesbeekseweg,Groesbeekseweg,6523PB,6523PB,351,351.0,,A,A2,2,Nijmegen,Nijmegen,654763.2102612879,6767908.343856177
268200000095718,268200000095718,Groesbeekseweg,Groesbeekseweg,6523PB,6523PB,351,351.0,,A,A3,3,Nijmegen,Nijmegen,654761.1938223722,6767908.140694008
268200000093484,268200000093484,Groesbeekseweg,Groesbeekseweg,6523PB,6523PB,351,351.0,,A,A4,4,Nijmegen,Nijmegen,654759.2362103862,6767907.802770583
268200000093485,268200000093485,Groesbeekseweg,Groesbeekseweg,6523PB,6523PB,351,351.0,,A,A5,5,Nijmegen,Nijmegen,654759.7061859247,6767914.481928168
268200000093285,268200000093285,Sophiaweg,Sophiaweg,6523NJ,6523NJ,500,500.0,,A,A16,16,Nijmegen,Nijmegen,654883.2916836042,6767958.857366822
268200000093286,268200000093286,Sophiaweg,Sophiaweg,6523NJ,6523NJ,500,500.0,,A,A17,17,Nijmegen,Nijmegen,654881.2656962434,6767964.137173133
268200000093287,268200000093287,Sophiaweg,Sophiaweg,6523NJ,6523NJ,500,500.0,,A,A18,18,Nijmegen,Nijmegen,654879.435598232,6767970.917890903
268200000093288,268200000093288,Sophiaweg,Sophiaweg,6523NJ,6523NJ,500,500.0,,A,A19,19,Nijmegen,Nijmegen,654877.0449037057,6767977.890227265
268200000093289,268200000093289,Sophiaweg,Sophiaweg,6523NJ,6523NJ,500,500.0,,A,A20,20,Nijmegen,Nijmegen,654874.4797063787,6767986.744812543
268200000093290,268200000093290,Sophiaweg,Sophiaweg,6523NJ,6523NJ,500,500.0,,A,A21,21,Nijmegen,Nijmegen,654871.5424761098,6767995.977512656
268200000093291,268200000093291,Sophiaweg,Sophiaweg,6523NJ,6523NJ,500,500.0,,A,A22,22,Nijmegen,Nijmegen,654856.7760468594,6768003.034446459
268200000093292,268200000093292,Sophiaweg,Sophiaweg,6523NJ,6523NJ,500,500.0,,A,A23,23,Nijmegen,Nijmegen,654854.5585618032,6768007.938400637
268200000093293,268200000093293,Sophiaweg,Sophiaweg,6523NJ,6523NJ,500,500.0,,A,A24,24,Nijmegen,Nijmegen,654852.1614527983,6768013.971895035
268200000093294,268200000093294,Sophiaweg,Sophiaweg,6523NJ,6523NJ,500,500.0,,A,A25,25,Nijmegen,Nijmegen,654849.9541731786,6768020.378041557
268200000093295,268200000093295,Sophiaweg,Sophiaweg,6523NJ,6523NJ,500,500.0,,A,A26,26,Nijmegen,Nijmegen,654908.6265054692,6767933.866347564
268200000093296,268200000093296,Sophiaweg,Sophiaweg,6523NJ,6523NJ,500,500.0,,A,A27,27,Nijmegen,Nijmegen,654902.4263814802,6767932.217113309
268200000093297,268200000093297,Sophiaweg,Sophiaweg,6523NJ,6523NJ,500,500.0,,A,A28,28,Nijmegen,Nijmegen,654896.0376934828,6767930.381384038
268200000093298,268200000093298,Sophiaweg,Sophiaweg,6523NJ,6523NJ,500,500.0,,A,A101,101,Nijmegen,Nijmegen,654878.1602789373,6767926.558616318
268200000093299,268200000093299,Sophiaweg,Sophiaweg,6523NJ,6523NJ,500,500.0,,A,A102,102,Nijmegen,Nijmegen,654874.346489705,6767925.843279724
268200000093300,268200000093300,Sophiaweg,Sophiaweg,6523NJ,6523NJ,500,500.0,,A,A103,103,Nijmegen,Nijmegen,654870.6453460837,6767925.072132497
268200000093301,268200000093301,Sophiaweg,Sophiaweg,6523NJ,6523NJ,500,500.0,,A,A104,104,Nijmegen,Nijmegen,654865.7507099198,6767924.022614481
268200000093302,268200000093302,Sophiaweg,Sophiaweg,6523NJ,6523NJ,500,500.0,,A,A105,105,Nijmegen,Nijmegen,654861.8804133763,6767923.307658425
268200000093303,268200000093303,Sophiaweg,Sophiaweg,6523NJ,6523NJ,500,500.0,,A,A106,106,Nijmegen,Nijmegen,654857.2094957139,6767921.915041479
268200000093304,268200000093304,Sophiaweg,Sophiaweg,6523NJ,6523NJ,500,500.0,,A,A107,107,Nijmegen,Nijmegen,654853.1665060958,6767920.9730119165
268200000093305,268200000093305,Sophiaweg,Sophiaweg,6523NJ,6523NJ,500,500.0,,A,A108,108,Nijmegen,Nijmegen,654845.9261494409,6767934.701282722
268200000093306,268200000093306,Sophiaweg,Sophiaweg,6523NJ,6523NJ,500,500.0,,A,A109,109,Nijmegen,Nijmegen,654850.4817314752,6767935.753130795
268200000093307,268200000093307,Sophiaweg,Sophiaweg,6523NJ,6523NJ,500,500.0,,A,A110,110,Nijmegen,Nijmegen,654854.296293578,6767936.581789899
268200000093308,268200000093308,Sophiaweg,Sophiaweg,6523NJ,6523NJ,500,500.0,,A,A111,111,Nijmegen,Nijmegen,654857.4836359149,6767937.30141778
268200000093309,268200000093309,Sophiaweg,Sophiaweg,6523NJ,6523NJ,500,500.0,,A,A112,112,Nijmegen,Nijmegen,654860.5587298188,6767938.135127224
268200000093310,268200000093310,Sophiaweg,Sophiaweg,6523NJ,6523NJ,500,500.0,,A,A113,113,Nijmegen,Nijmegen,654863.7484583032,6767938.968052134
268200000093311,268200000093311,Sophiaweg,Sophiaweg,6523NJ,6523NJ,500,500.0,,A,A114,114,Nijmegen,Nijmegen,654867.5626380204,6767939.740050079
268200000093312,268200000093312,Sophiaweg,Sophiaweg,6523NJ,6523NJ,500,500.0,,A,A115,115,Nijmegen,Nijmegen,654886.8588897457,6767951.804155016
268200000093313,268200000093313,Sophiaweg,Sophiaweg,6523NJ,6523NJ,500,500.0,,A,A116,116,Nijmegen,Nijmegen,654884.8055053632,6767959.227434916
268200000093314,268200000093314,Sophiaweg,Sophiaweg,6523NJ,6523NJ,500,500.0,,A,A117,117,Nijmegen,Nijmegen,654882.6251479567,6767964.600568841
268200000093555,268200000093555,Groesbeekseweg,Groesbeekseweg,6523PB,6523PB,351,351.0,,A,A216,216,Nijmegen,Nijmegen,654749.39742454,6767975.023995098
268200000093556,268200000093556,Groesbeekseweg,Groesbeekseweg,6523PB,6523PB,351,351.0,,A,A217,217,Nijmegen,Nijmegen,654755.6472123164,6767968.763551115
268200000093557,268200000093557,Groesbeekseweg,Groesbeekseweg,6523PB,6523PB,351,351.0,,A,A218,218,Nijmegen,Nijmegen,654763.277809926,6767970.398290701
268200000093558,268200000093558,Groesbeekseweg,Groesbeekseweg,6523PB,6523PB,351,351.0,,A,A219,219,Nijmegen,Nijmegen,654769.489433669,6767971.600771818
268200000093559,268200000093559,Groesbeekseweg,Groesbeekseweg,6523PB,6523PB,351,351.0,,A,A220,220,Nijmegen,Nijmegen,654775.8810683987,6767973.156537665
268200000093560,268200000093560,Groesbeekseweg,Groesbeekseweg,6523PB,6523PB,351,351.0,,A,A221,221,Nijmegen,Nijmegen,654781.2046716831,6767974.363450689
268200000093561,268200000093561,Groesbeekseweg,Groesbeekseweg,6523PB,6523PB,351,351.0,,A,A222,222,Nijmegen,Nijmegen,654785.8216993213,6767975.664216685
268200000093562,268200000093562,Groesbeekseweg,Groesbeekseweg,6523PB,6523PB,351,351.0,,A,A223,223,Nijmegen,Nijmegen,654791.233919023,6767976.605035071
268200000093563,268200000093563,Groesbeekseweg,Groesbeekseweg,6523PB,6523PB,351,351.0,,A,A224,224,Nijmegen,Nijmegen,654795.7597407798,6767977.55190044
268200000093564,268200000093564,Groesbeekseweg,Groesbeekseweg,6523PB,6523PB,351,351.0,,A,A225,225,Nijmegen,Nijmegen,654800.1973558479,6767978.586780884
268200000093577,268200000093577,Groesbeekseweg,Groesbeekseweg,6523PB,6523PB,351,351.0,,A,A302,302,Nijmegen,Nijmegen,654809.1171469662,6767918.280734969
268200000093578,268200000093578,Groesbeekseweg,Groesbeekseweg,6523PB,6523PB,351,351.0,,A,A303,303,Nijmegen,Nijmegen,654804.4884191924,6767917.154900879
268200000093579,268200000093579,Groesbeekseweg,Groesbeekseweg,6523PB,6523PB,351,351.0,,A,A304,304,Nijmegen,Nijmegen,654799.8596817042,6767916.027445553
268200000093580,268200000093580,Groesbeekseweg,Groesbeekseweg,6523PB,6523PB,351,351.0,,A,A305,305,Nijmegen,Nijmegen,654795.3382318226,6767915.006095584
268200000093581,268200000093581,Groesbeekseweg,Groesbeekseweg,6523PB,6523PB,351,351.0,,A,A306,306,Nijmegen,Nijmegen,654791.4448460742,6767913.980456487
268200000093582,268200000093582,Groesbeekseweg,Groesbeekseweg,6523PB,6523PB,351,351.0,,A,A307,307,Nijmegen,Nijmegen,654787.1332798857,6767912.956050868
268200000093583,268200000093583,Groesbeekseweg,Groesbeekseweg,6523PB,6523PB,351,351.0,,A,A308,308,Nijmegen,Nijmegen,654782.8222542388,6767912.248922195
268200000093584,268200000093584,Groesbeekseweg,Groesbeekseweg,6523PB,6523PB,351,351.0,,A,A309,309,Nijmegen,Nijmegen,654778.9319145225,6767911.433699307
268200000093585,268200000093585,Groesbeekseweg,Groesbeekseweg,6523PB,6523PB,351,351.0,,A,A310,310,Nijmegen,Nijmegen,654774.6201651664,6767910.619731217
268200000093586,268200000093586,Groesbeekseweg,Groesbeekseweg,6523PB,6523PB,351,351.0,,A,A311,311,Nijmegen,Nijmegen,654770.8269172101,6767908.646407807
268200000093599,268200000093599,Groesbeekseweg,Groesbeekseweg,6523PB,6523PB,351,351.0,,A,A325,325,Nijmegen,Nijmegen,654778.3845856425,6767970.185141759
268200000093598,268200000093598,Groesbeekseweg,Groesbeekseweg,6523PB,6523PB,351,351.0,,A,A324,324,Nijmegen,Nijmegen,654773.2341406248,6767969.273286644
268200000093600,268200000093600,Groesbeekseweg,Groesbeekseweg,6523PB,6523PB,351,351.0,,A,A326,326,Nijmegen,Nijmegen,654783.1175727361,6767971.205064671
268200000093601,268200000093601,Groesbeekseweg,Groesbeekseweg,6523PB,6523PB,351,351.0,,A,A327,327,Nijmegen,Nijmegen,654788.2710744762,6767972.328955879
268200000093602,268200000093602,Groesbeekseweg,Groesbeekseweg,6523PB,6523PB,351,351.0,,A,A328,328,Nijmegen,Nijmegen,654793.318905132,6767973.3467242895
268200000093603,268200000093603,Groesbeekseweg,Groesbeekseweg,6523PB,6523PB,351,351.0,,A,A329,329,Nijmegen,Nijmegen,654798.1568539612,6767974.36754118
268200000093604,268200000093604,Groesbeekseweg,Groesbeekseweg,6523PB,6523PB,351,351.0,,A,A330,330,Nijmegen,Nijmegen,654802.8896606037,6767975.597898596
268200000093605,268200000093605,Groesbeekseweg,Groesbeekseweg,6523PB,6523PB,351,351.0,,A,A331,331,Nijmegen,Nijmegen,654808.9871509768,6767976.398047447
268200000093606,268200000093606,Groesbeekseweg,Groesbeekseweg,6523PB,6523PB,351,351.0,,A,A332,332,Nijmegen,Nijmegen,654810.0929469243,6767969.232155591
268200000093607,268200000093607,Groesbeekseweg,Groesbeekseweg,6523PB,6523PB,351,351.0,,A,A333,333,Nijmegen,Nijmegen,654810.8924768307,6767963.3310248945
268200000093608,268200000093608,Groesbeekseweg,Groesbeekseweg,6523PB,6523PB,351,351.0,,A,A334,334,Nijmegen,Nijmegen,654811.804999473,6767958.3761242535
268200000093609,268200000093609,Groesbeekseweg,Groesbeekseweg,6523PB,6523PB,351,351.0,,A,A335,335,Nijmegen,Nijmegen,654812.7116180377,6767952.789935613
268200000093610,268200000093610,Groesbeekseweg,Groesbeekseweg,6523PB,6523PB,351,351.0,,A,A336,336,Nijmegen,Nijmegen,654813.9309311749,6767946.88595021
268200000093611,268200000093611,Groesbeekseweg,Groesbeekseweg,6523PB,6523PB,351,351.0,,A,A337,337,Nijmegen,Nijmegen,654815.254648423,6767940.663972062
268200000093612,268200000093612,Groesbeekseweg,Groesbeekseweg,6523PB,6523PB,351,351.0,,A,A338,338,Nijmegen,Nijmegen,654816.8817776388,6767932.757999513
268200000093315,268200000093315,Sophiaweg,Sophiaweg,6523NJ,6523NJ,500,500.0,,A,A118,118,Nijmegen,Nijmegen,654880.7947537214,6767971.337581701
268200000093316,268200000093316,Sophiaweg,Sophiaweg,6523NJ,6523NJ,500,500.0,,A,A119,119,Nijmegen,Nijmegen,654878.6244637417,6767978.191858285
268200000093317,268200000093317,Sophiaweg,Sophiaweg,6523NJ,6523NJ,500,500.0,,A,A120,120,Nijmegen,Nijmegen,654875.8436749568,6767987.159615678
268200000093318,268200000093318,Sophiaweg,Sophiaweg,6523NJ,6523NJ,500,500.0,,A,A121,121,Nijmegen,Nijmegen,654872.9501716875,6767996.411443552
268200000093319,268200000093319,Sophiaweg,Sophiaweg,6523NJ,6523NJ,500,500.0,,A,A122,122,Nijmegen,Nijmegen,654871.6168653584,6768000.980736739
268200000093320,268200000093320,Sophiaweg,Sophiaweg,6523NJ,6523NJ,500,500.0,,A,A123,123,Nijmegen,Nijmegen,654858.4448969236,6768003.4066997785
268200000093321,268200000093321,Sophiaweg,Sophiaweg,6523NJ,6523NJ,500,500.0,,A,A124,124,Nijmegen,Nijmegen,654856.2617920834,6768008.380028487
268200000093322,268200000093322,Sophiaweg,Sophiaweg,6523NJ,6523NJ,500,500.0,,A,A125,125,Nijmegen,Nijmegen,654854.7101176934,6768014.318712187
268200000093323,268200000093323,Sophiaweg,Sophiaweg,6523NJ,6523NJ,500,500.0,,A,A126,126,Nijmegen,Nijmegen,654851.7964436975,6768020.608275547
268200000093324,268200000093324,Sophiaweg,Sophiaweg,6523NJ,6523NJ,500,500.0,,A,A127,127,Nijmegen,Nijmegen,654861.6420808653,6768022.193802519
268200000093325,268200000093325,Sophiaweg,Sophiaweg,6523NJ,6523NJ,500,500.0,,A,A128,128,Nijmegen,Nijmegen,654870.1284325613,6768024.528405942
268200000093326,268200000093326,Sophiaweg,Sophiaweg,6523NJ,6523NJ,500,500.0,,A,A129,129,Nijmegen,Nijmegen,654871.393897108,6768030.164556356
268200000093327,268200000093327,Sophiaweg,Sophiaweg,6523NJ,6523NJ,500,500.0,,A,A130,130,Nijmegen,Nijmegen,654874.3760320849,6768024.683916618
268200000093328,268200000093328,Sophiaweg,Sophiaweg,6523NJ,6523NJ,500,500.0,,A,A131,131,Nijmegen,Nijmegen,654873.2049449375,6768022.479005623
268200000093329,268200000093329,Sophiaweg,Sophiaweg,6523NJ,6523NJ,500,500.0,,A,A132,132,Nijmegen,Nijmegen,654875.8737560085,6768017.461873251
268200000093392,268200000093392,Sophiaweg,Sophiaweg,6523NJ,6523NJ,500,500.0,,A,A303,303,Nijmegen,Nijmegen,654870.0298671226,6767927.164581915
268200000093394,268200000093394,Sophiaweg,Sophiaweg,6523NJ,6523NJ,500,500.0,,A,A305,305,Nijmegen,Nijmegen,654861.4017736854,6767925.340895026
268200000093395,268200000093395,Sophiaweg,Sophiaweg,6523NJ,6523NJ,500,500.0,,A,A306,306,Nijmegen,Nijmegen,654856.5865679883,6767924.099811109
268200000093396,268200000093396,Sophiaweg,Sophiaweg,6523NJ,6523NJ,500,500.0,,A,A307,307,Nijmegen,Nijmegen,654852.6038882545,6767923.241546075
268200000093397,268200000093397,Sophiaweg,Sophiaweg,6523NJ,6523NJ,500,500.0,,A,A308,308,Nijmegen,Nijmegen,654845.4605096023,6767936.747382737
268200000093398,268200000093398,Sophiaweg,Sophiaweg,6523NJ,6523NJ,500,500.0,,A,A309,309,Nijmegen,Nijmegen,654849.7204187311,6767937.770494442
268200000093399,268200000093399,Sophiaweg,Sophiaweg,6523NJ,6523NJ,500,500.0,,A,A310,310,Nijmegen,Nijmegen,654853.5356719304,6767938.463170601
268200000093400,268200000093400,Sophiaweg,Sophiaweg,6523NJ,6523NJ,500,500.0,,A,A311,311,Nijmegen,Nijmegen,654856.6340709286,6767939.1623623995
268200000093401,268200000093401,Sophiaweg,Sophiaweg,6523NJ,6523NJ,500,500.0,,A,A312,312,Nijmegen,Nijmegen,654859.734726537,6767940.193390721
268200000093402,268200000093402,Sophiaweg,Sophiaweg,6523NJ,6523NJ,500,500.0,,A,A313,313,Nijmegen,Nijmegen,654862.9981863591,6767940.946491292
268200000093403,268200000093403,Sophiaweg,Sophiaweg,6523NJ,6523NJ,500,500.0,,A,A314,314,Nijmegen,Nijmegen,654866.8699628911,6767941.640393925
268200000093431,268200000093431,Sophiaweg,Sophiaweg,6523NJ,6523NJ,500,500.0,,A,A342,342,Nijmegen,Nijmegen,654900.8550640432,6767951.8735661525
268200000093432,268200000093432,Sophiaweg,Sophiaweg,6523NJ,6523NJ,500,500.0,,A,A343,343,Nijmegen,Nijmegen,654906.4068951443,6767939.874307588
268200000093433,268200000093433,Sophiaweg,Sophiaweg,6523NJ,6523NJ,500,500.0,,A,A344,344,Nijmegen,Nijmegen,654900.7067307044,6767938.140711486
268200000093434,268200000093434,Sophiaweg,Sophiaweg,6523NJ,6523NJ,500,500.0,,A,A345,345,Nijmegen,Nijmegen,654894.0630214958,6767936.081710892
268200000093435,268200000093435,Sophiaweg,Sophiaweg,6523NJ,6523NJ,500,500.0,,A,A346,346,Nijmegen,Nijmegen,654889.8527394336,6767934.284499724
268200000093436,268200000093436,Sophiaweg,Sophiaweg,6523NJ,6523NJ,500,500.0,,A,A401,401,Nijmegen,Nijmegen,654877.4593883035,6767930.336814448
268200000093437,268200000093437,Sophiaweg,Sophiaweg,6523NJ,6523NJ,500,500.0,,A,A402,402,Nijmegen,Nijmegen,654873.3439350674,6767929.424427628
268200000093438,268200000093438,Sophiaweg,Sophiaweg,6523NJ,6523NJ,500,500.0,,A,A403,403,Nijmegen,Nijmegen,654869.8173715913,6767928.6828434
268200000093452,268200000093452,Sophiaweg,Sophiaweg,6523NJ,6523NJ,500,500.0,,A,A417,417,Nijmegen,Nijmegen,654886.2070529266,6767965.404905658
268200000093453,268200000093453,Sophiaweg,Sophiaweg,6523NJ,6523NJ,500,500.0,,A,A418,418,Nijmegen,Nijmegen,654883.9034896846,6767971.892621893
268200000093454,268200000093454,Sophiaweg,Sophiaweg,6523NJ,6523NJ,500,500.0,,A,A419,419,Nijmegen,Nijmegen,654882.0753667629,6767979.20106305
268200000093455,268200000093455,Sophiaweg,Sophiaweg,6523NJ,6523NJ,500,500.0,,A,A420,420,Nijmegen,Nijmegen,654879.844332157,6767987.807308592
268200000093456,268200000093456,Sophiaweg,Sophiaweg,6523NJ,6523NJ,500,500.0,,A,A421,421,Nijmegen,Nijmegen,654876.3901870615,6767997.48062331
268200000093457,268200000093457,Sophiaweg,Sophiaweg,6523NJ,6523NJ,500,500.0,,A,A422,422,Nijmegen,Nijmegen,654875.4223892951,6768001.900107647
268200000093458,268200000093458,Sophiaweg,Sophiaweg,6523NJ,6523NJ,500,500.0,,A,A423,423,Nijmegen,Nijmegen,654862.5266340271,6768004.341996375
268200000093459,268200000093459,Sophiaweg,Sophiaweg,6523NJ,6523NJ,500,500.0,,A,A424,424,Nijmegen,Nijmegen,654860.097194551,6768009.41899517
268200000093460,268200000093460,Sophiaweg,Sophiaweg,6523NJ,6523NJ,500,500.0,,A,A425,425,Nijmegen,Nijmegen,654858.3732958386,6768014.962248762
268200000093461,268200000093461,Sophiaweg,Sophiaweg,6523NJ,6523NJ,500,500.0,,A,A426,426,Nijmegen,Nijmegen,654855.1893545714,6768021.39773499
268200000093462,268200000093462,Sophiaweg,Sophiaweg,6523NJ,6523NJ,500,500.0,,A,A427,427,Nijmegen,Nijmegen,654860.5571807581,6768025.302860583
268200000093463,268200000093463,Sophiaweg,Sophiaweg,6523NJ,6523NJ,500,500.0,,A,A428,428,Nijmegen,Nijmegen,654869.1405423037,6768027.656228744
268200000093540,268200000093540,Groesbeekseweg,Groesbeekseweg,6523PB,6523PB,351,351.0,,A,A201,201,Nijmegen,Nijmegen,654814.6094918911,6767915.572229175
268200000093541,268200000093541,Groesbeekseweg,Groesbeekseweg,6523PB,6523PB,351,351.0,,A,A202,202,Nijmegen,Nijmegen,654810.0433275911,6767914.624038371
268200000093542,268200000093542,Groesbeekseweg,Groesbeekseweg,6523PB,6523PB,351,351.0,,A,A203,203,Nijmegen,Nijmegen,654805.1520885277,6767913.597124894
268200000093543,268200000093543,Groesbeekseweg,Groesbeekseweg,6523PB,6523PB,351,351.0,,A,A204,204,Nijmegen,Nijmegen,654800.5848160984,6767912.485438767
268200000093544,268200000093544,Groesbeekseweg,Groesbeekseweg,6523PB,6523PB,351,351.0,,A,A205,205,Nijmegen,Nijmegen,654796.0987770936,6767911.209697964
268200000093545,268200000093545,Groesbeekseweg,Groesbeekseweg,6523PB,6523PB,351,351.0,,A,A206,206,Nijmegen,Nijmegen,654792.1030604396,6767910.094105975
268200000093546,268200000093546,Groesbeekseweg,Groesbeekseweg,6523PB,6523PB,351,351.0,,A,A207,207,Nijmegen,Nijmegen,654787.9426600813,6767908.979636105
268200000093547,268200000093547,Groesbeekseweg,Groesbeekseweg,6523PB,6523PB,351,351.0,,A,A208,208,Nijmegen,Nijmegen,654783.9475510799,6767908.191031622
268200000093548,268200000093548,Groesbeekseweg,Groesbeekseweg,6523PB,6523PB,351,351.0,,A,A209,209,Nijmegen,Nijmegen,654780.0331258496,6767907.157437548
268200000093549,268200000093549,Groesbeekseweg,Groesbeekseweg,6523PB,6523PB,351,351.0,,A,A210,210,Nijmegen,Nijmegen,654775.5504114988,6767906.370537663
268200000093550,268200000093550,Groesbeekseweg,Groesbeekseweg,6523PB,6523PB,351,351.0,,A,A211,211,Nijmegen,Nijmegen,654764.5003925298,6767915.486868144
268200000093551,268200000093551,Groesbeekseweg,Groesbeekseweg,6523PB,6523PB,351,351.0,,A,A212,212,Nijmegen,Nijmegen,654758.2486530364,6767921.214709183
268200000093552,268200000093552,Groesbeekseweg,Groesbeekseweg,6523PB,6523PB,351,351.0,,A,A213,213,Nijmegen,Nijmegen,654756.1160705592,6767933.4009588165
268200000093553,268200000093553,Groesbeekseweg,Groesbeekseweg,6523PB,6523PB,351,351.0,,A,A214,214,Nijmegen,Nijmegen,654753.8940765554,6767945.498802117
268200000093554,268200000093554,Groesbeekseweg,Groesbeekseweg,6523PB,6523PB,351,351.0,,A,A215,215,Nijmegen,Nijmegen,654751.84665775,6767957.150302373
268200000093565,268200000093565,Groesbeekseweg,Groesbeekseweg,6523PB,6523PB,351,351.0,,A,A226,226,Nijmegen,Nijmegen,654805.6083697466,6767979.349529868
268200000093566,268200000093566,Groesbeekseweg,Groesbeekseweg,6523PB,6523PB,351,351.0,,A,A227,227,Nijmegen,Nijmegen,654814.6074192143,6767986.572704927
268200000093567,268200000093567,Groesbeekseweg,Groesbeekseweg,6523PB,6523PB,351,351.0,,A,A228,228,Nijmegen,Nijmegen,654816.4886220846,6767976.610692321
268200000093568,268200000093568,Groesbeekseweg,Groesbeekseweg,6523PB,6523PB,351,351.0,,A,A229,229,Nijmegen,Nijmegen,654817.8645692256,6767970.470893302
268200000093569,268200000093569,Groesbeekseweg,Groesbeekseweg,6523PB,6523PB,351,351.0,,A,A230,230,Nijmegen,Nijmegen,654818.8011359308,6767964.777650365
268200000093570,268200000093570,Groesbeekseweg,Groesbeekseweg,6523PB,6523PB,351,351.0,,A,A231,231,Nijmegen,Nijmegen,654819.5667523434,6767960.064952233
268200000093571,268200000093571,Groesbeekseweg,Groesbeekseweg,6523PB,6523PB,351,351.0,,A,A232,232,Nijmegen,Nijmegen,654820.3299484377,6767954.996137618
268200000093572,268200000093572,Groesbeekseweg,Groesbeekseweg,6523PB,6523PB,351,351.0,,A,A233,233,Nijmegen,Nijmegen,654821.6285475608,6767950.543669208
268200000093573,268200000093573,Groesbeekseweg,Groesbeekseweg,6523PB,6523PB,351,351.0,,A,A234,234,Nijmegen,Nijmegen,654822.475109574,6767944.674605567
268200000093574,268200000093574,Groesbeekseweg,Groesbeekseweg,6523PB,6523PB,351,351.0,,A,A235,235,Nijmegen,Nijmegen,654824.0105457858,6767935.869204031
268200000093575,268200000093575,Groesbeekseweg,Groesbeekseweg,6523PB,6523PB,351,351.0,,A,A236,236,Nijmegen,Nijmegen,654825.4698480265,6767928.929181188
268200000093576,268200000093576,Groesbeekseweg,Groesbeekseweg,6523PB,6523PB,351,351.0,,A,A301,301,Nijmegen,Nijmegen,654814.1649575749,6767919.300102389
268200000093416,268200000093416,Sophiaweg,Sophiaweg,6523NJ,6523NJ,500,500.0,,A,A327,327,Nijmegen,Nijmegen,654860.8580486624,6768024.195155716
268200000093417,268200000093417,Sophiaweg,Sophiaweg,6523NJ,6523NJ,500,500.0,,A,A328,328,Nijmegen,Nijmegen,654869.5472814478,6768026.68377985
268200000093418,268200000093418,Sophiaweg,Sophiaweg,6523NJ,6523NJ,500,500.0,,A,A329,329,Nijmegen,Nijmegen,654868.9119862656,6768029.1875691805
268200000093419,268200000093419,Sophiaweg,Sophiaweg,6523NJ,6523NJ,500,500.0,,A,A330,330,Nijmegen,Nijmegen,654872.0463845378,6768024.253048727
268200000093420,268200000093420,Sophiaweg,Sophiaweg,6523NJ,6523NJ,500,500.0,,A,A331,331,Nijmegen,Nijmegen,654870.9887078131,6768021.629708927
268200000093421,268200000093421,Sophiaweg,Sophiaweg,6523NJ,6523NJ,500,500.0,,A,A332,332,Nijmegen,Nijmegen,654873.8621164315,6768016.3068428775
268200000093422,268200000093422,Sophiaweg,Sophiaweg,6523NJ,6523NJ,500,500.0,,A,A333,333,Nijmegen,Nijmegen,654877.723759103,6768008.620237402
268200000093424,268200000093424,Sophiaweg,Sophiaweg,6523NJ,6523NJ,500,500.0,,A,A335,335,Nijmegen,Nijmegen,654886.2761543865,6767996.453085602
268200000093425,268200000093425,Sophiaweg,Sophiaweg,6523NJ,6523NJ,500,500.0,,A,A336,336,Nijmegen,Nijmegen,654890.0730317024,6767990.879476589
268200000093426,268200000093426,Sophiaweg,Sophiaweg,6523NJ,6523NJ,500,500.0,,A,A337,337,Nijmegen,Nijmegen,654891.2491453667,6767985.278463513
268200000093427,268200000093427,Sophiaweg,Sophiaweg,6523NJ,6523NJ,500,500.0,,A,A338,338,Nijmegen,Nijmegen,654893.5233206858,6767978.506026117
268200000093428,268200000093428,Sophiaweg,Sophiaweg,6523NJ,6523NJ,500,500.0,,A,A339,339,Nijmegen,Nijmegen,654895.7986265084,6767971.900322548
268200000093429,268200000093429,Sophiaweg,Sophiaweg,6523NJ,6523NJ,500,500.0,,A,A340,340,Nijmegen,Nijmegen,654897.4698686377,6767965.742305907
268200000093430,268200000093430,Sophiaweg,Sophiaweg,6523NJ,6523NJ,500,500.0,,A,A341,341,Nijmegen,Nijmegen,654899.1327095707,6767958.587170681
268200000093486,268200000093486,Groesbeekseweg,Groesbeekseweg,6523PB,6523PB,351,351.0,,A,A6,6,Nijmegen,Nijmegen,654757.3776523933,6767926.582089953
268200000093487,268200000093487,Groesbeekseweg,Groesbeekseweg,6523PB,6523PB,351,351.0,,A,A7,7,Nijmegen,Nijmegen,654755.1912044673,6767938.68291864
268200000093488,268200000093488,Groesbeekseweg,Groesbeekseweg,6523PB,6523PB,351,351.0,,A,A8,8,Nijmegen,Nijmegen,654753.4303363275,6767950.921697316
268200000093489,268200000093489,Groesbeekseweg,Groesbeekseweg,6523PB,6523PB,351,351.0,,A,A9,9,Nijmegen,Nijmegen,654751.6492088897,6767960.175565628
268200000093490,268200000093490,Groesbeekseweg,Groesbeekseweg,6523PB,6523PB,351,351.0,,A,A10,10,Nijmegen,Nijmegen,654750.0907890896,6767967.985573414
268200000093491,268200000093491,Groesbeekseweg,Groesbeekseweg,6523PB,6523PB,351,351.0,,A,A11,11,Nijmegen,Nijmegen,654755.1963999491,6767974.901884262
268200000093492,268200000093492,Groesbeekseweg,Groesbeekseweg,6523PB,6523PB,351,351.0,,A,A12,12,Nijmegen,Nijmegen,654762.8899934576,6767976.539433386
268200000093493,268200000093493,Groesbeekseweg,Groesbeekseweg,6523PB,6523PB,351,351.0,,A,A13,13,Nijmegen,Nijmegen,654769.2725696759,6767978.1875389805
268200000093494,268200000093494,Groesbeekseweg,Groesbeekseweg,6523PB,6523PB,351,351.0,,A,A14,14,Nijmegen,Nijmegen,654775.8411530426,6767979.644970707
268200000093495,268200000093495,Groesbeekseweg,Groesbeekseweg,6523PB,6523PB,351,351.0,,A,A15,15,Nijmegen,Nijmegen,654781.2818330169,6767980.734531938
268200000093527,268200000093527,Groesbeekseweg,Groesbeekseweg,6523PB,6523PB,351,351.0,,A,A126,126,Nijmegen,Nijmegen,654787.88693573,6767978.771173575
268200000093528,268200000093528,Groesbeekseweg,Groesbeekseweg,6523PB,6523PB,351,351.0,,A,A127,127,Nijmegen,Nijmegen,654793.3530663967,6767980.041858832
268200000093529,268200000093529,Groesbeekseweg,Groesbeekseweg,6523PB,6523PB,351,351.0,,A,A128,128,Nijmegen,Nijmegen,654798.9354574588,6767981.075401666
268200000093530,268200000093530,Groesbeekseweg,Groesbeekseweg,6523PB,6523PB,351,351.0,,A,A129,129,Nijmegen,Nijmegen,654804.2796927799,6767981.752811028
268200000093531,268200000093531,Groesbeekseweg,Groesbeekseweg,6523PB,6523PB,351,351.0,,A,A130,130,Nijmegen,Nijmegen,654809.27679727,6767984.096717446
268200000093532,268200000093532,Groesbeekseweg,Groesbeekseweg,6523PB,6523PB,351,351.0,,A,A131,131,Nijmegen,Nijmegen,654813.5433021126,6767983.235521222
268200000093533,268200000093533,Groesbeekseweg,Groesbeekseweg,6523PB,6523PB,351,351.0,,A,A132,132,Nijmegen,Nijmegen,654814.5458975366,6767973.713351255
268200000093534,268200000093534,Groesbeekseweg,Groesbeekseweg,6523PB,6523PB,351,351.0,,A,A133,133,Nijmegen,Nijmegen,654815.8068354938,6767967.281337133
268200000093535,268200000093535,Groesbeekseweg,Groesbeekseweg,6523PB,6523PB,351,351.0,,A,A134,134,Nijmegen,Nijmegen,654817.2841088814,6767957.755944135
268200000093536,268200000093536,Groesbeekseweg,Groesbeekseweg,6523PB,6523PB,351,351.0,,A,A135,135,Nijmegen,Nijmegen,654819.1165920141,6767947.991791972
268200000093537,268200000093537,Groesbeekseweg,Groesbeekseweg,6523PB,6523PB,351,351.0,,A,A136,136,Nijmegen,Nijmegen,654820.5995107432,6767939.298443021
268200000093538,268200000093538,Groesbeekseweg,Groesbeekseweg,6523PB,6523PB,351,351.0,,A,A137,137,Nijmegen,Nijmegen,654821.8539829645,6767931.916267195
268200000093539,268200000093539,Groesbeekseweg,Groesbeekseweg,6523PB,6523PB,351,351.0,,A,A138,138,Nijmegen,Nijmegen,654822.7556692719,6767924.892641424
268200000093382,268200000093382,Sophiaweg,Sophiaweg,6523NJ,6523NJ,500,500.0,,A,A239,239,Nijmegen,Nijmegen,654897.569288919,6767972.28643933
268200000093383,268200000093383,Sophiaweg,Sophiaweg,6523NJ,6523NJ,500,500.0,,A,A240,240,Nijmegen,Nijmegen,654899.3017886215,6767966.351397593
268200000093385,268200000093385,Sophiaweg,Sophiaweg,6523NJ,6523NJ,500,500.0,,A,A242,242,Nijmegen,Nijmegen,654902.7496363327,6767952.198937894
268200000093386,268200000093386,Sophiaweg,Sophiaweg,6523NJ,6523NJ,500,500.0,,A,A243,243,Nijmegen,Nijmegen,654907.1292930652,6767938.546810888
268200000093387,268200000093387,Sophiaweg,Sophiaweg,6523NJ,6523NJ,500,500.0,,A,A244,244,Nijmegen,Nijmegen,654901.041612453,6767936.812628196
268200000093388,268200000093388,Sophiaweg,Sophiaweg,6523NJ,6523NJ,500,500.0,,A,A245,245,Nijmegen,Nijmegen,654894.6119912454,6767934.65665539
268200000093389,268200000093389,Sophiaweg,Sophiaweg,6523NJ,6523NJ,500,500.0,,A,A246,246,Nijmegen,Nijmegen,654890.2976662404,6767932.992897339
268200000093391,268200000093391,Sophiaweg,Sophiaweg,6523NJ,6523NJ,500,500.0,,A,A302,302,Nijmegen,Nijmegen,654873.8482507195,6767928.080619598
268200000093404,268200000093404,Sophiaweg,Sophiaweg,6523NJ,6523NJ,500,500.0,,A,A315,315,Nijmegen,Nijmegen,654889.3684607506,6767952.340625143
268200000093405,268200000093405,Sophiaweg,Sophiaweg,6523NJ,6523NJ,500,500.0,,A,A316,316,Nijmegen,Nijmegen,654887.0984292914,6767959.721679859
268200000093406,268200000093406,Sophiaweg,Sophiaweg,6523NJ,6523NJ,500,500.0,,A,A317,317,Nijmegen,Nijmegen,654884.7065468082,6767965.330986975
268200000093407,268200000093407,Sophiaweg,Sophiaweg,6523NJ,6523NJ,500,500.0,,A,A318,318,Nijmegen,Nijmegen,654882.4853804646,6767971.8262334205
268200000093408,268200000093408,Sophiaweg,Sophiaweg,6523NJ,6523NJ,500,500.0,,A,A319,319,Nijmegen,Nijmegen,654880.7668671019,6767978.870059937
268200000093409,268200000093409,Sophiaweg,Sophiaweg,6523NJ,6523NJ,500,500.0,,A,A320,320,Nijmegen,Nijmegen,654878.3391836482,6767987.526213224
268200000093410,268200000093410,Sophiaweg,Sophiaweg,6523NJ,6523NJ,500,500.0,,A,A321,321,Nijmegen,Nijmegen,654875.0355849211,6767997.018810313
268200000093411,268200000093411,Sophiaweg,Sophiaweg,6523NJ,6523NJ,500,500.0,,A,A322,322,Nijmegen,Nijmegen,654873.9059583134,6768001.622325688
268200000093412,268200000093412,Sophiaweg,Sophiaweg,6523NJ,6523NJ,500,500.0,,A,A323,323,Nijmegen,Nijmegen,654861.0512465127,6768003.926332733
268200000093413,268200000093413,Sophiaweg,Sophiaweg,6523NJ,6523NJ,500,500.0,,A,A324,324,Nijmegen,Nijmegen,654858.6006736737,6768008.9824307235
268200000093414,268200000093414,Sophiaweg,Sophiaweg,6523NJ,6523NJ,500,500.0,,A,A325,325,Nijmegen,Nijmegen,654856.818094246,6768014.919455585
268200000093415,268200000093415,Sophiaweg,Sophiaweg,6523NJ,6523NJ,500,500.0,,A,A326,326,Nijmegen,Nijmegen,654854.1530968068,6768020.9742120765
268200000093442,268200000093442,Sophiaweg,Sophiaweg,6523NJ,6523NJ,500,500.0,,A,A407,407,Nijmegen,Nijmegen,654852.3020715938,6767924.684333435
268200000093443,268200000093443,Sophiaweg,Sophiaweg,6523NJ,6523NJ,500,500.0,,A,A408,408,Nijmegen,Nijmegen,654844.9392399169,6767937.973134182
268200000093444,268200000093444,Sophiaweg,Sophiaweg,6523NJ,6523NJ,500,500.0,,A,A409,409,Nijmegen,Nijmegen,654849.2290781005,6767938.885963762
268200000093445,268200000093445,Sophiaweg,Sophiaweg,6523NJ,6523NJ,500,500.0,,A,A410,410,Nijmegen,Nijmegen,654853.1661392514,6767939.683029627
268200000093446,268200000093446,Sophiaweg,Sophiaweg,6523NJ,6523NJ,500,500.0,,A,A411,411,Nijmegen,Nijmegen,654856.1066086347,6767940.427008353
268200000093447,268200000093447,Sophiaweg,Sophiaweg,6523NJ,6523NJ,500,500.0,,A,A412,412,Nijmegen,Nijmegen,654859.3409212385,6767941.4053221885
268200000093448,268200000093448,Sophiaweg,Sophiaweg,6523NJ,6523NJ,500,500.0,,A,A413,413,Nijmegen,Nijmegen,654862.5155144944,6767942.149317587
268200000093449,268200000093449,Sophiaweg,Sophiaweg,6523NJ,6523NJ,500,500.0,,A,A414,414,Nijmegen,Nijmegen,654866.3940469912,6767942.886881876
268200000093450,268200000093450,Sophiaweg,Sophiaweg,6523NJ,6523NJ,500,500.0,,A,A415,415,Nijmegen,Nijmegen,654890.7576407023,6767952.664598916
268200000093451,268200000093451,Sophiaweg,Sophiaweg,6523NJ,6523NJ,500,500.0,,A,A416,416,Nijmegen,Nijmegen,654888.3426297326,6767960.0952095855
268200000093496,268200000093496,Groesbeekseweg,Groesbeekseweg,6523PB,6523PB,351,351.0,,A,A16,16,Nijmegen,Nijmegen,654787.4745760575,6767982.008357005
268200000093497,268200000093497,Groesbeekseweg,Groesbeekseweg,6523PB,6523PB,351,351.0,,A,A17,17,Nijmegen,Nijmegen,654793.2914543416,6767983.095342973
268200000093498,268200000093498,Groesbeekseweg,Groesbeekseweg,6523PB,6523PB,351,351.0,,A,A18,18,Nijmegen,Nijmegen,654798.5448486202,6767984.18617139
268200000093499,268200000093499,Groesbeekseweg,Groesbeekseweg,6523PB,6523PB,351,351.0,,A,A19,19,Nijmegen,Nijmegen,654803.9871602219,6767985.277325635
268200000093500,268200000093500,Groesbeekseweg,Groesbeekseweg,6523PB,6523PB,351,351.0,,A,A20,20,Nijmegen,Nijmegen,654808.8685274699,6767986.746250092
268200000093501,268200000093501,Groesbeekseweg,Groesbeekseweg,6523PB,6523PB,351,351.0,,A,A21,21,Nijmegen,Nijmegen,654810.5043751916,6767979.408374614
268200000093516,268200000093516,Groesbeekseweg,Groesbeekseweg,6523PB,6523PB,351,351.0,,A,A115,115,Nijmegen,Nijmegen,654759.002352067,6767917.83438822
268200000093517,268200000093517,Groesbeekseweg,Groesbeekseweg,6523PB,6523PB,351,351.0,,A,A116,116,Nijmegen,Nijmegen,654756.9494233459,6767930.099410572
268200000093518,268200000093518,Groesbeekseweg,Groesbeekseweg,6523PB,6523PB,351,351.0,,A,A117,117,Nijmegen,Nijmegen,654754.4242231875,6767942.485844165
268200000093519,268200000093519,Groesbeekseweg,Groesbeekseweg,6523PB,6523PB,351,351.0,,A,A118,118,Nijmegen,Nijmegen,654752.6037786831,6767954.035426687
268200000093520,268200000093520,Groesbeekseweg,Groesbeekseweg,6523PB,6523PB,351,351.0,,A,A119,119,Nijmegen,Nijmegen,654750.771225115,6767963.563226279
268200000093521,268200000093521,Groesbeekseweg,Groesbeekseweg,6523PB,6523PB,351,351.0,,A,A120,120,Nijmegen,Nijmegen,654749.4012361328,6767971.54030737
268200000093522,268200000093522,Groesbeekseweg,Groesbeekseweg,6523PB,6523PB,351,351.0,,A,A121,121,Nijmegen,Nijmegen,654755.4534550882,6767971.856783269
268200000093523,268200000093523,Groesbeekseweg,Groesbeekseweg,6523PB,6523PB,351,351.0,,A,A122,122,Nijmegen,Nijmegen,654763.1735153048,6767973.112113706
268200000093524,268200000093524,Groesbeekseweg,Groesbeekseweg,6523PB,6523PB,351,351.0,,A,A123,123,Nijmegen,Nijmegen,654769.3500490776,6767974.377968013
268200000093525,268200000093525,Groesbeekseweg,Groesbeekseweg,6523PB,6523PB,351,351.0,,A,A124,124,Nijmegen,Nijmegen,654776.1231750691,6767975.997502339
268200000093526,268200000093526,Groesbeekseweg,Groesbeekseweg,6523PB,6523PB,351,351.0,,A,A125,125,Nijmegen,Nijmegen,654781.8266438973,6767977.266575477
268200000093439,268200000093439,Sophiaweg,Sophiaweg,6523NJ,6523NJ,500,500.0,,A,A404,404,Nijmegen,Nijmegen,654864.7037331115,6767927.482654635
268200000093440,268200000093440,Sophiaweg,Sophiaweg,6523NJ,6523NJ,500,500.0,,A,A405,405,Nijmegen,Nijmegen,654861.1178474909,6767926.565023812
268200000093441,268200000093441,Sophiaweg,Sophiaweg,6523NJ,6523NJ,500,500.0,,A,A406,406,Nijmegen,Nijmegen,654856.23832282,6767925.363230068
268200000093476,268200000093476,Sophiaweg,Sophiaweg,6523NJ,6523NJ,500,500.0,,A,A441,441,Nijmegen,Nijmegen,654897.8355872717,6767958.029461508
268200000093477,268200000093477,Sophiaweg,Sophiaweg,6523NJ,6523NJ,500,500.0,,A,A442,442,Nijmegen,Nijmegen,654899.6095647298,6767951.309029487
268200000093478,268200000093478,Sophiaweg,Sophiaweg,6523NJ,6523NJ,500,500.0,,A,A443,443,Nijmegen,Nijmegen,654906.1147968476,6767941.320271065
268200000093479,268200000093479,Sophiaweg,Sophiaweg,6523NJ,6523NJ,500,500.0,,A,A444,444,Nijmegen,Nijmegen,654900.1172104964,6767939.538525812
268200000093480,268200000093480,Sophiaweg,Sophiaweg,6523NJ,6523NJ,500,500.0,,A,A445,445,Nijmegen,Nijmegen,654894.4118515501,6767937.753159431
268200000093481,268200000093481,Sophiaweg,Sophiaweg,6523NJ,6523NJ,500,500.0,,A,A446,446,Nijmegen,Nijmegen,654889.3495230877,6767935.552218925
268200000093464,268200000093464,Sophiaweg,Sophiaweg,6523NJ,6523NJ,500,500.0,,A,A429,429,Nijmegen,Nijmegen,654867.1735459276,6768028.555163556
268200000093465,268200000093465,Sophiaweg,Sophiaweg,6523NJ,6523NJ,500,500.0,,A,A430,430,Nijmegen,Nijmegen,654870.1627024253,6768023.869315159
268200000093466,268200000093466,Sophiaweg,Sophiaweg,6523NJ,6523NJ,500,500.0,,A,A431,431,Nijmegen,Nijmegen,654869.6995216679,6768021.290476198
268200000093468,268200000093468,Sophiaweg,Sophiaweg,6523NJ,6523NJ,500,500.0,,A,A433,433,Nijmegen,Nijmegen,654875.9054450234,6768008.350994505
268200000093469,268200000093469,Sophiaweg,Sophiaweg,6523NJ,6523NJ,500,500.0,,A,A434,434,Nijmegen,Nijmegen,654881.4006541724,6768001.072498949
268200000093470,268200000093470,Sophiaweg,Sophiaweg,6523NJ,6523NJ,500,500.0,,A,A435,435,Nijmegen,Nijmegen,654886.8336859449,6767996.9980491595
268200000093471,268200000093471,Sophiaweg,Sophiaweg,6523NJ,6523NJ,500,500.0,,A,A436,436,Nijmegen,Nijmegen,654888.4304853654,6767990.338694776
268200000093472,268200000093472,Sophiaweg,Sophiaweg,6523NJ,6523NJ,500,500.0,,A,A437,437,Nijmegen,Nijmegen,654889.5646501672,6767984.504861311
268200000093473,268200000093473,Sophiaweg,Sophiaweg,6523NJ,6523NJ,500,500.0,,A,A438,438,Nijmegen,Nijmegen,654891.8100879046,6767978.017530874
268200000093475,268200000093475,Sophiaweg,Sophiaweg,6523NJ,6523NJ,500,500.0,,A,A440,440,Nijmegen,Nijmegen,654896.0672190104,6767965.337484843
268200000093502,268200000093502,Groesbeekseweg,Groesbeekseweg,6523PB,6523PB,351,351.0,,A,A22,22,Nijmegen,Nijmegen,654815.1975132248,6767980.503016959
268200000093503,268200000093503,Groesbeekseweg,Groesbeekseweg,6523PB,6523PB,351,351.0,,A,A101,101,Nijmegen,Nijmegen,654815.3116622115,6767911.740614665
268200000093504,268200000093504,Groesbeekseweg,Groesbeekseweg,6523PB,6523PB,351,351.0,,A,A102,102,Nijmegen,Nijmegen,654810.9144127438,6767910.700619193
268200000093505,268200000093505,Groesbeekseweg,Groesbeekseweg,6523PB,6523PB,351,351.0,,A,A103,103,Nijmegen,Nijmegen,654806.1627644682,6767909.78121264
268200000093506,268200000093506,Groesbeekseweg,Groesbeekseweg,6523PB,6523PB,351,351.0,,A,A104,104,Nijmegen,Nijmegen,654801.5289784085,6767908.623036783
268200000093507,268200000093507,Groesbeekseweg,Groesbeekseweg,6523PB,6523PB,351,351.0,,A,A105,105,Nijmegen,Nijmegen,654796.775727475,6767907.467292702
268200000093508,268200000093508,Groesbeekseweg,Groesbeekseweg,6523PB,6523PB,351,351.0,,A,A106,106,Nijmegen,Nijmegen,654792.736102032,6767906.543018323
268200000093509,268200000093509,Groesbeekseweg,Groesbeekseweg,6523PB,6523PB,351,351.0,,A,A107,107,Nijmegen,Nijmegen,654788.9314003591,6767905.4989671195
268200000093510,268200000093510,Groesbeekseweg,Groesbeekseweg,6523PB,6523PB,351,351.0,,A,A108,108,Nijmegen,Nijmegen,654784.8917767818,6767904.574689043
268200000093511,268200000093511,Groesbeekseweg,Groesbeekseweg,6523PB,6523PB,351,351.0,,A,A109,109,Nijmegen,Nijmegen,654780.7342915466,6767903.651213335
268200000093512,268200000093512,Groesbeekseweg,Groesbeekseweg,6523PB,6523PB,351,351.0,,A,A110,110,Nijmegen,Nijmegen,654776.3402814929,6767903.087101663
268200000093513,268200000093513,Groesbeekseweg,Groesbeekseweg,6523PB,6523PB,351,351.0,,A,A111,111,Nijmegen,Nijmegen,654766.4382077677,6767912.4319414245
268200000093514,268200000093514,Groesbeekseweg,Groesbeekseweg,6523PB,6523PB,351,351.0,,A,A112,112,Nijmegen,Nijmegen,654762.7537855385,6767911.267266124
268200000095719,268200000095719,Groesbeekseweg,Groesbeekseweg,6523PB,6523PB,351,351.0,,A,A113,113,Nijmegen,Nijmegen,654760.5872250338,6767911.069984191
268200000093515,268200000093515,Groesbeekseweg,Groesbeekseweg,6523PB,6523PB,351,351.0,,A,A114,114,Nijmegen,Nijmegen,654758.5987273057,6767910.93947624
268200000095720,268200000095720,Groesbeekseweg,Groesbeekseweg,6523PB,6523PB,351,351.0,,A,A313,313,Nijmegen,Nijmegen,654768.4912301513,6767911.126140751
268200000093588,268200000093588,Groesbeekseweg,Groesbeekseweg,6523PB,6523PB,351,351.0,,A,A314,314,Nijmegen,Nijmegen,654770.0187823694,6767913.283278463
268200000093589,268200000093589,Groesbeekseweg,Groesbeekseweg,6523PB,6523PB,351,351.0,,A,A315,315,Nijmegen,Nijmegen,654762.8212377607,6767920.492293274
268200000093590,268200000093590,Groesbeekseweg,Groesbeekseweg,6523PB,6523PB,351,351.0,,A,A316,316,Nijmegen,Nijmegen,654761.3939542731,6767926.923778014
268200000093591,268200000093591,Groesbeekseweg,Groesbeekseweg,6523PB,6523PB,351,351.0,,A,A317,317,Nijmegen,Nijmegen,654759.7712538685,6767935.252208594
268200000093592,268200000093592,Groesbeekseweg,Groesbeekseweg,6523PB,6523PB,351,351.0,,A,A318,318,Nijmegen,Nijmegen,654758.4574913488,6767942.947209562
268200000093593,268200000093593,Groesbeekseweg,Groesbeekseweg,6523PB,6523PB,351,351.0,,A,A319,319,Nijmegen,Nijmegen,654757.0511043608,6767952.221177016
268200000093594,268200000093594,Groesbeekseweg,Groesbeekseweg,6523PB,6523PB,351,351.0,,A,A320,320,Nijmegen,Nijmegen,654755.4275049034,6767960.656479396
268200000093595,268200000093595,Groesbeekseweg,Groesbeekseweg,6523PB,6523PB,351,351.0,,A,A321,321,Nijmegen,Nijmegen,654757.563768792,6767965.904626511
268200000093596,268200000093596,Groesbeekseweg,Groesbeekseweg,6523PB,6523PB,351,351.0,,A,A322,322,Nijmegen,Nijmegen,654763.1377655484,6767967.130886767
268200000093597,268200000093597,Groesbeekseweg,Groesbeekseweg,6523PB,6523PB,351,351.0,,A,A323,323,Nijmegen,Nijmegen,654768.291965133,6767968.358388638
268200000093270,268200000093270,Sophiaweg,Sophiaweg,6523NJ,6523NJ,500,500.0,,A,A1,1,Nijmegen,Nijmegen,654878.7477433041,6767924.858105698
268200000093271,268200000093271,Sophiaweg,Sophiaweg,6523NJ,6523NJ,500,500.0,,A,A2,2,Nijmegen,Nijmegen,654874.807277905,6767924.509482513
268200000093272,268200000093272,Sophiaweg,Sophiaweg,6523NJ,6523NJ,500,500.0,,A,A3,3,Nijmegen,Nijmegen,654871.0502601544,6767923.594645035
268200000093273,268200000093273,Sophiaweg,Sophiaweg,6523NJ,6523NJ,500,500.0,,A,A4,4,Nijmegen,Nijmegen,654866.1666295702,6767922.501344851
268200000093274,268200000093274,Sophiaweg,Sophiaweg,6523NJ,6523NJ,500,500.0,,A,A5,5,Nijmegen,Nijmegen,654862.4121670523,6767921.96204583
268200000093275,268200000093275,Sophiaweg,Sophiaweg,6523NJ,6523NJ,500,500.0,,A,A6,6,Nijmegen,Nijmegen,654857.716154453,6767920.678059943
268200000093276,268200000093276,Sophiaweg,Sophiaweg,6523NJ,6523NJ,500,500.0,,A,A7,7,Nijmegen,Nijmegen,654853.7705750889,6767919.576723614
268200000093277,268200000093277,Sophiaweg,Sophiaweg,6523NJ,6523NJ,500,500.0,,A,A8,8,Nijmegen,Nijmegen,654846.5486382088,6767933.164031685
268200000093278,268200000093278,Sophiaweg,Sophiaweg,6523NJ,6523NJ,500,500.0,,A,A9,9,Nijmegen,Nijmegen,654850.8700779445,6767934.4505854165
268200000093279,268200000093279,Sophiaweg,Sophiaweg,6523NJ,6523NJ,500,500.0,,A,A10,10,Nijmegen,Nijmegen,654854.8143766534,6767935.362534994
268200000093280,268200000093280,Sophiaweg,Sophiaweg,6523NJ,6523NJ,500,500.0,,A,A11,11,Nijmegen,Nijmegen,654857.8196880681,6767935.906957876
268200000093281,268200000093281,Sophiaweg,Sophiaweg,6523NJ,6523NJ,500,500.0,,A,A12,12,Nijmegen,Nijmegen,654861.2017936797,6767937.012145257
268200000093282,268200000093282,Sophiaweg,Sophiaweg,6523NJ,6523NJ,500,500.0,,A,A13,13,Nijmegen,Nijmegen,654864.2058184096,6767937.367175665
268200000093283,268200000093283,Sophiaweg,Sophiaweg,6523NJ,6523NJ,500,500.0,,A,A14,14,Nijmegen,Nijmegen,654868.1514078333,6767938.468509272
268200000093284,268200000093284,Sophiaweg,Sophiaweg,6523NJ,6523NJ,500,500.0,,A,A15,15,Nijmegen,Nijmegen,654885.3052336492,6767951.512062288
268200000093330,268200000093330,Sophiaweg,Sophiaweg,6523NJ,6523NJ,500,500.0,,A,A133,133,Nijmegen,Nijmegen,654879.6411315468,6768009.44729187
268200000093331,268200000093331,Sophiaweg,Sophiaweg,6523NJ,6523NJ,500,500.0,,A,A134,134,Nijmegen,Nijmegen,654884.6709920322,6768002.3581372425
268200000093332,268200000093332,Sophiaweg,Sophiaweg,6523NJ,6523NJ,500,500.0,,A,A135,135,Nijmegen,Nijmegen,654887.8477145056,6767996.2901727175
268200000093333,268200000093333,Sophiaweg,Sophiaweg,6523NJ,6523NJ,500,500.0,,A,A136,136,Nijmegen,Nijmegen,654890.6485230651,6767990.266870744
268200000093334,268200000093334,Sophiaweg,Sophiaweg,6523NJ,6523NJ,500,500.0,,A,A137,137,Nijmegen,Nijmegen,654892.6954383462,6767985.215153493
268200000093335,268200000093335,Sophiaweg,Sophiaweg,6523NJ,6523NJ,500,500.0,,A,A138,138,Nijmegen,Nijmegen,654895.0403621871,6767979.348761729
268200000093336,268200000093336,Sophiaweg,Sophiaweg,6523NJ,6523NJ,500,500.0,,A,A139,139,Nijmegen,Nijmegen,654898.2953184735,6767972.916044698
268200000093338,268200000093338,Sophiaweg,Sophiaweg,6523NJ,6523NJ,500,500.0,,A,A141,141,Nijmegen,Nijmegen,654903.1846441319,6767959.653768057
268200000093339,268200000093339,Sophiaweg,Sophiaweg,6523NJ,6523NJ,500,500.0,,A,A142,142,Nijmegen,Nijmegen,654905.0699784651,6767952.926096701
268200000093340,268200000093340,Sophiaweg,Sophiaweg,6523NJ,6523NJ,500,500.0,,A,A143,143,Nijmegen,Nijmegen,654907.9098782268,6767936.516359386
268200000093341,268200000093341,Sophiaweg,Sophiaweg,6523NJ,6523NJ,500,500.0,,A,A144,144,Nijmegen,Nijmegen,654901.7685373996,6767934.96384969
268200000093342,268200000093342,Sophiaweg,Sophiaweg,6523NJ,6523NJ,500,500.0,,A,A145,145,Nijmegen,Nijmegen,654895.5103252715,6767932.845556883
268200000093343,268200000093343,Sophiaweg,Sophiaweg,6523NJ,6523NJ,500,500.0,,A,A146,146,Nijmegen,Nijmegen,654891.0708099351,6767931.054770993
268200000093344,268200000093344,Sophiaweg,Sophiaweg,6523NJ,6523NJ,500,500.0,,A,A201,201,Nijmegen,Nijmegen,654877.855450274,6767927.557876552
268200000093345,268200000093345,Sophiaweg,Sophiaweg,6523NJ,6523NJ,500,500.0,,A,A202,202,Nijmegen,Nijmegen,654874.1809531049,6767926.906339293
268200000093346,268200000093346,Sophiaweg,Sophiaweg,6523NJ,6523NJ,500,500.0,,A,A203,203,Nijmegen,Nijmegen,654870.419156678,6767926.001246664
268200000093347,268200000093347,Sophiaweg,Sophiaweg,6523NJ,6523NJ,500,500.0,,A,A204,204,Nijmegen,Nijmegen,654865.6021949596,6767924.977098206
268200000093348,268200000093348,Sophiaweg,Sophiaweg,6523NJ,6523NJ,500,500.0,,A,A205,205,Nijmegen,Nijmegen,654861.757885009,6767924.284627496
268200000093349,268200000093349,Sophiaweg,Sophiaweg,6523NJ,6523NJ,500,500.0,,A,A206,206,Nijmegen,Nijmegen,654856.936999851,6767922.920554566
268200000093350,268200000093350,Sophiaweg,Sophiaweg,6523NJ,6523NJ,500,500.0,,A,A207,207,Nijmegen,Nijmegen,654852.8396649387,6767922.059835677
268200000093351,268200000093351,Sophiaweg,Sophiaweg,6523NJ,6523NJ,500,500.0,,A,A208,208,Nijmegen,Nijmegen,654845.6745200331,6767935.688847696
268200000093352,268200000093352,Sophiaweg,Sophiaweg,6523NJ,6523NJ,500,500.0,,A,A209,209,Nijmegen,Nijmegen,654850.1117774046,6767936.673515129
268200000093354,268200000093354,Sophiaweg,Sophiaweg,6523NJ,6523NJ,500,500.0,,A,A211,211,Nijmegen,Nijmegen,654857.2531842284,6767938.316358232
268200000093355,268200000093355,Sophiaweg,Sophiaweg,6523NJ,6523NJ,500,500.0,,A,A212,212,Nijmegen,Nijmegen,654860.296974496,6767939.0580104645
268200000093356,268200000093356,Sophiaweg,Sophiaweg,6523NJ,6523NJ,500,500.0,,A,A213,213,Nijmegen,Nijmegen,654863.3811183824,6767939.79776703
268200000093357,268200000093357,Sophiaweg,Sophiaweg,6523NJ,6523NJ,500,500.0,,A,A214,214,Nijmegen,Nijmegen,654867.1846128922,6767940.660490815
268200000093358,268200000093358,Sophiaweg,Sophiaweg,6523NJ,6523NJ,500,500.0,,A,A215,215,Nijmegen,Nijmegen,654887.9373572678,6767952.02503178
268200000093359,268200000093359,Sophiaweg,Sophiaweg,6523NJ,6523NJ,500,500.0,,A,A216,216,Nijmegen,Nijmegen,654885.792941493,6767959.358281784
268200000093360,268200000093360,Sophiaweg,Sophiaweg,6523NJ,6523NJ,500,500.0,,A,A217,217,Nijmegen,Nijmegen,654883.5944540297,6767964.914464454
268200000093361,268200000093361,Sophiaweg,Sophiaweg,6523NJ,6523NJ,500,500.0,,A,A218,218,Nijmegen,Nijmegen,654881.530714827,6767971.52842533
268200000093362,268200000093362,Sophiaweg,Sophiaweg,6523NJ,6523NJ,500,500.0,,A,A219,219,Nijmegen,Nijmegen,654879.4673613864,6767978.43701054
268200000093363,268200000093363,Sophiaweg,Sophiaweg,6523NJ,6523NJ,500,500.0,,A,A220,220,Nijmegen,Nijmegen,654876.9116007643,6767987.254300181
268200000093364,268200000093364,Sophiaweg,Sophiaweg,6523NJ,6523NJ,500,500.0,,A,A221,221,Nijmegen,Nijmegen,654873.8111946406,6767996.709893681
268200000093365,268200000093365,Sophiaweg,Sophiaweg,6523NJ,6523NJ,500,500.0,,A,A222,222,Nijmegen,Nijmegen,654872.5344539145,6768001.2868945645
268200000093366,268200000093366,Sophiaweg,Sophiaweg,6523NJ,6523NJ,500,500.0,,A,A223,223,Nijmegen,Nijmegen,654859.513147034,6768003.78629478
268200000093367,268200000093367,Sophiaweg,Sophiaweg,6523NJ,6523NJ,500,500.0,,A,A224,224,Nijmegen,Nijmegen,654857.3939985301,6768008.666914842
268200000093368,268200000093368,Sophiaweg,Sophiaweg,6523NJ,6523NJ,500,500.0,,A,A225,225,Nijmegen,Nijmegen,654855.6200414054,6768014.684820799
268200000093371,268200000093371,Sophiaweg,Sophiaweg,6523NJ,6523NJ,500,500.0,,A,A228,228,Nijmegen,Nijmegen,654869.7884857705,6768025.5878139455
268200000093372,268200000093372,Sophiaweg,Sophiaweg,6523NJ,6523NJ,500,500.0,,A,A229,229,Nijmegen,Nijmegen,654870.7446158599,6768029.42434024
268200000093373,268200000093373,Sophiaweg,Sophiaweg,6523NJ,6523NJ,500,500.0,,A,A230,230,Nijmegen,Nijmegen,654872.7928008701,6768024.793486397
268200000093374,268200000093374,Sophiaweg,Sophiaweg,6523NJ,6523NJ,500,500.0,,A,A231,231,Nijmegen,Nijmegen,654872.178439622,6768022.065131164
268200000093375,268200000093375,Sophiaweg,Sophiaweg,6523NJ,6523NJ,500,500.0,,A,A232,232,Nijmegen,Nijmegen,654874.7051976825,6768016.815861682
268200000093376,268200000093376,Sophiaweg,Sophiaweg,6523NJ,6523NJ,500,500.0,,A,A233,233,Nijmegen,Nijmegen,654877.8221604248,6768009.318890264
268200000093377,268200000093377,Sophiaweg,Sophiaweg,6523NJ,6523NJ,500,500.0,,A,A234,234,Nijmegen,Nijmegen,654883.4107055845,6768001.994427803
268200000093378,268200000093378,Sophiaweg,Sophiaweg,6523NJ,6523NJ,500,500.0,,A,A235,235,Nijmegen,Nijmegen,654886.5785451976,6767996.04469766
268200000093379,268200000093379,Sophiaweg,Sophiaweg,6523NJ,6523NJ,500,500.0,,A,A236,236,Nijmegen,Nijmegen,654889.4900689218,6767991.3432034105
268200000093380,268200000093380,Sophiaweg,Sophiaweg,6523NJ,6523NJ,500,500.0,,A,A237,237,Nijmegen,Nijmegen,654892.7664548347,6767985.685739995
268200000093381,268200000093381,Sophiaweg,Sophiaweg,6523NJ,6523NJ,500,500.0,,A,A238,238,Nijmegen,Nijmegen,654895.0825307483,6767978.90168369
268200000094513,268200000094513,Tweede Walstraat,Tweede Walstraat,6511LN,6511LN,31,31.0,C,B,,,Nijmegen,Nijmegen,652907.2542856,6771943.394527199
268200000094515,268200000094515,Tweede Walstraat,Ziekerstraat,6511LN,6511LL,31,140.0,B,,,,Nijmegen,Nijmegen,652906.2762775895,6771926.29814073
268200000094514,268200000094514,Tweede Walstraat,Tweede Walstraat,6511LN,6511LN,31,31.0,D,C,,,Nijmegen,Nijmegen,652906.1684427048,6771936.456894425
