BAGNUMIDENTIFICATIE,B_NUMMERAANDUIDING,OPENBARERUIMTENAAM,B_OPENBARERUIMTE,POSTCODE,B_POSTCODE,HUISNUMMER,B_HUISNUMMER,HUISLETTER,B_HUISLETTER,HUISNUMMERTOEVOEGING,B_HUISNUMMERTOEVOEGING,WOONPLAATSNAAM,B_WOONPLAATSNAAM,x,y
302200000198596,302200000198596,Groen van Prinstererstr,Groen van Prinstererstraat,8072XT,8072XT,18,18.0,,,N001,N001,Nunspeet,Nunspeet,645783.2363266307,6870034.499407546
302200000189154,302200000189154,Groen van Prinstererstr,Groen van Prinstererstraat,8072XT,8072XT,1,1.0,,,,,Nunspeet,Nunspeet,645592.5483811984,6870035.686713649
302200000198575,302200000198575,Groen van Prinstererstr,Groen van Prinstererstraat,8072XT,8072XT,14,14.0,,,G001,G001,Nunspeet,Nunspeet,645746.6870811961,6870023.085125774
302200000198578,302200000198578,Groen van Prinstererstr,Groen van Prinstererstraat,8072XT,8072XT,14,14.0,,,G002,G002,Nunspeet,Nunspeet,645751.4009952373,6870025.362863413
302200000198581,302200000198581,Groen van Prinstererstr,Groen van Prinstererstraat,8072XT,8072XT,14,14.0,,,G003,G003,Nunspeet,Nunspeet,645755.8995909524,6870025.722313169
302200000198584,302200000198584,Groen van Prinstererstr,Groen van Prinstererstraat,8072XT,8072XT,14,14.0,,,G004,G004,Nunspeet,Nunspeet,645760.8146117495,6870027.423530142
302200000189155,302200000189155,Groen van Prinstererstr,Groen van Prinstererstraat,8072XT,8072XT,5,5.0,,,,,Nunspeet,Nunspeet,645624.6920508139,6870045.300787886
302200000198587,302200000198587,Groen van Prinstererstr,Groen van Prinstererstraat,8072XT,8072XT,16,16.0,,,G001,G001,Nunspeet,Nunspeet,645769.2008382082,6870028.527854116
302200000189156,302200000189156,Groen van Prinstererstr,Groen van Prinstererstraat,8072XT,8072XT,6,6.0,,,,,Nunspeet,Nunspeet,645647.774613972,6869998.944767376
302200000198590,302200000198590,Groen van Prinstererstr,Groen van Prinstererstraat,8072XT,8072XT,16,16.0,,,G002,G002,Nunspeet,Nunspeet,645773.62269712,6870033.208702998
302200000189157,302200000189157,Groen van Prinstererstr,Groen van Prinstererstraat,8072XT,8072XT,7,7.0,,,,,Nunspeet,Nunspeet,645634.9438430883,6870047.538772896
302200000198593,302200000198593,Groen van Prinstererstr,Groen van Prinstererstraat,8072XT,8072XT,16,16.0,,,G003,G003,Nunspeet,Nunspeet,645779.947043845,6870031.1562285535
302200000189158,302200000189158,Groen van Prinstererstr,Groen van Prinstererstraat,8072XT,8072XT,8,8.0,,,,,Nunspeet,Nunspeet,645658.0690794807,6870001.220167882
302200000189159,302200000189159,Groen van Prinstererstr,Groen van Prinstererstraat,8072XT,8072XT,9,9.0,,,,,Nunspeet,Nunspeet,645645.2011156077,6870050.452072048
302200000189160,302200000189160,Groen van Prinstererstr,Groen van Prinstererstraat,8072XT,8072XT,10,10.0,,,,,Nunspeet,Nunspeet,645671.4606504627,6870002.958220514
302200000189161,302200000189161,Groen van Prinstererstr,Groen van Prinstererstraat,8072XT,8072XT,11,11.0,,,,,Nunspeet,Nunspeet,645655.1062570881,6870053.549324993
302200000195324,302200000195324,Secretaris v Marleplnts,Secretaris van Marleplantsoen,8071HR,8071HR,22,22.0,,,,,Nunspeet,Nunspeet,643935.0277612185,6869520.3341324655
302200000199322,302200000199322,Secr van Marleplantsoen,Secretaris van Marleplantsoen,8071HR,8071HR,23,23.0,,,,,Nunspeet,Nunspeet,643943.4333624062,6869527.808126762
302200000195325,302200000195325,Secr van Marleplantsoen,Secretaris van Marleplantsoen,8071HR,8071HR,24,24.0,,,,,Nunspeet,Nunspeet,643950.5933426359,6869538.013180381
302200000195326,302200000195326,Secr van Marleplantsoen,Secretaris van Marleplantsoen,8071HR,8071HR,25,25.0,,,,,Nunspeet,Nunspeet,643971.5706943396,6869532.677136214
302200000195327,302200000195327,Secretaris v Marleplnts,Secretaris van Marleplantsoen,8071HR,8071HR,26,26.0,,,,,Nunspeet,Nunspeet,643973.9416026828,6869518.677547636
302200000195328,302200000195328,Secretaris v Marleplnts,Secretaris van Marleplantsoen,8071HR,8071HR,27,27.0,,,,,Nunspeet,Nunspeet,643976.3131679561,6869504.500955298
302200000195329,302200000195329,Secr van Marleplantsoen,Secretaris van Marleplantsoen,8071HR,8071HR,28,28.0,,,,,Nunspeet,Nunspeet,643978.6879394996,6869491.209485468
302200000195330,302200000195330,Secr van Marleplantsoen,Secretaris van Marleplantsoen,8071HR,8071HR,29,29.0,,,,,Nunspeet,Nunspeet,643980.1167893972,6869476.8611080805
302200000195334,302200000195334,Secr van Marleplantsoen,Secretaris van Marleplantsoen,8071HR,8071HR,34,34.0,,,,,Nunspeet,Nunspeet,643887.2077234478,6869380.79529611
302200000195335,302200000195335,Secr van Marleplantsoen,Secretaris van Marleplantsoen,8071HR,8071HR,35,35.0,,,,,Nunspeet,Nunspeet,643889.3108219726,6869371.023012795
302200000195336,302200000195336,Secr van Marleplantsoen,Secretaris van Marleplantsoen,8071HR,8071HR,36,36.0,,,,,Nunspeet,Nunspeet,643894.1828839561,6869358.137666109
302200000195302,302200000195302,Secretaris v Marleplnts,Secretaris van Marleplantsoen,8071HP,8071HP,1,1.0,,,,,Nunspeet,Nunspeet,643877.7169194123,6869418.82177976
302200000195304,302200000195304,Secr van Marleplantsoen,Secretaris van Marleplantsoen,8071HP,8071HP,2,2.0,,,,,Nunspeet,Nunspeet,643890.1038595623,6869421.5680322945
302200000195305,302200000195305,Secr van Marleplantsoen,Secretaris van Marleplantsoen,8071HP,8071HP,3,3.0,,,,,Nunspeet,Nunspeet,643901.4316957224,6869424.080781499
302200000195306,302200000195306,Secr van Marleplantsoen,Secretaris van Marleplantsoen,8071HP,8071HP,4,4.0,,,,,Nunspeet,Nunspeet,643912.4160053002,6869428.352510161
302200000195308,302200000195308,Secr van Marleplantsoen,Secretaris van Marleplantsoen,8071HP,8071HP,6,6.0,,,,,Nunspeet,Nunspeet,643936.3831294092,6869435.496623333
302200000195309,302200000195309,Secr van Marleplantsoen,Secretaris van Marleplantsoen,8071HP,8071HP,7,7.0,,,,,Nunspeet,Nunspeet,643874.5721476054,6869429.462002244
302200000195310,302200000195310,Secr van Marleplantsoen,Secretaris van Marleplantsoen,8071HP,8071HP,8,8.0,,,,,Nunspeet,Nunspeet,643870.8431387644,6869437.012477541
302200000195311,302200000195311,Secretaris v Marleplnts,Secretaris van Marleplantsoen,8071HP,8071HP,9,9.0,,,,,Nunspeet,Nunspeet,643868.294019932,6869448.647658296
302200000195312,302200000195312,Secr van Marleplantsoen,Secretaris van Marleplantsoen,8071HP,8071HP,10,10.0,,,,,Nunspeet,Nunspeet,643879.5185124057,6869465.747342373
302200000195313,302200000195313,Secr van Marleplantsoen,Secretaris van Marleplantsoen,8071HP,8071HP,11,11.0,,,,,Nunspeet,Nunspeet,643887.6886425057,6869472.039207642
302200000195314,302200000195314,Secretaris v Marleplnts,Secretaris van Marleplantsoen,8071HP,8071HP,12,12.0,,,,,Nunspeet,Nunspeet,643898.6647319772,6869481.374210349
302200000195315,302200000195315,Secr van Marleplantsoen,Secretaris van Marleplantsoen,8071HP,8071HP,13,13.0,,,,,Nunspeet,Nunspeet,643908.2362345601,6869489.187647457
302200000195316,302200000195316,Secr van Marleplantsoen,Secretaris van Marleplantsoen,8071HP,8071HP,14,14.0,,,,,Nunspeet,Nunspeet,643916.8819314187,6869497.224172797
302200000195317,302200000195317,Secr van Marleplantsoen,Secretaris van Marleplantsoen,8071HP,8071HP,15,15.0,,,,,Nunspeet,Nunspeet,643925.9903369407,6869505.25815192
302200000195318,302200000195318,Secr van Marleplantsoen,Secretaris van Marleplantsoen,8071HP,8071HP,16,16.0,,,,,Nunspeet,Nunspeet,643920.4357906753,6869509.65856074
302200000195320,302200000195320,Secr van Marleplantsoen,Secretaris van Marleplantsoen,8071HP,8071HP,18,18.0,,,,,Nunspeet,Nunspeet,643901.7685654118,6869496.4319844125
302200000195321,302200000195321,Secretaris v Marleplnts,Secretaris van Marleplantsoen,8071HP,8071HP,19,19.0,,,,,Nunspeet,Nunspeet,643892.1906482447,6869487.744925764
302200000195322,302200000195322,Secr van Marleplantsoen,Secretaris van Marleplantsoen,8071HP,8071HP,20,20.0,,,,,Nunspeet,Nunspeet,643883.5358764558,6869477.743150562
302200000195323,302200000195323,Secr van Marleplantsoen,Secretaris van Marleplantsoen,8071HP,8071HP,21,21.0,,,,,Nunspeet,Nunspeet,643874.6656732731,6869470.799482696
302200000195514,302200000195514,Spoorlaan,Lieve Vrouwenerf,8071BR,8071CA,34,70.0,,,,,Nunspeet,Nunspeet,644029.2935415523,6867865.215152706
302200000195516,302200000195516,Spoorlaan,Lieve Vrouwenerf,8071BR,8071CA,36,68.0,,,,,Nunspeet,Nunspeet,644015.2636254664,6867863.509493768
302200000195814,302200000195814,Stationslaan,Stationslaan,8071CM,8071CM,24,26.0,b,b,,,Nunspeet,Nunspeet,643668.5237838993,6868093.913879305
302200000293482,302200000293482,Merelweg,Merelweg,8075AV,8075AV,17,21.0,,,,,Elspeet,Elspeet,642865.5593003063,6853391.979064236
302200000268728,302200000268728,Weth van der Zandeweg,Wethouder van der Zandeweg,8075DD,8075DD,16,16.0,a,a,N001,N001,Elspeet,Elspeet,644228.514642785,6853394.60688166
302200000197616,302200000197616,Weth van der Zandeweg,Wethouder van der Zandeweg,8075DC,8075DC,7,7.0,,,,,Elspeet,Elspeet,644173.2425809043,6853289.305335708
302200000197614,302200000197614,Weth van der Zandeweg,Wethouder van der Zandeweg,8075DC,8075DC,5,5.0,,,,,Elspeet,Elspeet,644176.7888296943,6853268.927727092
302200000197628,302200000197628,Weth van der Zandeweg,Wethouder van der Zandeweg,8075DC,8075DC,19,19.0,,,,,Elspeet,Elspeet,644135.0989672546,6853444.24186908
302200000197626,302200000197626,Weth van der Zandeweg,Wethouder van der Zandeweg,8075DC,8075DC,17,17.0,,,,,Elspeet,Elspeet,644136.2483559531,6853433.963891452
302200000197623,302200000197623,Weth van der Zandeweg,Wethouder van der Zandeweg,8075DC,8075DC,15,15.0,,,,,Elspeet,Elspeet,644137.0774296969,6853411.125881229
302200000197621,302200000197621,Weth van der Zandeweg,Wethouder van der Zandeweg,8075DC,8075DC,13,13.0,,,,,Elspeet,Elspeet,644138.6476097502,6853401.406721906
302200000197620,302200000197620,Weth van der Zandeweg,Wethouder van der Zandeweg,8075DC,8075DC,11,11.0,,,,,Elspeet,Elspeet,644139.4519547985,6853382.681487804
302200000197619,302200000197619,Weth van der Zandeweg,Wethouder van der Zandeweg,8075DC,8075DC,9,9.0,,,,,Elspeet,Elspeet,644141.5170150119,6853371.266516642
302200000197638,302200000197638,Weth van der Zandeweg,Wethouder van der Zandeweg,8075DD,8075DD,30,30.0,,,,,Elspeet,Elspeet,644186.7060390454,6853497.831013579
302200000197636,302200000197636,Weth van der Zandeweg,Wethouder van der Zandeweg,8075DD,8075DD,28,28.0,,,,,Elspeet,Elspeet,644191.8976802379,6853475.470909175
302200000197634,302200000197634,Weth van der Zandeweg,Wethouder van der Zandeweg,8075DD,8075DD,26,26.0,,,,,Elspeet,Elspeet,644193.4419860665,6853464.914236792
302200000197632,302200000197632,Weth van der Zandeweg,Wethouder van der Zandeweg,8075DD,8075DD,24,24.0,,,,,Elspeet,Elspeet,644195.7278166466,6853441.142173923
302200000197630,302200000197630,Weth van der Zandeweg,Wethouder van der Zandeweg,8075DD,8075DD,22,22.0,,,,,Elspeet,Elspeet,644196.8123416005,6853430.359066578
302200000197629,302200000197629,Weth van der Zandeweg,Wethouder van der Zandeweg,8075DD,8075DD,20,20.0,,,,,Elspeet,Elspeet,644198.8126151197,6853409.852232022
302200000197627,302200000197627,Weth van der Zandeweg,Wethouder van der Zandeweg,8075DD,8075DD,18,18.0,,,,,Elspeet,Elspeet,644199.6699452675,6853399.297807169
302200000197624,302200000197624,Weth van der Zandeweg,Wethouder van der Zandeweg,8075DD,8075DD,16,16.0,,,,,Elspeet,Elspeet,644204.2091393146,6853371.36820821
302200000197622,302200000197622,Weth van der Zandeweg,Wethouder van der Zandeweg,8075DD,8075DD,14,14.0,,,,,Elspeet,Elspeet,644205.8715949756,6853359.456527438
302200000197618,302200000197618,Weth van der Zandeweg,Wethouder van der Zandeweg,8075DD,8075DD,8,8.0,,,,,Elspeet,Elspeet,644220.112383164,6853299.991537152
302200000268709,302200000268709,Weth van der Zandeweg,Wethouder van der Zandeweg,8075DD,8075DD,6,6.0,,,,,Elspeet,Elspeet,644221.9341806103,6853277.907429115
302200000197642,302200000197642,Weth van der Zandeweg,Wethouder van der Zandeweg,8075DD,8075DD,34,34.0,,,,,Elspeet,Elspeet,644151.9908594731,6853551.091079625
302200000197640,302200000197640,Weth van der Zandeweg,Wethouder van der Zandeweg,8075DD,8075DD,32,32.0,,,,,Elspeet,Elspeet,644166.4148501437,6853527.181358283
302200000197631,302200000197631,Weth van der Zandeweg,Wethouder van der Zandeweg,8075DC,8075DC,23,23.0,,,,,Elspeet,Elspeet,644116.4783626954,6853496.116907666
302200000195303,302200000195303,Secr van Marleplantsoen,Secretaris van Marleplantsoen,8071HP,8071HP,1,1.0,a,a,,,Nunspeet,Nunspeet,643847.8616566218,6869384.020771423
302200000195331,302200000195331,Secretaris v Marleplnts,Secretaris van Marleplantsoen,8071HR,8071HR,30,30.0,,,,,Nunspeet,Nunspeet,643982.7111330789,6869462.765314835
302200000195332,302200000195332,Secr van Marleplantsoen,Secretaris van Marleplantsoen,8071HR,8071HR,31,31.0,,,,,Nunspeet,Nunspeet,643980.2285890297,6869431.3198322365
302200000195333,302200000195333,Secr van Marleplantsoen,Secretaris van Marleplantsoen,8071HR,8071HR,32,32.0,,,,,Nunspeet,Nunspeet,643968.3546188906,6869427.013754218
302200000197648,302200000197648,Weth van der Zandeweg,Wethouder van der Zandeweg,8075DD,8075DD,46,46.0,,,,,Elspeet,Elspeet,644048.9545657366,6853725.58314172
302200000197637,302200000197637,Weth van der Zandeweg,Wethouder van der Zandeweg,8075DC,8075DC,29,29.0,,,,,Elspeet,Elspeet,644092.9858770053,6853552.010693944
302200000197633,302200000197633,Weth van der Zandeweg,Wethouder van der Zandeweg,8075DC,8075DC,25,25.0,,,,,Elspeet,Elspeet,644106.4330926581,6853521.057428357
302200000197649,302200000197649,Weth van der Zandeweg,Wethouder van der Zandeweg,8075DD,8075DD,48,48.0,,,,,Elspeet,Elspeet,644044.4082076916,6853733.5948047675
302200000197639,302200000197639,Weth van der Zandeweg,Wethouder van der Zandeweg,8075DC,8075DC,31,31.0,,,,,Elspeet,Elspeet,644087.6475131661,6853561.672291029
302200000197635,302200000197635,Weth van der Zandeweg,Wethouder van der Zandeweg,8075DC,8075DC,27,27.0,,,,,Elspeet,Elspeet,644102.525294916,6853531.512688295
302200000197641,302200000197641,Weth van der Zandeweg,Wethouder van der Zandeweg,8075DC,8075DC,33,33.0,,,,,Elspeet,Elspeet,644077.3087948869,6853581.044357383
302200000197643,302200000197643,Weth van der Zandeweg,Wethouder van der Zandeweg,8075DC,8075DC,35,35.0,,,,,Elspeet,Elspeet,644071.3887124816,6853591.756163158
302200000197645,302200000197645,Weth van der Zandeweg,Wethouder van der Zandeweg,8075DC,8075DC,39,39.0,,,,,Elspeet,Elspeet,644054.2137142447,6853618.7483928315
302200000197650,302200000197650,Weth van der Zandeweg,Wethouder van der Zandeweg,8075DD,8075DD,50,50.0,,,,,Elspeet,Elspeet,644026.132889638,6853753.428116693
302200000197651,302200000197651,Weth van der Zandeweg,Wethouder van der Zandeweg,8075DD,8075DD,52,52.0,,,,,Elspeet,Elspeet,644019.6404879945,6853759.791676316
302200000197652,302200000197652,Weth van der Zandeweg,Wethouder van der Zandeweg,8075DD,8075DD,54,54.0,,,,,Elspeet,Elspeet,644001.4561649063,6853773.0234843725
302200000197653,302200000197653,Weth van der Zandeweg,Wethouder van der Zandeweg,8075DD,8075DD,56,56.0,,,,,Elspeet,Elspeet,643994.2227116422,6853776.973202153
302200000197654,302200000197654,Weth van der Zandeweg,Wethouder van der Zandeweg,8075DD,8075DD,58,58.0,,,,,Elspeet,Elspeet,643974.4963408745,6853785.15841086
302200000197644,302200000197644,Weth van der Zandeweg,Wethouder van der Zandeweg,8075DC,8075DC,37,37.0,,,,,Elspeet,Elspeet,644060.0507146772,6853608.946585167
302200000197655,302200000197655,Weth van der Zandeweg,Wethouder van der Zandeweg,8075DD,8075DD,60,60.0,,,,,Elspeet,Elspeet,643966.7425276208,6853787.0611399505
302200000197646,302200000197646,Weth van der Zandeweg,Wethouder van der Zandeweg,8075DD,8075DD,42,42.0,,,,,Elspeet,Elspeet,644065.4171916052,6853701.058197359
302200000197647,302200000197647,Weth van der Zandeweg,Wethouder van der Zandeweg,8075DD,8075DD,44,44.0,,,,,Elspeet,Elspeet,644060.3757097962,6853708.344589204
302200000294707,302200000294707,Staverdenseweg,Staverdenseweg,8075RG,8075RG,220,220.0,,,0064,0065,Elspeet,Elspeet,640233.461236733,6852663.474841528
302200000293410,302200000293410,Ds. Martiniuslaan,Ds. Martiniuslaan,8071GW,8071GW,4,4.0,c,a,,,Nunspeet,Nunspeet,643944.5806157647,6868462.224685713
302200000294443,302200000294443,Kerkpad,Torenpad,8071GH,8071GH,3,3.0,a,a,,,Nunspeet,Nunspeet,644015.4456491993,6868468.509687575
302200000296439,302200000296439,Apeldoornseweg,Apeldoornseweg,8075BM,8075BM,25,25.0,a,b,,,Elspeet,Elspeet,644619.6307439092,6853019.944228326
302200000296438,302200000296438,Apeldoornseweg,Apeldoornseweg,8075BM,8075BM,25,25.0,b,a,,,Elspeet,Elspeet,644609.572917847,6853013.151340056
302200000195307,302200000195307,Secr van Marleplantsoen,Secretaris van Marleplantsoen,8071HP,8071HP,5,5.0,,,,,Nunspeet,Nunspeet,643923.9123729839,6869430.885611408
302200000195319,302200000195319,Secr van Marleplantsoen,Secretaris van Marleplantsoen,8071HP,8071HP,17,17.0,,,,,Nunspeet,Nunspeet,643912.2608176144,6869502.493082269
302200000297075,302200000297075,Harderwijkerweg,Harderwijkerweg,8077RE,8077RE,303,303.0,a,,0001,001b,Hulshorst,Hulshorst,639725.8325337655,6866996.741152704
302200000297414,302200000297414,Remvang,Vangstok,8071MS,8071MS,9,9.0,,,,,Nunspeet,Nunspeet,644513.4201390374,6870799.980349616
302200000297415,302200000297415,Remvang,Vangstok,8071MS,8071MS,11,11.0,,,,,Nunspeet,Nunspeet,644514.7469477962,6870792.423665981
302200000297412,302200000297412,Remvang,Vangstok,8071MS,8071MS,5,5.0,,,,,Nunspeet,Nunspeet,644508.8185403867,6870813.847195366
302200000297413,302200000297413,Remvang,Vangstok,8071MS,8071MS,7,7.0,,,,,Nunspeet,Nunspeet,644513.1183426885,6870807.18869901
302200000297410,302200000297410,Remvang,Vangstok,8071MS,8071MS,1,1.0,,,,,Nunspeet,Nunspeet,644503.8830461899,6870829.432347535
302200000297411,302200000297411,Remvang,Vangstok,8071MS,8071MS,3,3.0,,,,,Nunspeet,Nunspeet,644506.5789085178,6870821.638496922
