BAGNUMIDENTIFICATIE,B_NUMMERAANDUIDING,OPENBARERUIMTENAAM,B_OPENBARERUIMTE,POSTCODE,B_POSTCODE,HUISNUMMER,B_HUISNUMMER,HUISLETTER,B_HUISLETTER,HUISNUMMERTOEVOEGING,B_HUISNUMMERTOEVOEGING,WOONPLAATSNAAM,B_WOONPLAATSNAAM,x,y
363200012107075,363200012107075,Narva-eiland,Narva-eiland,1014ZJ,1014ZJ,112,34.0,,,,,Amsterdam,Amsterdam,543270.8280688482,6871391.798877943
363200012107078,363200012107078,Narva-eiland,Narva-eiland,1014ZJ,1014ZJ,118,28.0,,,,,Amsterdam,Amsterdam,543257.4520999269,6871380.095777797
363200012107086,363200012107086,Narva-eiland,Narva-eiland,1014ZJ,1014ZJ,134,12.0,,,,,Amsterdam,Amsterdam,543248.1197095528,6871363.584538682
363200012107077,363200012107077,Narva-eiland,Narva-eiland,1014ZJ,1014ZJ,116,30.0,,,,,Amsterdam,Amsterdam,543263.1545145685,6871385.278878505
363200012107018,363200012107018,Narva-eiland,Narva-eiland,1014ZJ,1014ZJ,6,124.0,,,,,Amsterdam,Amsterdam,543421.0392961132,6871513.474662633
363200012107021,363200012107021,Narva-eiland,Narva-eiland,1014ZJ,1014ZJ,12,130.0,,,,,Amsterdam,Amsterdam,543432.1824259761,6871522.258467695
363200012107068,363200012107068,Narva-eiland,Narva-eiland,1014ZJ,1014ZJ,106,40.0,,,,,Amsterdam,Amsterdam,543295.841160208,6871410.592427921
363200012107065,363200012107065,Narva-eiland,Narva-eiland,1014ZJ,1014ZJ,100,46.0,,,,,Amsterdam,Amsterdam,543302.9950647764,6871416.826779277
363200012093589,363200012093589,Pontsteiger,Pontsteiger,1014ZP,1014ZP,294,244.0,,,,,Amsterdam,Amsterdam,543914.9790543967,6871487.25224899
363200012093421,363200012093421,Pontsteiger,Pontsteiger,1014ZP,1014ZP,291,245.0,,,,,Amsterdam,Amsterdam,543882.7461069762,6871528.328241033
363200000208656,363200000208656,Nassaukade,Nassaukade,1052CP,1052CP,58,58.0,,,O,H,Amsterdam,Amsterdam,543120.0449270444,6869303.10555604
363200012093363,363200012093363,Pontsteiger,Pontsteiger,1014ZP,1014ZP,265,221.0,,,,,Amsterdam,Amsterdam,543863.0915381893,6871548.235088614
363200012093638,363200012093638,Pontsteiger,Pontsteiger,,,368,318.0,,,,,Amsterdam,Amsterdam,543874.7562097915,6871403.61082429
363200000071083,363200000071083,Coppelstockstraat,Bestevaerstraat,1056XL,1056HR,57,96.0,,,,H,Amsterdam,Amsterdam,540942.2300940785,6868407.361179145
363200012093420,363200012093420,Pontsteiger,Pontsteiger,1014ZP,1014ZP,289,243.0,,,,,Amsterdam,Amsterdam,543872.2948725909,6871540.5390635375
363200012093584,363200012093584,Pontsteiger,Pontsteiger,1014ZP,1014ZP,284,236.0,,,,,Amsterdam,Amsterdam,543911.7041721663,6871490.44791508
363200012093607,363200012093607,Pontsteiger,Pontsteiger,1014ZP,1014ZP,326,276.0,,,,,Amsterdam,Amsterdam,543906.8352904206,6871487.877821141
363200012093452,363200012093452,Pontsteiger,Pontsteiger,1014ZP,1014ZP,353,307.0,,,,,Amsterdam,Amsterdam,543895.2262553882,6871517.86447143
363200012093463,363200012093463,Pontsteiger,Pontsteiger,1014ZP,1014ZP,375,329.0,,,,,Amsterdam,Amsterdam,543900.014276956,6871507.032565925
363200012093588,363200012093588,Pontsteiger,Pontsteiger,1014ZP,1014ZP,292,229.0,,,,,Amsterdam,Amsterdam,543914.2570484667,6871487.8407482505
363200012066930,363200012066930,De entree,De entree,1101CE,1101EE,500,500.0,,,,,Amsterdam,Amsterdam,550054.0545296842,6856241.893345557
363200012093424,363200012093424,Pontsteiger,Pontsteiger,1014ZP,1014ZP,297,251.0,,,,,Amsterdam,Amsterdam,543886.3624267069,6871505.049149225
363200012093429,363200012093429,Pontsteiger,Pontsteiger,1014ZP,1014ZP,307,261.0,,,,,Amsterdam,Amsterdam,543854.454051384,6871553.798729577
363200012093616,363200012093616,Pontsteiger,Pontsteiger,1014ZP,1014ZP,344,294.0,,,,,Amsterdam,Amsterdam,543906.7774540769,6871486.305123387
363200012093626,363200012093626,Pontsteiger,Pontsteiger,1014ZP,1014ZP,364,314.0,,,,,Amsterdam,Amsterdam,543907.4383467851,6871483.907814503
363200012093598,363200012093598,Pontsteiger,Pontsteiger,1014ZP,1014ZP,312,262.0,,,,,Amsterdam,Amsterdam,543908.4205389239,6871488.985650499
363200012093461,363200012093461,Pontsteiger,Pontsteiger,1014ZP,1014ZP,371,325.0,,,,,Amsterdam,Amsterdam,543880.3906648853,6871528.154505924
363200012093627,363200012093627,Pontsteiger,Pontsteiger,1014ZP,1014ZP,366,316.0,,,,,Amsterdam,Amsterdam,543907.856277846,6871483.540181838
363200012093416,363200012093416,Pontsteiger,Pontsteiger,1014ZP,1014ZP,281,235.0,,,,,Amsterdam,Amsterdam,543862.8052689232,6871527.402909193
363200012093619,363200012093619,Pontsteiger,Pontsteiger,1014ZP,1014ZP,350,300.0,,,,,Amsterdam,Amsterdam,543908.007814789,6871485.0430295775
363200012093451,363200012093451,Pontsteiger,Pontsteiger,1014ZP,1014ZP,351,305.0,,,,,Amsterdam,Amsterdam,543887.3103123958,6871526.943353187
363200012093412,363200012093412,Pontsteiger,Pontsteiger,1014ZP,1014ZP,273,225.0,,,,,Amsterdam,Amsterdam,543884.9141644733,6871529.349949714
363200012093419,363200012093419,Pontsteiger,Pontsteiger,1014ZP,1014ZP,287,241.0,,,,,Amsterdam,Amsterdam,543854.2796557385,6871556.317477755
363200012093464,363200012093464,Pontsteiger,Pontsteiger,1014ZP,1014ZP,377,331.0,,,,,Amsterdam,Amsterdam,543888.7129680932,6871505.695030068
363200012093592,363200012093592,Pontsteiger,Pontsteiger,1014ZP,1014ZP,300,250.0,,,,,Amsterdam,Amsterdam,543910.0230489649,6871489.250887449
363200012093608,363200012093608,Pontsteiger,Pontsteiger,1014ZP,1014ZP,328,278.0,,,,,Amsterdam,Amsterdam,543907.2304853939,6871487.487077431
363200012127324,363200012127324,Govert Flinckstraat,Govert Flinckstraat,1078AZ,1073CG,276,276.0,,,3,3,Amsterdam,Amsterdam,545113.0125423266,6864707.701196385
363200012093583,363200012093583,Pontsteiger,Pontsteiger,1014ZP,1014ZP,282,234.0,,,,,Amsterdam,Amsterdam,543910.9801184898,6871491.333152794
363200012093442,363200012093442,Pontsteiger,Pontsteiger,1014ZP,1014ZP,333,287.0,,,,,Amsterdam,Amsterdam,543892.7371936422,6871514.540290162
363200012093596,363200012093596,Pontsteiger,Pontsteiger,1014ZP,1014ZP,308,258.0,,,,,Amsterdam,Amsterdam,543912.3640964325,6871486.768495602
363200012093586,363200012093586,Pontsteiger,Pontsteiger,1014ZP,1014ZP,288,240.0,,,,,Amsterdam,Amsterdam,543913.0231235672,6871489.14544619
363200012093433,363200012093433,Pontsteiger,Pontsteiger,1014ZP,1014ZP,315,269.0,,,,,Amsterdam,Amsterdam,543900.9703499905,6871504.993074492
363200012093469,363200012093469,Pontsteiger,Pontsteiger,1014ZP,1014ZP,387,341.0,,,,,Amsterdam,Amsterdam,543852.562522194,6871554.88736514
363200012093418,363200012093418,Pontsteiger,Pontsteiger,1014ZP,1014ZP,285,239.0,,,,,Amsterdam,Amsterdam,543842.8446821249,6871551.829404113
363200012093437,363200012093437,Pontsteiger,Pontsteiger,1014ZP,1014ZP,323,277.0,,,,,Amsterdam,Amsterdam,543853.9445997514,6871536.632607361
363200012108531,363200012108531,Kolksteeg,Kolksteeg,1012PT,1012PT,2,2.0,E,D,,,Amsterdam,Amsterdam,544972.4160346434,6868431.414129078
363200012093591,363200012093591,Pontsteiger,Pontsteiger,1014ZP,1014ZP,298,248.0,,,,,Amsterdam,Amsterdam,543909.4260923294,6871489.966496339
363200012093449,363200012093449,Pontsteiger,Pontsteiger,1014ZP,1014ZP,347,301.0,,,,,Amsterdam,Amsterdam,543856.1880482705,6871553.02379015
363200012093459,363200012093459,Pontsteiger,Pontsteiger,1014ZP,1014ZP,367,321.0,,,,,Amsterdam,Amsterdam,543856.3178579292,6871556.96120419
363200012102634,363200012102634,George Gershwinlaan,Parnassusweg,,1082LZ,925,925.0,,,,,Amsterdam,Amsterdam,542057.3782478205,6861079.573468982
363200012093602,363200012093602,Pontsteiger,Pontsteiger,1014ZP,1014ZP,320,270.0,,,,,Amsterdam,Amsterdam,543910.5061806118,6871486.5441157175
363200012093422,363200012093422,Pontsteiger,Pontsteiger,1014ZP,1014ZP,293,247.0,,,,,Amsterdam,Amsterdam,543891.622478092,6871516.580322178
363200000481863,363200000481863,Albert Cuypstraat,Albert Cuypstraat,1073BJ,1073BJ,148,148.0,E,H,,,Amsterdam,Amsterdam,544814.2754760219,6864667.744745167
363200012093438,363200012093438,Pontsteiger,Pontsteiger,1014ZP,1014ZP,325,279.0,,,,,Amsterdam,Amsterdam,543845.2012173944,6871551.845763403
363200012093444,363200012093444,Pontsteiger,Pontsteiger,1014ZP,1014ZP,337,291.0,,,,,Amsterdam,Amsterdam,543888.2582960592,6871503.329327277
363200012093443,363200012093443,Pontsteiger,Pontsteiger,1014ZP,1014ZP,335,289.0,,,,,Amsterdam,Amsterdam,543903.3263223931,6871504.852018848
363200012093427,363200012093427,Pontsteiger,Pontsteiger,1014ZP,1014ZP,303,257.0,,,,,Amsterdam,Amsterdam,543854.872427998,6871538.685177119
363200000229823,363200000229823,Overtoom,Derde Kostverlorenkade,1054LN,1054TS,578,42.0,,,,H,Amsterdam,Amsterdam,540534.729141433,6865115.77172907
363200012093441,363200012093441,Pontsteiger,Pontsteiger,1014ZP,1014ZP,331,285.0,,,,,Amsterdam,Amsterdam,543886.9822048784,6871528.987204607
363200012087544,363200012087544,Welnastraat,Amstelbestpad,1096GJ,1096GC,400,6.0,B,B,,,Amsterdam,Amsterdam,547553.083535493,6861866.600820234
363200012093413,363200012093413,Pontsteiger,Pontsteiger,1014ZP,1014ZP,275,227.0,,,,,Amsterdam,Amsterdam,543893.1809945882,6871518.481502248
363200012093415,363200012093415,Pontsteiger,Pontsteiger,1014ZP,1014ZP,279,233.0,,,,,Amsterdam,Amsterdam,543871.3676826928,6871515.652835113
363200012101423,363200012101423,John Blankensteinstraat,John Blankensteinstraat,1095MB,1095MB,1,1.0,A,B,,,Amsterdam,Amsterdam,552671.2178108164,6868368.545218966
363200012093414,363200012093414,Pontsteiger,Pontsteiger,1014ZP,1014ZP,277,231.0,,,,,Amsterdam,Amsterdam,543884.1672427737,6871504.404345474
363200012087546,363200012087546,Welnastraat,Amstelbestpad,1096GJ,1096GC,400,6.0,D,D,,,Amsterdam,Amsterdam,547552.2553348771,6861867.112927833
363200000521304,363200000521304,Arent Janszoon Ernststraat,Buitenveldertselaan,1082LN,1082VB,867,101.0,,,,,Amsterdam,Amsterdam,542049.1461994814,6860360.893955267
363200000509593,363200000509593,Van Bossestraat,Van Bossestraat,1051JZ,1051JZ,26,26.0,,,Z,4,Amsterdam,Amsterdam,541952.0201802403,6869394.79203978
363200000048250,363200000048250,Bilderdijkstraat,Bilderdijkstraat,1052NA,1052NA,15,15.0,,,Z,4,Amsterdam,Amsterdam,542268.3926573051,6867667.993152046
363200000172484,363200000172484,Kromme-Mijdrechtstraat,Kromme-Mijdrechtstraat,1078RN,1078RN,4,4.0,,,Z,4,Amsterdam,Amsterdam,546357.1377537702,6863130.222633686
363200012095836,363200012095836,President Kennedyplantsoen,President Kennedyplantsoen,1097SK,1079SK,7,7.0,,,,,Amsterdam,Amsterdam,545515.2167835506,6862004.102798057
363200012087547,363200012087547,Welnastraat,Amstelbestpad,1096GJ,1096GC,400,6.0,E,E,,,Amsterdam,Amsterdam,547551.7381550131,6861867.522245718
363200012095835,363200012095835,President Kennedyplantsoen,President Kennedyplantsoen,1097SK,1079SK,5,5.0,,,,,Amsterdam,Amsterdam,545505.0799825677,6862004.735445253
363200000439185,363200000439185,Marie van Westerhovenstraat,Marie van Westerhovenstraat,1065GV,1065GV,30,28.0,,,,,Amsterdam,Amsterdam,537145.7697228544,6864241.582180684
363200012087543,363200012087543,Welnastraat,Amstelbestpad,1096GJ,1096GC,400,6.0,A,A,,,Amsterdam,Amsterdam,547553.6438880315,6861866.335888485
363200012095838,363200012095838,President Kennedyplantsoen,President Kennedyplantsoen,1097SK,1079SK,11,11.0,,,,,Amsterdam,Amsterdam,545538.9854283965,6862002.687398552
363200000042049,363200000042049,Beethovenstraat,Beethovenstraat,1077JT,1077JT,146,146.0,,,ZA,4A,Amsterdam,Amsterdam,542838.4086449235,6862853.910880243
363200012095837,363200012095837,President Kennedyplantsoen,President Kennedyplantsoen,1097SK,1079SK,9,9.0,,,,,Amsterdam,Amsterdam,545527.6263836697,6862003.134988315
363200000413621,363200000413621,Osdorperweg,Osdorperweg,1067TD,1067TD,852,850.0,A,A,,,Amsterdam,Amsterdam,530611.0700107598,6868700.603809509
363200012103686,363200012103686,Jan Tooropstraat,Jan Tooropstraat,1062BM,1062BM,30,26.0,,B,,,Amsterdam,Amsterdam,538432.4192366564,6865795.780025667
363200012103689,363200012103689,Jan Tooropstraat,Jan Tooropstraat,1062BM,1062BM,36,30.0,,A,,,Amsterdam,Amsterdam,538434.5624519086,6865838.191034117
363200012095834,363200012095834,President Kennedyplantsoen,President Kennedyplantsoen,1097SK,1079SK,13,13.0,,,,,Amsterdam,Amsterdam,545548.2593613716,6862000.64711577
363200012103697,363200012103697,Jan Tooropstraat,Jan Tooropstraat,1062BN,1062BM,52,38.0,,A,,,Amsterdam,Amsterdam,538434.6566463204,6865786.7057238845
363200012103692,363200012103692,Jan Tooropstraat,Jan Tooropstraat,1062BN,1062BM,42,32.0,,B,,,Amsterdam,Amsterdam,538433.994711954,6865795.990263434
363200012103695,363200012103695,Jan Tooropstraat,Jan Tooropstraat,1062BN,1062BM,48,36.0,,A,,,Amsterdam,Amsterdam,538435.8429056494,6865838.299085177
363200012103698,363200012103698,Jan Tooropstraat,Jan Tooropstraat,1062BN,1062BM,54,38.0,,B,,,Amsterdam,Amsterdam,538435.0805598221,6865795.8985891985
363200012103701,363200012103701,Jan Tooropstraat,Jan Tooropstraat,1062BN,1062BN,60,42.0,,A,,,Amsterdam,Amsterdam,538436.9265006586,6865838.505578775
363200012103693,363200012103693,Jan Tooropstraat,Jan Tooropstraat,1062BN,1062BM,44,34.0,,A,,,Amsterdam,Amsterdam,538433.4197403562,6865806.9548117025
363200012103694,363200012103694,Jan Tooropstraat,Jan Tooropstraat,1062BN,1062BM,46,34.0,,B,,,Amsterdam,Amsterdam,538432.9278510769,6865819.89589265
363200012103702,363200012103702,Jan Tooropstraat,Jan Tooropstraat,1062BN,1062BN,62,42.0,,B,,,Amsterdam,Amsterdam,538436.9774080581,6865844.730186511
363200012110329,363200012110329,Oostelijke Handelskade,Oostelijke Handelskade,1019CZ,1019BW,1001,1001.0,,,,,Amsterdam,Amsterdam,549374.8257351839,6868121.912801376
363200012076694,363200012076694,Haarlemmerweg,Haarlemmerweg,1054LH,1051LH,339,339.0,,,,,Amsterdam,Amsterdam,541326.5678808461,6870052.79031478
363200012103696,363200012103696,Jan Tooropstraat,Jan Tooropstraat,1062BN,1062BM,50,36.0,,B,,,Amsterdam,Amsterdam,538435.8946894063,6865844.623640896
363200012103688,363200012103688,Jan Tooropstraat,Jan Tooropstraat,1062BM,1062BM,34,28.0,,B,,,Amsterdam,Amsterdam,538431.6480124107,6865819.491299366
363200001963235,363200001963235,Lange Stammerdijk,Lange Stammerdijk,1109BK,1109BK,3,3.0,B,B,2,1,Amsterdam,Amsterdam,558394.2971912085,6855464.27767168
363200012103655,363200012103655,Jan Tooropstraat,Jan Tooropstraat,1062BN,1062BN,64,44.0,,,,,Amsterdam,Amsterdam,538429.8101596792,6865845.717633332
363200012103690,363200012103690,Jan Tooropstraat,Jan Tooropstraat,1062BM,1062BM,38,30.0,,B,,,Amsterdam,Amsterdam,538434.615736266,6865844.317356669
363200012103684,363200012103684,Jan Tooropstraat,Jan Tooropstraat,1062BM,1062BM,26,24.0,,B,,,Amsterdam,Amsterdam,538433.4814436432,6865844.115391804
363200012103691,363200012103691,Jan Tooropstraat,Jan Tooropstraat,1062BN,1062BM,40,32.0,,A,,,Amsterdam,Amsterdam,538433.5739354677,6865786.5991787305
363200000508765,363200000508765,Louwesweg,Louwesweg,1066EA,1066EA,9,401.0,,,,,Amsterdam,Amsterdam,536861.6394032801,6862956.866878951
363200012111822,363200012111822,Dam,Dam,1012JS,1012JS,5,5.0,U,W,,,Amsterdam,Amsterdam,544830.7331787482,6867872.433061877
363200012090305,363200012090305,Midwoudpad,Midwoudpad,1024MC,1024MC,63,71.0,,,,,Amsterdam,Amsterdam,552113.0501065219,6871341.370217318
363200012090307,363200012090307,Midwoudpad,Midwoudpad,1024MC,1024MC,67,75.0,,,,,Amsterdam,Amsterdam,552119.7253630073,6871325.02966357
363200012103687,363200012103687,Jan Tooropstraat,Jan Tooropstraat,1062BM,1062BM,32,28.0,,A,,,Amsterdam,Amsterdam,538432.2365975023,6865806.945804112
363200012103700,363200012103700,Jan Tooropstraat,Jan Tooropstraat,1062BN,1062BN,58,40.0,,B,,,Amsterdam,Amsterdam,538434.109361649,6865819.904887719
363200012111823,363200012111823,Dam,Dam,1012JS,1012JS,5,5.0,V,Y,,,Amsterdam,Amsterdam,544831.6915484172,6867873.812899919
363200012090303,363200012090303,Midwoudpad,Midwoudpad,1024MC,1024MC,73,65.0,,,,,Amsterdam,Amsterdam,552098.9208129188,6871370.20548389
363200012090304,363200012090304,Midwoudpad,Midwoudpad,1024MC,1024MC,75,67.0,,,,,Amsterdam,Amsterdam,552102.6312633055,6871363.020256525
363200000031025,363200000031025,Amstelveenseweg,Amstelveenseweg,1075VW,1075VW,77,77.0,,,Z,4,Amsterdam,Amsterdam,540580.1244933777,6864270.819884439
363200012103699,363200012103699,Jan Tooropstraat,Jan Tooropstraat,1062BN,1062BN,56,40.0,,A,,,Amsterdam,Amsterdam,538434.5009523355,6865807.259589329
363200000411507,363200000411507,Warmoesstraat,Warmoesstraat,1012JH,1012JH,90,90.0,F,D,,,Amsterdam,Amsterdam,545125.7163001901,6868156.574171699
363200000384633,363200000384633,mt. Ondinaweg,NDSM-kade,1033RE,1033PG,15,7.0,,,,,Amsterdam,Amsterdam,544439.8687223913,6873073.191940171
363200012103685,363200012103685,Jan Tooropstraat,Jan Tooropstraat,1062BM,1062BM,28,26.0,,A,,,Amsterdam,Amsterdam,538432.293502354,6865786.489489742
363200000048851,363200000048851,Bilderdijkstraat,Jacob van Lennepstraat,1053KS,1053HL,203,66.0,,A,H,,Amsterdam,Amsterdam,542467.5412623576,6866632.240728793
363200012090306,363200012090306,Midwoudpad,Midwoudpad,1024MC,1024MC,65,73.0,,,,,Amsterdam,Amsterdam,552116.4531188052,6871332.510923053
363200012090302,363200012090302,Midwoudpad,Midwoudpad,1024MC,1024MC,71,63.0,,,,,Amsterdam,Amsterdam,552095.3445551046,6871379.596620539
363200000519062,363200000519062,Van Woustraat,Van Woustraat,1074AN,1074AN,197,199.0,,,H,H,Amsterdam,Amsterdam,545876.8858066165,6863857.530003237
363200000111668,363200000111668,Govert Flinckstraat,Govert Flinckstraat,1074CG,1074CG,352,352.0,,,Z,3,Amsterdam,Amsterdam,545580.5041903281,6864931.764141475
363200012104540,363200012104540,Kolksteeg,Kolksteeg,1012PT,1012PT,2,2.0,C,B,,,Amsterdam,Amsterdam,544971.4218705882,6868429.02932501
363200012098771,363200012098771,Prinsengracht,Prinsengracht,1017LH,1017LH,800,800.0,A,B,,,Amsterdam,Amsterdam,545304.9874827431,6865808.02560425
363200000442564,363200000442564,Prins Hendrikkade,Prins Hendrikkade,1011TC,1011TC,176,176.0,L,D,,9,Amsterdam,Amsterdam,546575.0562787072,6867593.123662895
363200012104541,363200012104541,Kolksteeg,Kolksteeg,1012PT,1012PT,2,2.0,D,E,,,Amsterdam,Amsterdam,544971.6120502041,6868429.43214869
363200000442567,363200000442567,Prins Hendrikkade,Prins Hendrikkade,1011TC,1011TC,176,176.0,R,D,,13,Amsterdam,Amsterdam,546562.2183432564,6867577.141609283
363200000442560,363200000442560,Prins Hendrikkade,Prins Hendrikkade,1011TC,1011TC,176,176.0,F,D,,5,Amsterdam,Amsterdam,546604.0905326217,6867582.402994962
363200000442563,363200000442563,Prins Hendrikkade,Prins Hendrikkade,1011TC,1011TC,176,176.0,K,D,,8,Amsterdam,Amsterdam,546578.2649559116,6867597.1187629765
363200012100824,363200012100824,John Blankensteinstraat,John Blankensteinstraat,1095MA,1095MB,5,5.0,A,A,,,Amsterdam,Amsterdam,552661.8390663959,6868370.520976965
363200000329950,363200000329950,Willem Fenengastraat,Willem Fenengastraat,1096BN,1096BN,12,14.0,A,,,,Amsterdam,Amsterdam,547364.1393045073,6860872.575945348
363200012100853,363200012100853,John Blankensteinstraat,John Blankensteinstraat,1095MA,1095MB,13,13.0,B,B,,,Amsterdam,Amsterdam,552678.391209178,6868396.380947034
363200012100895,363200012100895,John Blankensteinstraat,John Blankensteinstraat,1095MA,1095MB,29,29.0,B,B,,,Amsterdam,Amsterdam,552673.5472005137,6868402.59351981
363200012100934,363200012100934,John Blankensteinstraat,John Blankensteinstraat,1095MA,1095MB,41,41.0,A,A,,,Amsterdam,Amsterdam,552732.4816089616,6868332.962452726
363200000442566,363200000442566,Prins Hendrikkade,Prins Hendrikkade,1011TC,1011TC,176,176.0,P,D,,12,Amsterdam,Amsterdam,546565.42700778,6867581.13670659
363200012097226,363200012097226,Tuin van Hera,Tuin van Hera,1093NP,1093NP,27,25.0,,,,,Amsterdam,Amsterdam,549169.079698025,6865021.956985827
363200000442568,363200000442568,Prins Hendrikkade,Prins Hendrikkade,1011TC,1011TC,176,176.0,S,D,,14,Amsterdam,Amsterdam,546559.0096819025,6867573.146512667
363200012100920,363200012100920,John Blankensteinstraat,John Blankensteinstraat,1095MA,1095MB,35,35.0,G,G,,,Amsterdam,Amsterdam,552746.80137179,6868320.708591245
363200000442557,363200000442557,Prins Hendrikkade,Prins Hendrikkade,1011TC,1011TC,176,176.0,C,D,,2,Amsterdam,Amsterdam,546612.7245623885,6867592.867516934
363200012100842,363200012100842,John Blankensteinstraat,John Blankensteinstraat,1095MA,1095MB,9,9.0,C,C,,,Amsterdam,Amsterdam,552690.0420056961,6868406.272500068
363200012100854,363200012100854,John Blankensteinstraat,John Blankensteinstraat,1095MA,1095MB,13,13.0,C,C,,,Amsterdam,Amsterdam,552688.3674430046,6868408.054021877
363200012100818,363200012100818,John Blankensteinstraat,John Blankensteinstraat,1095MA,1095MB,3,3.0,C,C,,,Amsterdam,Amsterdam,552681.7433669599,6868392.014876985
363200012097217,363200012097217,Tuin van Hera,Tuin van Hera,1093NP,1093NP,25,27.0,,,,,Amsterdam,Amsterdam,549152.3584396153,6865015.864335243
363200012097228,363200012097228,Tuin van Hera,Tuin van Hera,1093NP,1093NP,29,23.0,,,,,Amsterdam,Amsterdam,549185.5486823736,6865028.4149816
363200000531581,363200000531581,tt. Neveritaweg,NDSM-plein,1033WC,1033WB,6,6.0,,,,,Amsterdam,Amsterdam,544734.565556055,6873034.214823582
363200012097227,363200012097227,Tuin van Hera,Tuin van Hera,1093NP,1093NP,28,24.0,,,,,Amsterdam,Amsterdam,549177.4478847774,6865025.3645722205
363200012097216,363200012097216,Tuin van Hera,Tuin van Hera,1093NP,1093NP,24,28.0,,,,,Amsterdam,Amsterdam,549144.8025007539,6865013.751097203
363200012100953,363200012100953,John Blankensteinstraat,John Blankensteinstraat,1095MA,1095MB,47,47.0,D,D,,,Amsterdam,Amsterdam,552762.382084291,6868325.535818426
363200012104539,363200012104539,Kolksteeg,Kolksteeg,1012PT,1012PT,2,2.0,B,C,,,Amsterdam,Amsterdam,544971.1847166979,6868428.562264814
363200012100870,363200012100870,John Blankensteinstraat,John Blankensteinstraat,1095MA,1095MB,19,19.0,B,B,,,Amsterdam,Amsterdam,552676.0335570138,6868398.963165703
363200012100882,363200012100882,John Blankensteinstraat,John Blankensteinstraat,1095MA,1095MB,23,23.0,D,D,,,Amsterdam,Amsterdam,552704.533713461,6868394.001579174
363200012100841,363200012100841,John Blankensteinstraat,John Blankensteinstraat,1095MA,1095MB,9,9.0,B,B,,,Amsterdam,Amsterdam,552679.5702844266,6868394.906284064
363200000442562,363200000442562,Prins Hendrikkade,Prins Hendrikkade,1011TC,1011TC,176,176.0,H,D,,7,Amsterdam,Amsterdam,546581.4736362853,6867601.113863743
363200012100885,363200012100885,John Blankensteinstraat,John Blankensteinstraat,1095MA,1095MB,25,25.0,B,B,,,Amsterdam,Amsterdam,552674.4817930098,6868400.992872413
363200012100861,363200012100861,John Blankensteinstraat,John Blankensteinstraat,1095MA,1095MB,15,15.0,D,D,,,Amsterdam,Amsterdam,552701.8701897404,6868396.332907807
363200012100886,363200012100886,John Blankensteinstraat,John Blankensteinstraat,1095MA,1095MB,25,25.0,C,C,,,Amsterdam,Amsterdam,552684.7680668,6868412.482575653
363200012100950,363200012100950,John Blankensteinstraat,John Blankensteinstraat,1095MA,1095MB,47,47.0,A,A,,,Amsterdam,Amsterdam,552729.2679773729,6868336.285358182
363200012100829,363200012100829,John Blankensteinstraat,John Blankensteinstraat,1095MA,1095MB,5,5.0,F,F,,,Amsterdam,Amsterdam,552687.2515633964,6868387.969513814
363200012100856,363200012100856,John Blankensteinstraat,John Blankensteinstraat,1095MA,1095MB,13,13.0,E,E,,,Amsterdam,Amsterdam,552690.1623030339,6868385.57572011
363200012100863,363200012100863,John Blankensteinstraat,John Blankensteinstraat,1095MA,1095MB,15,15.0,F,F,,,Amsterdam,Amsterdam,552682.4674081445,6868373.483344294
363200012100867,363200012100867,John Blankensteinstraat,John Blankensteinstraat,1095MA,1095MB,17,17.0,D,D,,,Amsterdam,Amsterdam,552702.7379901825,6868395.534922031
363200012100828,363200012100828,John Blankensteinstraat,John Blankensteinstraat,1095MA,1095MB,5,5.0,E,E,,,Amsterdam,Amsterdam,552697.9683298952,6868399.646890786
363200012100847,363200012100847,John Blankensteinstraat,John Blankensteinstraat,1095MA,1095MB,11,11.0,B,B,,,Amsterdam,Amsterdam,552679.0098098291,6868395.706062989
363200012100951,363200012100951,John Blankensteinstraat,John Blankensteinstraat,1095MA,1095MB,47,47.0,B,B,,,Amsterdam,Amsterdam,552747.2341993728,6868357.664443655
363200012100840,363200012100840,John Blankensteinstraat,John Blankensteinstraat,1095MA,1095MB,9,9.0,A,A,,,Amsterdam,Amsterdam,552669.5920921932,6868383.293844296
363200012100848,363200012100848,John Blankensteinstraat,John Blankensteinstraat,1095MA,1095MB,11,11.0,C,C,,,Amsterdam,Amsterdam,552689.3582029411,6868407.196115848
363200012089560,363200012089560,Benjamin Brittenstraat,Gustav Mahlerlaan,1082ML,1082MK,9,635.0,,B,,,Amsterdam,Amsterdam,542211.7117236549,6861189.157071688
363200012100916,363200012100916,John Blankensteinstraat,John Blankensteinstraat,1095MA,1095MB,35,35.0,C,C,,,Amsterdam,Amsterdam,552746.4069358761,6868342.1886275625
363200012100821,363200012100821,John Blankensteinstraat,John Blankensteinstraat,1095MA,1095MB,3,3.0,F,F,,,Amsterdam,Amsterdam,552686.5094395954,6868388.520759921
363200012100822,363200012100822,John Blankensteinstraat,John Blankensteinstraat,1095MA,1095MB,3,3.0,G,G,,,Amsterdam,Amsterdam,552678.1935893529,6868377.22779987
363200012100880,363200012100880,John Blankensteinstraat,John Blankensteinstraat,1095MA,1095MB,23,23.0,B,B,,,Amsterdam,Amsterdam,552675.0399190567,6868400.31599602
363200000442559,363200000442559,Prins Hendrikkade,Prins Hendrikkade,1011TC,1011TC,176,176.0,E,D,,4,Amsterdam,Amsterdam,546606.9690849116,6867585.891172079
363200012100887,363200012100887,John Blankensteinstraat,John Blankensteinstraat,1095MA,1095MB,25,25.0,D,D,,,Amsterdam,Amsterdam,552705.2153612999,6868393.448338988
363200012100872,363200012100872,John Blankensteinstraat,John Blankensteinstraat,1095MA,1095MB,19,19.0,D,D,,,Amsterdam,Amsterdam,552703.2946755455,6868395.10550738
363200012100877,363200012100877,John Blankensteinstraat,John Blankensteinstraat,1095MA,1095MB,21,21.0,D,D,,,Amsterdam,Amsterdam,552703.9138326836,6868394.615818804
363200012100891,363200012100891,John Blankensteinstraat,John Blankensteinstraat,1095MA,1095MB,27,27.0,C,C,,,Amsterdam,Amsterdam,552684.2075914943,6868413.282356674
363200000418981,363200000418981,Prins Hendrikkade,Prins Hendrikkade,1011TC,1011TC,176,176.0,M,D,,10,Amsterdam,Amsterdam,546571.8459701223,6867589.128552732
363200012100932,363200012100932,John Blankensteinstraat,John Blankensteinstraat,1095MA,1095MB,39,39.0,E,E,,,Amsterdam,Amsterdam,552748.591301846,6868319.042470519
363200012100846,363200012100846,John Blankensteinstraat,John Blankensteinstraat,1095MA,1095MB,11,11.0,A,A,,,Amsterdam,Amsterdam,552668.9090133151,6868384.092904861
363200012100833,363200012100833,John Blankensteinstraat,John Blankensteinstraat,1095MA,1095MB,7,7.0,B,B,,,Amsterdam,Amsterdam,552670.3981371332,6868382.4332248345
363200012100937,363200012100937,John Blankensteinstraat,John Blankensteinstraat,1095MA,1095MB,41,41.0,D,D,,,Amsterdam,Amsterdam,552759.1710645349,6868328.411335987
363200012100851,363200012100851,John Blankensteinstraat,John Blankensteinstraat,1095MA,1095MB,11,11.0,F,F,,,Amsterdam,Amsterdam,552681.3525995226,6868374.589631028
363200012100918,363200012100918,John Blankensteinstraat,John Blankensteinstraat,1095MA,1095MB,35,35.0,E,E,,,Amsterdam,Amsterdam,552764.3824231377,6868341.698575736
363200012100849,363200012100849,John Blankensteinstraat,John Blankensteinstraat,1095MA,1095MB,11,11.0,D,D,,,Amsterdam,Amsterdam,552700.6297130778,6868397.684299254
363200012100832,363200012100832,John Blankensteinstraat,John Blankensteinstraat,1095MA,1095MB,7,7.0,A,A,,,Amsterdam,Amsterdam,552661.0962180892,6868371.196770221
363200012100925,363200012100925,John Blankensteinstraat,John Blankensteinstraat,1095MA,1095MB,37,37.0,D,D,,,Amsterdam,Amsterdam,552757.054571615,6868330.291887176
363200012100874,363200012100874,John Blankensteinstraat,John Blankensteinstraat,1095MA,1095MB,21,21.0,A,A,,,Amsterdam,Amsterdam,552665.68484076,6868387.533744026
363200012100888,363200012100888,John Blankensteinstraat,John Blankensteinstraat,1095MA,1095MB,25,25.0,E,E,,,Amsterdam,Amsterdam,552685.812929618,6868370.53815514
363200000442556,363200000442556,Prins Hendrikkade,Prins Hendrikkade,1011TC,1011TC,176,176.0,B,D,,1,Amsterdam,Amsterdam,546615.6031221262,6867596.355695471
363200012100946,363200012100946,John Blankensteinstraat,John Blankensteinstraat,1095MA,1095MB,45,45.0,B,B,,,Amsterdam,Amsterdam,552748.3856073337,6868356.446920018
363200000442561,363200000442561,Prins Hendrikkade,Prins Hendrikkade,1011TC,1011TC,176,176.0,G,D,,6,Amsterdam,Amsterdam,546584.6839543825,6867605.108975985
363200012100892,363200012100892,John Blankensteinstraat,John Blankensteinstraat,1095MA,1095MB,27,27.0,D,D,,,Amsterdam,Amsterdam,552705.8984373871,6868392.649274417
363200012100905,363200012100905,John Blankensteinstraat,John Blankensteinstraat,1095MA,1095MB,31,31.0,G,G,,,Amsterdam,Amsterdam,552736.4892170149,6868311.9919107165
363200012100839,363200012100839,John Blankensteinstraat,John Blankensteinstraat,1095MA,1095MB,7,7.0,H,H,,,Amsterdam,Amsterdam,552670.7477162896,6868364.766493534
363200012100823,363200012100823,John Blankensteinstraat,John Blankensteinstraat,1095MA,1095MB,3,3.0,H,H,,,Amsterdam,Amsterdam,552669.3857123058,6868365.9319713535
363200012100835,363200012100835,John Blankensteinstraat,John Blankensteinstraat,1095MA,1095MB,7,7.0,D,D,,,Amsterdam,Amsterdam,552690.8480507579,6868405.411876124
363200012100858,363200012100858,John Blankensteinstraat,John Blankensteinstraat,1095MA,1095MB,15,15.0,A,A,,,Amsterdam,Amsterdam,552667.6076861925,6868385.506211129
363200012100941,363200012100941,John Blankensteinstraat,John Blankensteinstraat,1095MA,1095MB,43,43.0,B,B,,,Amsterdam,Amsterdam,552749.6771819061,6868355.302324744
363200012100900,363200012100900,John Blankensteinstraat,John Blankensteinstraat,1095MA,1095MB,31,31.0,B,B,,,Amsterdam,Amsterdam,552738.182706551,6868326.9351755865
363200000442565,363200000442565,Prins Hendrikkade,Prins Hendrikkade,1011TC,1011TC,176,176.0,N,D,,11,Amsterdam,Amsterdam,546568.6373100227,6867585.131815384
363200012100878,363200012100878,John Blankensteinstraat,John Blankensteinstraat,1095MA,1095MB,21,21.0,E,E,,,Amsterdam,Amsterdam,552684.5738927525,6868371.642077283
363200012100902,363200012100902,John Blankensteinstraat,John Blankensteinstraat,1095MA,1095MB,31,31.0,D,D,,,Amsterdam,Amsterdam,552761.7804739998,6868343.848353079
363200012100881,363200012100881,John Blankensteinstraat,John Blankensteinstraat,1095MA,1095MB,23,23.0,C,C,,,Amsterdam,Amsterdam,552685.3890268919,6868411.683148044
363200012100866,363200012100866,John Blankensteinstraat,John Blankensteinstraat,1095MA,1095MB,17,17.0,C,C,,,Amsterdam,Amsterdam,552686.9411522117,6868409.591160914
363200012100923,363200012100923,John Blankensteinstraat,John Blankensteinstraat,1095MA,1095MB,37,37.0,B,B,,,Amsterdam,Amsterdam,552752.3955701535,6868351.963403193
363200012100912,363200012100912,John Blankensteinstraat,John Blankensteinstraat,1095MA,1095MB,33,33.0,G,G,,,Amsterdam,Amsterdam,552745.7720044405,6868321.461382186
363200012100845,363200012100845,John Blankensteinstraat,John Blankensteinstraat,1095MA,1095MB,9,9.0,F,F,,,Amsterdam,Amsterdam,552680.7323564385,6868375.266142772
363200012100938,363200012100938,John Blankensteinstraat,John Blankensteinstraat,1095MA,1095MB,41,41.0,E,E,,,Amsterdam,Amsterdam,552749.5680345114,6868318.345093931
363200012100952,363200012100952,John Blankensteinstraat,John Blankensteinstraat,1095MA,1095MB,47,47.0,C,C,,,Amsterdam,Amsterdam,552770.7157925762,6868336.297728541
363200012100940,363200012100940,John Blankensteinstraat,John Blankensteinstraat,1095MA,1095MB,43,43.0,A,A,,,Amsterdam,Amsterdam,552731.4480915183,6868334.147881177
363200012100936,363200012100936,John Blankensteinstraat,John Blankensteinstraat,1095MA,1095MB,41,41.0,C,C,,,Amsterdam,Amsterdam,552767.4737119613,6868339.1730721025
363200012100911,363200012100911,John Blankensteinstraat,John Blankensteinstraat,1095MA,1095MB,33,33.0,F,F,,,Amsterdam,Amsterdam,552754.8841227356,6868332.17376235
363200012100876,363200012100876,John Blankensteinstraat,John Blankensteinstraat,1095MA,1095MB,21,21.0,C,C,,,Amsterdam,Amsterdam,552685.8853951492,6868410.943631446
363200012085207,363200012085207,Stadhouderskade,Leidsebosje,1054ES,1054LJ,11,2.0,C,,,,Amsterdam,Amsterdam,543314.9745380733,6866093.725107138
363200012100831,363200012100831,John Blankensteinstraat,John Blankensteinstraat,1095MA,1095MB,5,5.0,H,H,,,Amsterdam,Amsterdam,552670.0055934987,6868365.3177365465
363200012100838,363200012100838,John Blankensteinstraat,John Blankensteinstraat,1095MA,1095MB,7,7.0,G,G,,,Amsterdam,Amsterdam,552679.988598642,6868375.817377872
363200012100871,363200012100871,John Blankensteinstraat,John Blankensteinstraat,1095MA,1095MB,19,19.0,C,C,,,Amsterdam,Amsterdam,552686.3830265182,6868410.2680389155
363200012100879,363200012100879,John Blankensteinstraat,John Blankensteinstraat,1095MA,1095MB,23,23.0,A,A,,,Amsterdam,Amsterdam,552665.0028380908,6868388.1476171
363200012100899,363200012100899,John Blankensteinstraat,John Blankensteinstraat,1095MA,1095MB,31,31.0,A,A,,,Amsterdam,Amsterdam,552728.6853966193,6868317.248106082
363200012100901,363200012100901,John Blankensteinstraat,John Blankensteinstraat,1095MA,1095MB,31,31.0,C,C,,,Amsterdam,Amsterdam,552755.7079852517,6868348.519781547
363200012100868,363200012100868,John Blankensteinstraat,John Blankensteinstraat,1095MA,1095MB,17,17.0,E,E,,,Amsterdam,Amsterdam,552683.1497607453,6868372.808834318
363200012100921,363200012100921,John Blankensteinstraat,John Blankensteinstraat,1095MA,1095MB,35,35.0,H,H,,,Amsterdam,Amsterdam,552738.5491973675,6868310.271648464
363200012100864,363200012100864,John Blankensteinstraat,John Blankensteinstraat,1095MA,1095MB,17,17.0,A,A,,,Amsterdam,Amsterdam,552666.9878032671,6868386.120447262
363200012100830,363200012100830,John Blankensteinstraat,John Blankensteinstraat,1095MA,1095MB,5,5.0,G,G,,,Amsterdam,Amsterdam,552679.1215126549,6868376.492447312
363200012100897,363200012100897,John Blankensteinstraat,John Blankensteinstraat,1095MA,1095MB,29,29.0,D,D,,,Amsterdam,Amsterdam,552706.6427122491,6868391.727650912
363200012100914,363200012100914,John Blankensteinstraat,John Blankensteinstraat,1095MA,1095MB,35,35.0,A,A,,,Amsterdam,Amsterdam,552725.8632027969,6868319.88332418
363200012100908,363200012100908,John Blankensteinstraat,John Blankensteinstraat,1095MA,1095MB,33,33.0,D,D,,,Amsterdam,Amsterdam,552754.5120141738,6868349.810794496
363200012100917,363200012100917,John Blankensteinstraat,John Blankensteinstraat,1095MA,1095MB,35,35.0,D,D,,,Amsterdam,Amsterdam,552753.589279345,6868350.780542843
363200012100935,363200012100935,John Blankensteinstraat,John Blankensteinstraat,1095MA,1095MB,41,41.0,B,B,,,Amsterdam,Amsterdam,552750.6011639438,6868354.117890706
363200012100919,363200012100919,John Blankensteinstraat,John Blankensteinstraat,1095MA,1095MB,35,35.0,F,F,,,Amsterdam,Amsterdam,552756.0242623057,6868331.206923167
363200012100910,363200012100910,John Blankensteinstraat,John Blankensteinstraat,1095MA,1095MB,33,33.0,E,E,,,Amsterdam,Amsterdam,552763.3511811659,6868342.774218222
363200012100949,363200012100949,John Blankensteinstraat,John Blankensteinstraat,1095MA,1095MB,45,45.0,E,E,,,Amsterdam,Amsterdam,552751.9768152988,6868316.521974229
363200012100931,363200012100931,John Blankensteinstraat,John Blankensteinstraat,1095MA,1095MB,39,39.0,D,D,,,Amsterdam,Amsterdam,552758.193703714,6868329.216876489
363200012100904,363200012100904,John Blankensteinstraat,John Blankensteinstraat,1095MA,1095MB,31,31.0,F,F,,,Amsterdam,Amsterdam,552744.2539332685,6868322.480096315
363200012100907,363200012100907,John Blankensteinstraat,John Blankensteinstraat,1095MA,1095MB,33,33.0,B,B,,,Amsterdam,Amsterdam,552736.7186338955,6868328.22625679
363200012100929,363200012100929,John Blankensteinstraat,John Blankensteinstraat,1095MA,1095MB,39,39.0,B,B,,,Amsterdam,Amsterdam,552751.4702678381,6868353.093746492
363200012100896,363200012100896,John Blankensteinstraat,John Blankensteinstraat,1095MA,1095MB,29,29.0,C,C,,,Amsterdam,Amsterdam,552683.6487508054,6868414.082147275
363200012100820,363200012100820,John Blankensteinstraat,John Blankensteinstraat,1095MA,1095MB,3,3.0,E,E,,,Amsterdam,Amsterdam,552697.164086213,6868400.197775851
363200012100942,363200012100942,John Blankensteinstraat,John Blankensteinstraat,1095MA,1095MB,43,43.0,C,C,,,Amsterdam,Amsterdam,552768.643760821,6868338.122822168
363200012100945,363200012100945,John Blankensteinstraat,John Blankensteinstraat,1095MA,1095MB,45,45.0,A,A,,,Amsterdam,Amsterdam,552730.2655770859,6868335.3734118575
363200012100837,363200012100837,John Blankensteinstraat,John Blankensteinstraat,1095MA,1095MB,7,7.0,F,F,,,Amsterdam,Amsterdam,552687.871444927,6868387.355275967
363200012100857,363200012100857,John Blankensteinstraat,John Blankensteinstraat,1095MA,1095MB,13,13.0,F,F,,,Amsterdam,Amsterdam,552681.8478797731,6868374.036944131
363200012100893,363200012100893,John Blankensteinstraat,John Blankensteinstraat,1095MA,1095MB,27,27.0,E,E,,,Amsterdam,Amsterdam,552686.4952912172,6868369.862006305
363200012100947,363200012100947,John Blankensteinstraat,John Blankensteinstraat,1095MA,1095MB,45,45.0,C,C,,,Amsterdam,Amsterdam,552769.6418032639,6868337.133846311
363200012100825,363200012100825,John Blankensteinstraat,John Blankensteinstraat,1095MA,1095MB,5,5.0,B,B,,,Amsterdam,Amsterdam,552671.0808536097,6868381.696439735
363200012100816,363200012100816,John Blankensteinstraat,John Blankensteinstraat,1095MA,1095MB,3,3.0,A,A,,,Amsterdam,Amsterdam,552662.6460212456,6868369.784919845
363200012100890,363200012100890,John Blankensteinstraat,John Blankensteinstraat,1095MA,1095MB,27,27.0,B,B,,,Amsterdam,Amsterdam,552673.9841612198,6868401.668463437
363200012100883,363200012100883,John Blankensteinstraat,John Blankensteinstraat,1095MA,1095MB,23,23.0,E,E,,,Amsterdam,Amsterdam,552685.1312919153,6868371.0897533
363200012100889,363200012100889,John Blankensteinstraat,John Blankensteinstraat,1095MA,1095MB,27,27.0,A,A,,,Amsterdam,Amsterdam,552664.0099144297,6868389.377532132
363200012100844,363200012100844,John Blankensteinstraat,John Blankensteinstraat,1095MA,1095MB,9,9.0,E,E,,,Amsterdam,Amsterdam,552688.6152127759,6868386.802400537
363200012100933,363200012100933,John Blankensteinstraat,John Blankensteinstraat,1095MA,1095MB,39,39.0,F,F,,,Amsterdam,Amsterdam,552740.5038534247,6868308.390162422
363200012100759,363200012100759,Noorder IJdijk,Noorder IJdijk,1023NT,1023NT,105,119.0,C,,,,Amsterdam,Amsterdam,552340.234448174,6869774.6631162735
363200012100843,363200012100843,John Blankensteinstraat,John Blankensteinstraat,1095MA,1095MB,9,9.0,D,D,,,Amsterdam,Amsterdam,552699.6396602452,6868398.420932226
363200012100943,363200012100943,John Blankensteinstraat,John Blankensteinstraat,1095MA,1095MB,43,43.0,D,D,,,Amsterdam,Amsterdam,552760.2327845357,6868327.435844884
363200012100813,363200012100813,John Blankensteinstraat,John Blankensteinstraat,1095MA,1095MB,1,1.0,C,C,,,Amsterdam,Amsterdam,552682.5494114794,6868391.154255383
363200012100894,363200012100894,John Blankensteinstraat,John Blankensteinstraat,1095MA,1095MB,29,29.0,A,A,,,Amsterdam,Amsterdam,552663.5736775949,6868390.17803559
363200012100927,363200012100927,John Blankensteinstraat,John Blankensteinstraat,1095MA,1095MB,37,37.0,F,F,,,Amsterdam,Amsterdam,552739.5811311697,6868309.358265414
363200012100869,363200012100869,John Blankensteinstraat,John Blankensteinstraat,1095MA,1095MB,19,19.0,A,A,,,Amsterdam,Amsterdam,552666.3054386647,6868386.796595797
363200012100852,363200012100852,John Blankensteinstraat,John Blankensteinstraat,1095MA,1095MB,13,13.0,A,A,,,Amsterdam,Amsterdam,552668.2884158555,6868384.830053042
363200012100814,363200012100814,John Blankensteinstraat,John Blankensteinstraat,1095MA,1095MB,1,1.0,D,D,,,Amsterdam,Amsterdam,552693.2658134446,6868402.893918774
363200012100930,363200012100930,John Blankensteinstraat,John Blankensteinstraat,1095MA,1095MB,39,39.0,C,C,,,Amsterdam,Amsterdam,552766.3900943451,6868339.977994974
363200012100928,363200012100928,John Blankensteinstraat,John Blankensteinstraat,1095MA,1095MB,39,39.0,A,A,,,Amsterdam,Amsterdam,552733.6213727922,6868331.7792832665
363200012100826,363200012100826,John Blankensteinstraat,John Blankensteinstraat,1095MA,1095MB,5,5.0,C,C,,,Amsterdam,Amsterdam,552680.9987271988,6868392.998773723
363200012100873,363200012100873,John Blankensteinstraat,John Blankensteinstraat,1095MA,1095MB,19,19.0,E,E,,,Amsterdam,Amsterdam,552683.9543646666,6868372.195677156
363200012100859,363200012100859,John Blankensteinstraat,John Blankensteinstraat,1095MA,1095MB,15,15.0,B,B,,,Amsterdam,Amsterdam,552677.5216054479,6868397.48866911
363200012100850,363200012100850,John Blankensteinstraat,John Blankensteinstraat,1095MA,1095MB,11,11.0,E,E,,,Amsterdam,Amsterdam,552689.4799404122,6868386.251870562
363200012100834,363200012100834,John Blankensteinstraat,John Blankensteinstraat,1095MA,1095MB,7,7.0,C,C,,,Amsterdam,Amsterdam,552680.252452533,6868393.982660962
363200012100827,363200012100827,John Blankensteinstraat,John Blankensteinstraat,1095MA,1095MB,5,5.0,D,D,,,Amsterdam,Amsterdam,552691.6544480801,6868404.490615435
363200012093188,363200012093188,Frederiksstraat,Zocherstraat,1054LD,1054LR,34,23.0,,X,,,Amsterdam,Amsterdam,540823.3022278675,6865101.505750059
363200012100819,363200012100819,John Blankensteinstraat,John Blankensteinstraat,1095MA,1095MB,3,3.0,D,D,,,Amsterdam,Amsterdam,552692.5226123556,6868403.630354376
363200012100944,363200012100944,John Blankensteinstraat,John Blankensteinstraat,1095MA,1095MB,43,43.0,E,E,,,Amsterdam,Amsterdam,552750.9019419706,6868317.510497152
363200012100909,363200012100909,John Blankensteinstraat,John Blankensteinstraat,1095MA,1095MB,33,33.0,C,C,,,Amsterdam,Amsterdam,552747.5470129292,6868340.951373768
363200012100903,363200012100903,John Blankensteinstraat,John Blankensteinstraat,1095MA,1095MB,31,31.0,E,E,,,Amsterdam,Amsterdam,552753.5837811971,6868333.139666922
363200012062448,363200012062448,Van Hogendorpstraat,Van Hogendorpstraat,1051BM,1051BM,133,135.0,,,H,H,Amsterdam,Amsterdam,542571.8811405894,6869680.639822591
363200012100898,363200012100898,John Blankensteinstraat,John Blankensteinstraat,1095MA,1095MB,29,29.0,E,E,,,Amsterdam,Amsterdam,552687.3009710308,6868369.063661888
363200012100884,363200012100884,John Blankensteinstraat,John Blankensteinstraat,1095MA,1095MB,25,25.0,A,A,,,Amsterdam,Amsterdam,552664.4450742119,6868388.762216309
363200012100875,363200012100875,John Blankensteinstraat,John Blankensteinstraat,1095MA,1095MB,21,21.0,B,B,,,Amsterdam,Amsterdam,552675.535925479,6868399.638756654
363200012100948,363200012100948,John Blankensteinstraat,John Blankensteinstraat,1095MA,1095MB,45,45.0,D,D,,,Amsterdam,Amsterdam,552761.3080955504,6868326.371933972
363200012100865,363200012100865,John Blankensteinstraat,John Blankensteinstraat,1095MA,1095MB,17,17.0,B,B,,,Amsterdam,Amsterdam,552676.8388882213,6868398.225456197
363200012100836,363200012100836,John Blankensteinstraat,John Blankensteinstraat,1095MA,1095MB,7,7.0,E,E,,,Amsterdam,Amsterdam,552698.8346929962,6868399.096368484
363200012100862,363200012100862,John Blankensteinstraat,John Blankensteinstraat,1095MA,1095MB,15,15.0,E,E,,,Amsterdam,Amsterdam,552691.0914989706,6868384.902650412
363200012100817,363200012100817,John Blankensteinstraat,John Blankensteinstraat,1095MA,1095MB,3,3.0,B,B,,,Amsterdam,Amsterdam,552672.0098643915,6868380.77426136
363200000108860,363200000108860,Gillis van Ledenberchstraat,Gillis van Ledenberchstraat,1052VH,1052VJ,40,42.0,,,H,H,Amsterdam,Amsterdam,542360.2156266329,6868550.34229824
363200012100860,363200012100860,John Blankensteinstraat,John Blankensteinstraat,1095MA,1095MB,15,15.0,C,C,,,Amsterdam,Amsterdam,552687.6238790067,6868408.852733114
363200012100855,363200012100855,John Blankensteinstraat,John Blankensteinstraat,1095MA,1095MB,13,13.0,D,D,,,Amsterdam,Amsterdam,552701.1287804091,6868396.761243592
363200012100939,363200012100939,John Blankensteinstraat,John Blankensteinstraat,1095MA,1095MB,41,41.0,F,F,,,Amsterdam,Amsterdam,552741.4253290008,6868307.636743795
363200012100915,363200012100915,John Blankensteinstraat,John Blankensteinstraat,1095MA,1095MB,35,35.0,B,B,,,Amsterdam,Amsterdam,552735.522976832,6868329.463182749
363200012100815,363200012100815,John Blankensteinstraat,John Blankensteinstraat,1095MA,1095MB,1,1.0,E,E,,,Amsterdam,Amsterdam,552696.298995684,6868400.8105831565
363200012100924,363200012100924,John Blankensteinstraat,John Blankensteinstraat,1095MA,1095MB,37,37.0,C,C,,,Amsterdam,Amsterdam,552765.4686173991,6868340.73141945
363200000423418,363200000423418,Bullewijkpad,Bullewijkpad,1102LB,1102LB,15,29.0,,,,,Amsterdam,Amsterdam,551620.2747335719,6855829.208783309
363200012100926,363200012100926,John Blankensteinstraat,John Blankensteinstraat,1095MA,1095MB,37,37.0,E,E,,,Amsterdam,Amsterdam,552747.8310433853,6868319.903358183
363200012100922,363200012100922,John Blankensteinstraat,John Blankensteinstraat,1095MA,1095MB,37,37.0,A,A,,,Amsterdam,Amsterdam,552734.5450404442,6868330.648935449
363200000212667,363200000212667,Nieuwendijk,Nieuwendijk,1012LZ,1012LZ,17,17.0,D,E,,,Amsterdam,Amsterdam,544937.8181818916,6868866.586984452
363200000042050,363200000042050,Beethovenstraat,Beethovenstraat,1077JT,1077JT,146,146.0,,,ZV,4B,Amsterdam,Amsterdam,542838.4086449235,6862853.910880243
363200012100954,363200012100954,John Blankensteinstraat,John Blankensteinstraat,1095MA,1095MB,47,47.0,E,E,,,Amsterdam,Amsterdam,552752.820309913,6868315.684516298
363200012100913,363200012100913,John Blankensteinstraat,John Blankensteinstraat,1095MA,1095MB,33,33.0,H,H,,,Amsterdam,Amsterdam,552737.6258371107,6868311.349551908
363200012100906,363200012100906,John Blankensteinstraat,John Blankensteinstraat,1095MA,1095MB,33,33.0,A,A,,,Amsterdam,Amsterdam,552727.1661224803,6868318.755192607
363200012106643,363200012106643,Steve van Dorpelpad,Steven van Dorpelpad,1095ML,1095ML,4,4.0,,,,,Amsterdam,Amsterdam,552633.5271098746,6868090.608321143
363200012106670,363200012106670,Steve van Dorpelpad,Steven van Dorpelpad,,1095ML,37,37.0,,,,,Amsterdam,Amsterdam,552674.7452919658,6868172.354954777
363200012106645,363200012106645,Steve van Dorpelpad,Steven van Dorpelpad,1095ML,1095ML,8,8.0,,,,,Amsterdam,Amsterdam,552644.1444420388,6868103.279530402
363200000501714,363200000501714,Govert Flinckstraat,Govert Flinckstraat,1073BS,1073BS,165,165.0,,,4,4A,Amsterdam,Amsterdam,544817.8545961626,6864621.901343641
363200012106637,363200012106637,Rie Mastenbroekstraat,John Blankensteinstraat,1095MJ,1095MB,205,69.0,,,,,Amsterdam,Amsterdam,552846.8174625029,6868220.316439003
363200012106636,363200012106636,Steve van Dorpelpad,John Blankensteinstraat,1095ML,1095MB,112,49.0,,A,,,Amsterdam,Amsterdam,552775.1169965622,6868282.4095595665
363200012100150,363200012100150,Zonhovenstraat,Laan van Vlaanderen,1066MA,1066MP,49,141.0,,A,,12,Amsterdam,Amsterdam,536158.5211864349,6863093.309171032
363200012106668,363200012106668,Steve van Dorpelpad,Steven van Dorpelpad,,1095ML,33,33.0,,,,,Amsterdam,Amsterdam,552663.8987283527,6868159.723309898
363200012106671,363200012106671,Steve van Dorpelpad,Steven van Dorpelpad,,1095ML,39,39.0,,,,,Amsterdam,Amsterdam,552680.3692567229,6868178.73996352
363200012101389,363200012101389,Noorder IJdijk,Noorder IJdijk,1023NT,1023NT,105,117.0,B,,,,Amsterdam,Amsterdam,552314.5124767969,6869772.85777522
363200000329950,363200000329950,Willem Fenengastraat,Willem Fenengastraat,1096BN,1096BN,12,14.0,A,,,,Amsterdam,Amsterdam,547364.1393045073,6860872.575945348
363200012109043,363200012109043,Westerstraat,Westerstraat,1015LZ,1015LZ,143,143.0,,,1,2,Amsterdam,Amsterdam,543530.7643306422,6868783.134246877
363200000289381,363200000289381,Trompenburgstraat,Trompenburgstraat,1079TM,1079TM,39,39.0,,,1,H,Amsterdam,Amsterdam,546717.21019403,6862531.539805877
363200000498441,363200000498441,Bijlmerdreef,Bijlmerdreef,1103TW,1103TW,1065,1067.0,,,,,Amsterdam,Amsterdam,553368.1570102633,6858438.403915706
363200000076983,363200000076983,Damstraat,Nes,1012JM,1012KC,2,1.0,,B,2,,Amsterdam,Amsterdam,544811.450149441,6867733.264798318
363200000076984,363200000076984,Damstraat,Nes,1012JM,1012KC,2,1.0,,C,3,,Amsterdam,Amsterdam,544811.450149441,6867733.264798318
363200000524995,363200000524995,Warmoesstraat,Warmoesstraat,1012JH,1012JH,90,90.0,D,C,,,Amsterdam,Amsterdam,545127.3620210378,6868154.946488997
363200000244797,363200000244797,Prinsengracht,Prinsengracht,1017LH,1017LH,800,800.0,B,A,,,Amsterdam,Amsterdam,545304.9874827431,6865808.02560425
363200012085575,363200012085575,Eerste Constantijn Huygensstraat,Vondelstraat,1054BZ,1054GN,120,72.0,,A,,,Amsterdam,Amsterdam,542751.0767100055,6865829.720167058
363200012107079,363200012107079,Narva-eiland,Narva-eiland,1014ZJ,1014ZJ,120,26.0,,,,,Amsterdam,Amsterdam,543250.8395952014,6871374.093101912
363200012107064,363200012107064,Narva-eiland,Narva-eiland,1014ZJ,1014ZJ,98,48.0,,,,,Amsterdam,Amsterdam,543308.8008528074,6871425.720794578
363200012107061,363200012107061,Narva-eiland,Narva-eiland,1014ZJ,1014ZJ,92,54.0,,,,,Amsterdam,Amsterdam,543318.5751642244,6871429.307671652
363200012107060,363200012107060,Narva-eiland,Narva-eiland,1014ZJ,1014ZJ,90,56.0,,,,,Amsterdam,Amsterdam,543325.9140067525,6871435.058018676
363200012107057,363200012107057,Narva-eiland,Narva-eiland,1014ZJ,1014ZJ,84,62.0,,,,,Amsterdam,Amsterdam,543332.4386410475,6871441.012516031
363200012107056,363200012107056,Narva-eiland,Narva-eiland,1014ZJ,1014ZJ,82,64.0,,,,,Amsterdam,Amsterdam,543338.9604902341,6871446.194784037
363200012107054,363200012107054,Narva-eiland,Narva-eiland,1014ZJ,1014ZJ,78,68.0,,,,,Amsterdam,Amsterdam,543343.2968312835,6871453.107820906
363200012107035,363200012107035,Narva-eiland,Narva-eiland,1014ZJ,1014ZJ,42,104.0,,,,,Amsterdam,Amsterdam,543390.8574692755,6871492.833427458
363200012107047,363200012107047,Narva-eiland,Narva-eiland,1014ZJ,1014ZJ,64,86.0,,,,,Amsterdam,Amsterdam,543338.3051758409,6871447.064052076
363200012117807,363200012117807,Zuidplein,Zuidplein,1077XV,1077XV,198,196.0,,,,,Amsterdam,Amsterdam,542397.3508893723,6861813.194528806
363200012117786,363200012117786,Zuidplein,Zuidplein,1077XV,1077XV,112,110.0,,,,,Amsterdam,Amsterdam,542395.4358406357,6861840.032138039
363200012116807,363200012116807,Nassaukade,Nassaukade,1052DE,1052ED,129,129.0,,,4B,4B,Amsterdam,Amsterdam,542661.1700510826,6867952.4990723785
363200012110446,363200012110446,Steve van Dorpelpad,Steven van Dorpelpad,1095ML,1095ML,17,17.0,,,,,Amsterdam,Amsterdam,552604.3915159277,6868100.437975613
363200012110448,363200012110448,Steve van Dorpelpad,Steven van Dorpelpad,1095ML,1095ML,21,21.0,,,,,Amsterdam,Amsterdam,552615.13286175,6868111.738265173
363200012110447,363200012110447,Steve van Dorpelpad,Steven van Dorpelpad,1095ML,1095ML,19,19.0,,,,,Amsterdam,Amsterdam,552610.1011445343,6868105.287897891
363200012120645,363200012120645,Gapersteeg,Gapersteeg,1012NR,1012NR,3,5.0,,,,,Amsterdam,Amsterdam,544614.3354868196,6867562.401546622
363200012120646,363200012120646,Gapersteeg,Gapersteeg,1012NR,1012NR,5,7.0,,,,,Amsterdam,Amsterdam,544614.1414058644,6867559.937215548
363200012121877,363200012121877,Van Spilbergenstraat,Van Spilbergenstraat,1037RH,1057RH,34,34.0,,,1,1,Amsterdam,Amsterdam,540155.7344884065,6866446.735478129
363200000392223,363200000392223,Koppelingpad,Bongerdkade,1033NM,1036LZ,14,2.0,,,,,Amsterdam,Amsterdam,545723.6584117508,6873551.303233632
363200000392224,363200000392224,Koppelingpad,Bongerdkade,1033NM,1036LZ,15,4.0,,,,,Amsterdam,Amsterdam,545754.1228863795,6873582.358239112
363200000392225,363200000392225,Koppelingpad,Bongerdkade,1033NM,1036LZ,16,6.0,,,,,Amsterdam,Amsterdam,545787.7478066144,6873611.626161606
363200000392226,363200000392226,Koppelingpad,Bongerdkade,1033NM,1036LZ,17,8.0,,,,,Amsterdam,Amsterdam,545813.9105974928,6873631.11610194
363200000392227,363200000392227,Koppelingpad,Bongerdkade,1033NM,1036LZ,18,10.0,,,,,Amsterdam,Amsterdam,545837.6748117137,6873651.97283377
363200000392228,363200000392228,Koppelingpad,Bongerdkade,1033NM,1036LZ,19,12.0,,,,,Amsterdam,Amsterdam,545860.2306656556,6873674.333769964
363200000392229,363200000392229,Koppelingpad,Bongerdkade,1033NM,1036LZ,20,14.0,,,,,Amsterdam,Amsterdam,545887.0127130741,6873697.276675998
363200000392230,363200000392230,Koppelingpad,Bongerdkade,1033NM,1036LZ,21,16.0,,,,,Amsterdam,Amsterdam,545910.4838237643,6873715.751162445
363200000392231,363200000392231,Koppelingpad,Bongerdkade,1033NM,1036LZ,22,18.0,,,,,Amsterdam,Amsterdam,545935.3552425368,6873737.018311059
363200000449981,363200000449981,Koppelingpad,Bongerdkade,1033NM,1036LZ,23,20.0,,,,,Amsterdam,Amsterdam,545974.1086919587,6873767.49851494
363200000391610,363200000391610,Verstuiverstraat,Bongerdkade,1033NL,1036LZ,8,28.0,,,,,Amsterdam,Amsterdam,546082.5960434797,6873865.221725082
363200000391607,363200000391607,Verstuiverstraat,Bongerdkade,1033NL,1036LZ,2,22.0,,,,,Amsterdam,Amsterdam,546001.7107458515,6873797.209349883
363200000391609,363200000391609,Verstuiverstraat,Bongerdkade,1033NL,1036LZ,6,26.0,,,,,Amsterdam,Amsterdam,546051.3693689049,6873837.735642166
363200000391608,363200000391608,Verstuiverstraat,Bongerdkade,1033NL,1036LZ,4,24.0,,,,,Amsterdam,Amsterdam,546022.278332531,6873814.017995312
363200000391612,363200000391612,Verstuiverstraat,Bongerdkade,1033NL,1036LZ,12,32.0,,,,,Amsterdam,Amsterdam,546134.6069931792,6873914.594160183
363200000391611,363200000391611,Verstuiverstraat,Bongerdkade,1033NL,1036LZ,10,30.0,,,,,Amsterdam,Amsterdam,546106.5542303458,6873885.962708807
363200012120551,363200012120551,Foekje Dillemastraat,Foekje Dillemastraat,1095MK,1095MK,4,118.0,,,,,Amsterdam,Amsterdam,553126.1029049556,6867728.750546683
363200000387013,363200000387013,Druivenstraat,Bongerdkade,1033JS,1036LZ,43,76.0,,,,,Amsterdam,Amsterdam,545711.4177856434,6874950.028054215
363200000387014,363200000387014,Druivenstraat,Bongerdkade,1033JS,1036LZ,45,74.0,,,,,Amsterdam,Amsterdam,545729.4675806258,6874929.774447102
363200000387015,363200000387015,Druivenstraat,Bongerdkade,1033JS,1036LZ,47,72.0,,,,,Amsterdam,Amsterdam,545745.8271591662,6874909.893323384
363200000387017,363200000387017,Druivenstraat,Bongerdkade,1033JS,1036LZ,51,68.0,,,,,Amsterdam,Amsterdam,545783.8469674085,6874864.1282619955
363200000387016,363200000387016,Druivenstraat,Bongerdkade,1033JS,1036LZ,49,70.0,,,,,Amsterdam,Amsterdam,545764.1578317742,6874887.240367765
363200000387018,363200000387018,Druivenstraat,Bongerdkade,1033JS,1036LZ,53,66.0,,,,,Amsterdam,Amsterdam,545800.0372631975,6874842.849431469
363200000387019,363200000387019,Druivenstraat,Bongerdkade,1033JS,1036LZ,55,64.0,,,,,Amsterdam,Amsterdam,545817.034257054,6874823.873931317
363200000387020,363200000387020,Druivenstraat,Bongerdkade,1033JS,1036LZ,57,62.0,,,,,Amsterdam,Amsterdam,545835.7426472065,6874802.499256928
363200000387022,363200000387022,Druivenstraat,Bongerdkade,1033JS,1036LZ,61,58.0,,,,,Amsterdam,Amsterdam,545878.5342460055,6874759.210344764
363200000387021,363200000387021,Druivenstraat,Bongerdkade,1033JS,1036LZ,59,60.0,,,,,Amsterdam,Amsterdam,545857.1707277192,6874777.033149047
363200000387023,363200000387023,Druivenstraat,Bongerdkade,1033JS,1036LZ,63,56.0,,,,,Amsterdam,Amsterdam,545891.7014772194,6874735.069997257
363200000387024,363200000387024,Druivenstraat,Bongerdkade,1033JS,1036LZ,65,54.0,,,,,Amsterdam,Amsterdam,545912.5326699965,6874707.65365617
363200000387025,363200000387025,Druivenstraat,Bongerdkade,1033JS,1036LZ,67,52.0,,,,,Amsterdam,Amsterdam,545941.1776967563,6874678.319315348
363200012120647,363200012120647,Gapersteeg,Gapersteeg,1012NR,1012NR,7,9.0,,,,,Amsterdam,Amsterdam,544613.8043437353,6867557.825870746
363200012123109,363200012123109,Wiborgeiland,Wiborgeiland,1014ZC,1014ZC,114,102.0,,,,,Amsterdam,Amsterdam,543046.7457970623,6871695.112642317
363200012123092,363200012123092,Wiborgeiland,Wiborgeiland,1014ZC,1014ZC,95,119.0,,,,,Amsterdam,Amsterdam,543015.066376086,6871669.541963389
363200012124651,363200012124651,Bella Vistastraat,Bella Vistastraat,,1096GM,31,32.0,,,,,Amsterdam,Amsterdam,547678.8274212676,6861470.884067176
363200012121078,363200012121078,Anton de Komplein,Anton de Komplein,1102CW,1102CW,156,156.0,B,D,,,Amsterdam,Amsterdam,551632.6830157995,6857476.864143305
363200012121077,363200012121077,Anton de Komplein,Anton de Komplein,1102CW,1102CW,156,156.0,A,C,,,Amsterdam,Amsterdam,551635.3611155207,6857478.398977558
363200012121079,363200012121079,Anton de Komplein,Anton de Komplein,1102CW,1102CW,156,156.0,C,E,,,Amsterdam,Amsterdam,551630.1436809585,6857475.330137019
363200012119180,363200012119180,Aalbersestraat,Aalbersestraat,1067GE,1067GE,74,74.0,C,D,,,Amsterdam,Amsterdam,534119.6767908023,6868593.982489811
363200012122571,363200012122571,Kees Broekmanstraat,Kees Broekmanstraat,1095MS,1095MS,510,478.0,D,D,,,Amsterdam,Amsterdam,552924.2535144085,6867514.266527824
363200012122584,363200012122584,Kees Broekmanstraat,Kees Broekmanstraat,1095MS,1095MS,486,516.0,D,D,,,Amsterdam,Amsterdam,552990.1508495971,6867460.198488561
363200012117898,363200012117898,Gooise Kant,Gooise Kant,1104MM,1104MM,77,71.0,,,,,Amsterdam,Amsterdam,552861.9617009485,6857170.368072428
363200012117895,363200012117895,Gooise Kant,Gooise Kant,1104MM,1104MM,71,77.0,,,,,Amsterdam,Amsterdam,552884.4690766045,6857180.817901071
363200012117923,363200012117923,Gooise Kant,Gooise Kant,1104MM,1104MM,60,64.0,,,,,Amsterdam,Amsterdam,552939.0053096028,6857213.783950282
363200012125711,363200012125711,Larikslaan,Larikslaan,1087CS,1087SC,38,38.0,,,,,Amsterdam,Amsterdam,557072.4108835105,6862878.136086331
363200012126492,363200012126492,Ten Katestraat,Ten Katestraat,1053CH,1053CG,30,30.0,K,K,,,Amsterdam,Amsterdam,541780.6578359177,6866685.207909343
363200012126491,363200012126491,Ten Katestraat,Ten Katestraat,1053CH,1053CG,30,30.0,H,H,,,Amsterdam,Amsterdam,541782.0443083013,6866683.317169896
363200012126490,363200012126490,Ten Katestraat,Ten Katestraat,1053CH,1053CG,30,30.0,G,G,,,Amsterdam,Amsterdam,541782.256857909,6866681.024729932
363200012126489,363200012126489,Ten Katestraat,Ten Katestraat,1053CH,1053CG,30,30.0,F,F,,,Amsterdam,Amsterdam,541783.6151700859,6866683.066307518
363200012126488,363200012126488,Ten Katestraat,Ten Katestraat,1053CH,1053CG,30,30.0,E,E,,,Amsterdam,Amsterdam,541782.5546312955,6866685.090476985
363200012126487,363200012126487,Ten Katestraat,Ten Katestraat,1053CH,1053CG,30,30.0,D,D,,,Amsterdam,Amsterdam,541782.2804619151,6866686.858138373
363200012130339,363200012130339,Tweede Jacob van Campenstraat,Tweede Jacob van Campenstraat,1073XZ,1073XZ,144,146.0,B,,,,Amsterdam,Amsterdam,545079.86572842,6864926.257248979
363200012130756,363200012130756,Andreas Schelfhoutstraat,Andreas Schelfhoutstraat,1058HS,1058HS,39,39.0,L,M,,,Amsterdam,Amsterdam,540007.287556702,6864898.432310257
363200012130758,363200012130758,Andreas Schelfhoutstraat,Andreas Schelfhoutstraat,1058HS,1058HS,39,39.0,K,L,,,Amsterdam,Amsterdam,540007.1079398167,6864886.015130132
363200012130760,363200012130760,Andreas Schelfhoutstraat,Andreas Schelfhoutstraat,1058HS,1058HS,39,39.0,H,K,,,Amsterdam,Amsterdam,540013.7135058633,6864875.967967328
363200012130850,363200012130850,Smalschipstraat,Smalschipstraat,,1086VM,21,23.0,,,,,Amsterdam,Amsterdam,555305.195912244,6865990.663938767
363200012130851,363200012130851,Smalschipstraat,Smalschipstraat,,1086VM,23,25.0,,,,,Amsterdam,Amsterdam,555311.6965188079,6865998.814783975
363200012130852,363200012130852,Smalschipstraat,Smalschipstraat,,1086VM,25,27.0,,,,,Amsterdam,Amsterdam,555319.2337655808,6866006.281581474
363200012130853,363200012130853,Smalschipstraat,Smalschipstraat,,1086VM,27,29.0,,,,,Amsterdam,Amsterdam,555325.5630651709,6866014.0857833875
363200012130854,363200012130854,Smalschipstraat,Smalschipstraat,,1086VM,29,31.0,,,,,Amsterdam,Amsterdam,555335.6632465946,6866025.366170454
363200012130855,363200012130855,Smalschipstraat,Smalschipstraat,,1086VM,31,33.0,,,,,Amsterdam,Amsterdam,555339.940137648,6866030.742416042
363200012093638,363200012093638,Pontsteiger,Pontsteiger,,,368,318.0,,,,,Amsterdam,Amsterdam,543874.7562097915,6871403.61082429
