BAGNUMIDENTIFICATIE,B_NUMMERAANDUIDING,OPENBARERUIMTENAAM,B_OPENBARERUIMTE,POSTCODE,B_POSTCODE,HUISNUMMER,B_HUISNUMMER,HUISLETTER,B_HUISLETTER,HUISNUMMERTOEVOEGING,B_HUISNUMMERTOEVOEGING,WOONPLAATSNAAM,B_WOONPLAATSNAAM,x,y
398200000000155,398200000000155,A.C. op 't Landtplnts,Anna Clasina op 't Landtplantsoen,1705GW,1705GW,74,74.0,,,,,Heerhugowaard,Heerhugowaard,537593.0667778929,6918107.239942187
398200000007482,398200000007482,Henriette Bosmansplnts,Henriette Bosmansplantsoen,1705LA,1705LA,13,13.0,,,,,Heerhugowaard,Heerhugowaard,536550.1106216126,6919362.42475067
398200000000090,398200000000090,A.C. op 't Landtplnts,Anna Clasina op 't Landtplantsoen,1705GV,1705GV,10,10.0,,,,,Heerhugowaard,Heerhugowaard,537366.156784015,6918354.700945421
398200000006916,398200000006916,H.A. Haak-van Eektuin,Henriette Augusta Haak- van Eektuin,1705HR,1705HR,3,3.0,,,,,Heerhugowaard,Heerhugowaard,537404.2755481564,6918127.837828265
398200000003644,398200000003644,Const. Huygensstraat,C. Huygensstraat,1702EW,1702EW,52,52.0,F,F,,,Heerhugowaard,Heerhugowaard,538249.4723699584,6921296.538192889
398200000006779,398200000006779,H. Blokland-Pater erf,Hendrika Blokland-Pater erf,1705GR,1705GR,1,1.0,,,,,Heerhugowaard,Heerhugowaard,537934.2836417591,6917680.100694962
398200000006845,398200000006845,H. Roland Holstlaan,Henriette Roland Holstlaan,1703SZ,1703SZ,105,105.0,H,H,,,Heerhugowaard,Heerhugowaard,537199.4657410998,6921720.240027399
398200000003710,398200000003710,Const. Huygensstraat,C. Huygensstraat,1702EZ,1702EZ,112,112.0,J,J,,,Heerhugowaard,Heerhugowaard,538441.094197493,6921436.915698221
398200000016402,398200000016402,R. Prinsen Geerligstuin,Reina Prinsen Geerligstuin,1705HK,1705HK,21,21.0,,,,,Heerhugowaard,Heerhugowaard,537640.281123074,6917646.253583464
398200000006842,398200000006842,H. Roland Holstlaan,Henriette Roland Holstlaan,1703SZ,1703SZ,105,105.0,E,E,,,Heerhugowaard,Heerhugowaard,537186.7277073583,6921728.643453643
398200000003725,398200000003725,Const. Huygensstraat,C. Huygensstraat,1702EZ,1702EZ,132,132.0,,,,,Heerhugowaard,Heerhugowaard,538363.3896876413,6921529.503238181
398200000003730,398200000003730,Const. Huygensstraat,C. Huygensstraat,1702EZ,1702EZ,142,142.0,,,,,Heerhugowaard,Heerhugowaard,538399.0191311288,6921561.447196043
398200000003695,398200000003695,Const. Huygensstraat,C. Huygensstraat,1702EX,1702EX,104,104.0,F,F,,,Heerhugowaard,Heerhugowaard,538346.8664663943,6921383.805565877
398200000000822,398200000000822,Ank van der Moerplnts,Ank van der Moerplantsoen,1705LV,1705LV,31,31.0,,,,,Heerhugowaard,Heerhugowaard,536518.3758589018,6918883.451150782
398200000003722,398200000003722,Const. Huygensstraat,C. Huygensstraat,1702EZ,1702EZ,126,126.0,,,,,Heerhugowaard,Heerhugowaard,538393.214947928,6921485.214963392
398200000000117,398200000000117,A.C. op 't Landtplnts,Anna Clasina op 't Landtplantsoen,1705GS,1705GS,37,37.0,,,,,Heerhugowaard,Heerhugowaard,537503.9552894457,6918293.365648053
398200000005032,398200000005032,E. ten Boom erf,Elisabeth ten Boom erf,1705JB,1705JB,4,4.0,,,,,Heerhugowaard,Heerhugowaard,537679.2868579101,6917399.282090521
398200000006789,398200000006789,H. Roland Holstlaan,Henriette Roland Holstlaan,1703SZ,1703SZ,7,7.0,,,,,Heerhugowaard,Heerhugowaard,537271.7561275065,6921625.166329598
398200000006790,398200000006790,H. Roland Holstlaan,Henriette Roland Holstlaan,1703SZ,1703SZ,9,9.0,,,,,Heerhugowaard,Heerhugowaard,537228.8422542028,6921599.630467978
398200000006923,398200000006923,H.A. Haak-van Eektuin,Henriette Augusta Haak- van Eektuin,1705HR,1705HR,10,10.0,,,,,Heerhugowaard,Heerhugowaard,537343.5448909159,6918153.557230308
398200000000102,398200000000102,A.C. op 't Landtplnts,Anna Clasina op 't Landtplantsoen,1705GV,1705GV,22,22.0,,,,,Heerhugowaard,Heerhugowaard,537409.535765441,6918318.205110619
398200000000190,398200000000190,A.C. op 't Landtplnts,Anna Clasina op 't Landtplantsoen,1705GX,1705GX,130,130.0,,,,,Heerhugowaard,Heerhugowaard,537772.9279890815,6917897.403721454
398200000007483,398200000007483,Henriette Bosmansplnts,Henriette Bosmansplantsoen,1705LA,1705LA,15,15.0,,,,,Heerhugowaard,Heerhugowaard,536542.6017000829,6919370.897143456
398200000008504,398200000008504,J. Duikerweg,Jan Duikerweg,1703DH,1703DH,17,17.0,C,C,,,Heerhugowaard,Heerhugowaard,535796.8229307141,6920717.059284134
398200000017546,398200000017546,Rubensplein,Rubensplein,1701JD,1701JD,13,13.0,I,H,,,Heerhugowaard,Heerhugowaard,539858.4537382633,6922499.901812545
398200000008677,398200000008677,J.L. van der Aaplantsoen,Jacqueline Louise van der Aaplantsoen,1705GZ,1705GZ,4,4.0,,,,,Heerhugowaard,Heerhugowaard,537828.2166435499,6917825.015295576
398200000000126,398200000000126,A.C. op 't Landtplnts,Anna Clasina op 't Landtplantsoen,1705GV,1705GV,46,46.0,,,,,Heerhugowaard,Heerhugowaard,537488.1796867015,6918229.438785739
398200000006980,398200000006980,H.T.Kuipers-Rietbergtuin,Helena Theodora Kuipers-Rietbergtuin,1705HJ,1705HJ,8,8.0,,,,,Heerhugowaard,Heerhugowaard,537704.338705756,6917654.883802608
398200000003613,398200000003613,Const. Huygensstraat,C. Huygensstraat,1702EW,1702EW,32,32.0,,,,,Heerhugowaard,Heerhugowaard,538182.6109077553,6921368.438132577
398200000008497,398200000008497,J. Duikerweg,Jan Duikerweg,1703DH,1703DH,14,14.0,,,,,Heerhugowaard,Heerhugowaard,535679.604936408,6920819.521982651
398200000014671,398200000014671,Noordscharwouderpolderwg,Noordscharwouderpolderweg,1704PJ,1704PJ,8,8.0,A,A,,,Heerhugowaard,Heerhugowaard,538719.2349369044,6928137.933066588
398200000003654,398200000003654,Const. Huygensstraat,C. Huygensstraat,1702EV,1702EV,53,53.0,,,,,Heerhugowaard,Heerhugowaard,538370.7409302563,6921602.428573958
398200000003596,398200000003596,Const. Huygensstraat,C. Huygensstraat,1702EV,1702EV,19,19.0,D,D,,,Heerhugowaard,Heerhugowaard,538209.4031097114,6921467.230712355
398200000003642,398200000003642,Const. Huygensstraat,C. Huygensstraat,1702EW,1702EW,52,52.0,D,D,,,Heerhugowaard,Heerhugowaard,538257.027940948,6921303.118579779
398200000003636,398200000003636,Const. Huygensstraat,C. Huygensstraat,1702EV,1702EV,49,49.0,,,,,Heerhugowaard,Heerhugowaard,538355.8687654659,6921588.906427675
398200000003662,398200000003662,Const. Huygensstraat,C. Huygensstraat,1702EX,1702EX,60,60.0,E,E,,,Heerhugowaard,Heerhugowaard,538362.4553792881,6921325.049476248
398200000003729,398200000003729,Const. Huygensstraat,C. Huygensstraat,1702EZ,1702EZ,140,140.0,,,,,Heerhugowaard,Heerhugowaard,538392.3710340146,6921555.37021236
398200000003602,398200000003602,Const. Huygensstraat,C. Huygensstraat,1702EW,1702EW,22,22.0,,,,,Heerhugowaard,Heerhugowaard,538195.874776947,6921310.68577494
398200000000038,398200000000038,A. Heringa-Jongbloedtuin,Anna Heringa-Jongbloedtuin,1705HS,1705HS,2,2.0,,,,,Heerhugowaard,Heerhugowaard,537262.1970786677,6918227.068545345
398200000003663,398200000003663,Const. Huygensstraat,C. Huygensstraat,1702EX,1702EX,60,60.0,F,F,,,Heerhugowaard,Heerhugowaard,538368.6620011267,6921325.096876453
398200000006983,398200000006983,H.T.Kuipers-Rietbergtuin,Helena Theodora Kuipers-Rietbergtuin,1705HJ,1705HJ,14,14.0,,,,,Heerhugowaard,Heerhugowaard,537705.9074564679,6917630.304630927
398200000008525,398200000008525,J. Slagter-Dingsdagtuin,Johanna Slagter-Dingsdagtuin,1705HV,1705HV,37,37.0,,,,,Heerhugowaard,Heerhugowaard,537539.6535028517,6917634.4065925395
398200000000106,398200000000106,A.C. op 't Landtplnts,Anna Clasina op 't Landtplantsoen,1705GV,1705GV,26,26.0,,,,,Heerhugowaard,Heerhugowaard,537419.8270235445,6918301.714032169
398200000000196,398200000000196,A.I. van Hardenbroek erf,Aleida Ingeborg van Hardenbroek erf,1705HT,1705HT,4,4.0,,,,,Heerhugowaard,Heerhugowaard,537903.0078065118,6917588.5737267835
398200000005572,398200000005572,Esther de Boer-v Rijkprk,Esther de Boer van Rijkpark,1705LN,1705LN,20,20.0,,,,,Heerhugowaard,Heerhugowaard,536662.5454602964,6918600.210376044
398200000000814,398200000000814,Ank van der Moerplnts,Ank van der Moerplantsoen,1705LV,1705LV,23,23.0,,,,,Heerhugowaard,Heerhugowaard,536497.9565973746,6918910.885367332
398200000003618,398200000003618,Const. Huygensstraat,C. Huygensstraat,1702EV,1702EV,37,37.0,A,A,,,Heerhugowaard,Heerhugowaard,538288.3059068276,6921557.069426551
398200000005040,398200000005040,E. ten Boom erf,Elisabeth ten Boom erf,1705JB,1705JB,12,12.0,,,,,Heerhugowaard,Heerhugowaard,537608.8748037335,6917385.04134211
398200000003102,398200000003102,C.F. Kuijken-vd Eijndetn,C.F. Kuijken-van der Eijndetuin,1705HX,1705HX,5,5.0,,,,,Heerhugowaard,Heerhugowaard,537410.8789015651,6917664.552917894
398200000003595,398200000003595,Const. Huygensstraat,C. Huygensstraat,1702EV,1702EV,19,19.0,C,C,,,Heerhugowaard,Heerhugowaard,538202.8369090633,6921467.927726607
398200000006803,398200000006803,H. Roland Holstlaan,Henriette Roland Holstlaan,1703SZ,1703SZ,35,35.0,,,,,Heerhugowaard,Heerhugowaard,537181.3152645483,6921648.975461022
398200000000158,398200000000158,A.C. op 't Landtplnts,Anna Clasina op 't Landtplantsoen,1705GT,1705GT,77,77.0,,,,,Heerhugowaard,Heerhugowaard,537780.8687412454,6917982.8186377445
398200000006830,398200000006830,H. Roland Holstlaan,Henriette Roland Holstlaan,1703SZ,1703SZ,89,89.0,,,,,Heerhugowaard,Heerhugowaard,537205.9430651073,6921607.794732578
398200000008682,398200000008682,J.L. van der Aaplantsoen,Jacqueline Louise van der Aaplantsoen,1705GZ,1705GZ,14,14.0,,,,,Heerhugowaard,Heerhugowaard,537901.6995490757,6917821.336706393
398200000003643,398200000003643,Const. Huygensstraat,C. Huygensstraat,1702EW,1702EW,52,52.0,E,E,,,Heerhugowaard,Heerhugowaard,538255.9830849757,6921295.761550003
398200000008687,398200000008687,J.L. van der Aaplantsoen,Jacqueline Louise van der Aaplantsoen,1705GZ,1705GZ,24,24.0,,,,,Heerhugowaard,Heerhugowaard,537915.9519753188,6917749.7768665105
398200000007488,398200000007488,Henriette Bosmansplnts,Henriette Bosmansplantsoen,1705LA,1705LA,25,25.0,,,,,Heerhugowaard,Heerhugowaard,536485.9089108794,6919435.105958042
398200000006935,398200000006935,H.Henriquez Pimenteltuin,Henriette Henriquez Pimenteltuin,1705HW,1705HW,1,1.0,,,,,Heerhugowaard,Heerhugowaard,537229.0438642477,6917679.156299754
398200000008705,398200000008705,J.W. van der Noordaatuin,Juliana Wilhelmina van der Noordaatuin,1705HM,1705HM,16,16.0,,,,,Heerhugowaard,Heerhugowaard,537526.4577278636,6917895.314999067
398200000008689,398200000008689,J.L. van der Aaplantsoen,Jacqueline Louise van der Aaplantsoen,1705GZ,1705GZ,28,28.0,,,,,Heerhugowaard,Heerhugowaard,537898.0658896399,6917730.277978958
398200000000824,398200000000824,Ank van der Moerplnts,Ank van der Moerplantsoen,1705LV,1705LV,33,33.0,,,,,Heerhugowaard,Heerhugowaard,536523.0660743195,6918876.911333536
398200000008644,398200000008644,J.C. Langerhorsttuin,Jantina Cristina Langerhorsttuin,1705HP,1705HP,21,21.0,,,,,Heerhugowaard,Heerhugowaard,537418.825658721,6917973.781568678
398200000006825,398200000006825,H. Roland Holstlaan,Henriette Roland Holstlaan,1703SZ,1703SZ,79,79.0,,,,,Heerhugowaard,Heerhugowaard,537177.3664012995,6921653.3592847055
398200000006816,398200000006816,H. Roland Holstlaan,Henriette Roland Holstlaan,1703SZ,1703SZ,61,61.0,,,,,Heerhugowaard,Heerhugowaard,537196.3598308936,6921665.284263011
398200000000171,398200000000171,A.C. op 't Landtplnts,Anna Clasina op 't Landtplantsoen,1705GW,1705GW,92,92.0,,,,,Heerhugowaard,Heerhugowaard,537652.8154764221,6918039.851964798
398200000000164,398200000000164,A.C. op 't Landtplnts,Anna Clasina op 't Landtplantsoen,1705GT,1705GT,83,83.0,,,,,Heerhugowaard,Heerhugowaard,537813.4326059531,6917946.702285799
398200000000129,398200000000129,A.C. op 't Landtplnts,Anna Clasina op 't Landtplantsoen,1705GT,1705GT,49,49.0,,,,,Heerhugowaard,Heerhugowaard,537635.6877155751,6918147.848801261
398200000016374,398200000016374,R. Neter-Montanhestuin,Rachel Neter-Montanhestuin,1705HG,1705HG,37,37.0,,,,,Heerhugowaard,Heerhugowaard,537780.4373089279,6917651.807000458
398200000006965,398200000006965,H.Henriquez Pimenteltuin,Henriette Henriquez Pimenteltuin,1705HW,1705HW,48,48.0,,,,,Heerhugowaard,Heerhugowaard,537512.6675743444,6917720.429155295
398200000008645,398200000008645,J.C. Langerhorsttuin,Jantina Cristina Langerhorsttuin,1705HP,1705HP,22,22.0,,,,,Heerhugowaard,Heerhugowaard,537354.8155974941,6918045.172476728
398200000000115,398200000000115,A.C. op 't Landtplnts,Anna Clasina op 't Landtplantsoen,1705GS,1705GS,35,35.0,,,,,Heerhugowaard,Heerhugowaard,537497.4595564313,6918300.613843838
398200000007476,398200000007476,Henriette Bosmansplnts,Henriette Bosmansplantsoen,1705LA,1705LA,1,1.0,,,,,Heerhugowaard,Heerhugowaard,536619.910987206,6919283.454703394
398200000000798,398200000000798,Ank van der Moerplnts,Ank van der Moerplantsoen,1705LV,1705LV,7,7.0,,,,,Heerhugowaard,Heerhugowaard,536449.923700623,6918967.865895945
398200000000803,398200000000803,Ank van der Moerplnts,Ank van der Moerplantsoen,1705LV,1705LV,12,12.0,,,,,Heerhugowaard,Heerhugowaard,536422.7784265195,6918914.157356266
398200000000111,398200000000111,A.C. op 't Landtplnts,Anna Clasina op 't Landtplantsoen,1705GS,1705GS,31,31.0,,,,,Heerhugowaard,Heerhugowaard,537474.942331548,6918319.797138516
398200000008491,398200000008491,J. Duikerweg,Jan Duikerweg,1703DH,1703DH,11,11.0,,,,,Heerhugowaard,Heerhugowaard,535871.1025939331,6920778.379823714
398200000003647,398200000003647,Const. Huygensstraat,C. Huygensstraat,1702EW,1702EW,52,52.0,I,I,,,Heerhugowaard,Heerhugowaard,538265.5450616168,6921279.145567022
398200000016376,398200000016376,R. Neter-Montanhestuin,Rachel Neter-Montanhestuin,1705HG,1705HG,39,39.0,,,,,Heerhugowaard,Heerhugowaard,537792.7986892792,6917667.149435503
398200000000174,398200000000174,A.C. op 't Landtplnts,Anna Clasina op 't Landtplantsoen,1705GW,1705GW,98,98.0,,,,,Heerhugowaard,Heerhugowaard,537673.3885481937,6918020.073396835
398200000000810,398200000000810,Ank van der Moerplnts,Ank van der Moerplantsoen,1705LV,1705LV,19,19.0,,,,,Heerhugowaard,Heerhugowaard,536487.5881902836,6918924.074343247
398200000008478,398200000008478,J. Duikerweg,Jan Duikerweg,1703DH,1703DH,6,6.0,A,A,,,Heerhugowaard,Heerhugowaard,535869.0110160687,6920963.165077203
398200000026550,398200000026550,Laan van Broekhorn,Rieuwertsweide,1704MC,1704MC,5,5.0,,,,,Heerhugowaard,Heerhugowaard,534428.4278070347,6920785.88744661
398200000003126,398200000003126,C.M. Smoorenburg erf,Christina Maria Smoorenburg erf,1705JC,1705JC,5,5.0,,,,,Heerhugowaard,Heerhugowaard,537605.3114449598,6917299.199768046
398200000003584,398200000003584,Const. Huygensstraat,C. Huygensstraat,1702EW,1702EW,10,10.0,,,,,Heerhugowaard,Heerhugowaard,538227.9947549772,6921260.252296471
398200000003628,398200000003628,Const. Huygensstraat,C. Huygensstraat,1702EV,1702EV,41,41.0,,,,,Heerhugowaard,Heerhugowaard,538326.2337467733,6921562.438689017
398200000003706,398200000003706,Const. Huygensstraat,C. Huygensstraat,1702EZ,1702EZ,112,112.0,F,F,,,Heerhugowaard,Heerhugowaard,538470.8263182666,6921414.781549152
398200000006986,398200000006986,H.T.Kuipers-Rietbergtuin,Helena Theodora Kuipers-Rietbergtuin,1705HJ,1705HJ,20,20.0,,,,,Heerhugowaard,Heerhugowaard,537703.0446274431,6917605.793559081
398200000016379,398200000016379,R. Neter-Montanhestuin,Rachel Neter-Montanhestuin,1705HH,1705HH,42,42.0,,,,,Heerhugowaard,Heerhugowaard,537769.3600875076,6917647.03055463
398200000003714,398200000003714,Const. Huygensstraat,C. Huygensstraat,1702EZ,1702EZ,112,112.0,N,N,,,Heerhugowaard,Heerhugowaard,538477.9511572132,6921423.950123208
398200000006943,398200000006943,H.Henriquez Pimenteltuin,Henriette Henriquez Pimenteltuin,1705HW,1705HW,9,9.0,,,,,Heerhugowaard,Heerhugowaard,537256.1256349244,6917702.312733204
398200000019078,398200000019078,St Annaplein,Sint Annaplein,1704BP,1704BP,7,7.0,,,,,Heerhugowaard,Heerhugowaard,540029.262043099,6928834.899488814
398200000006846,398200000006846,H. Roland Holstlaan,Henriette Roland Holstlaan,1703SZ,1703SZ,105,105.0,I,I,,,Heerhugowaard,Heerhugowaard,537222.6109059863,6921691.184151802
398200000008685,398200000008685,J.L. van der Aaplantsoen,Jacqueline Louise van der Aaplantsoen,1705GZ,1705GZ,20,20.0,,,,,Heerhugowaard,Heerhugowaard,537920.9945398535,6917781.855370157
398200000006815,398200000006815,H. Roland Holstlaan,Henriette Roland Holstlaan,1703SZ,1703SZ,59,59.0,,,,,Heerhugowaard,Heerhugowaard,537187.7704318546,6921658.183130377
398200000006824,398200000006824,H. Roland Holstlaan,Henriette Roland Holstlaan,1703SZ,1703SZ,77,77.0,,,,,Heerhugowaard,Heerhugowaard,537170.129657838,6921639.894285809
398200000000166,398200000000166,A.C. op 't Landtplnts,Anna Clasina op 't Landtplantsoen,1705GT,1705GT,85,85.0,,,,,Heerhugowaard,Heerhugowaard,537818.6899176941,6917939.789239716
398200000016338,398200000016338,R. Neter-Montanhestuin,Rachel Neter-Montanhestuin,1705HG,1705HG,1,1.0,,,,,Heerhugowaard,Heerhugowaard,537765.7341315724,6917687.655662687
398200000008633,398200000008633,J.C. Langerhorsttuin,Jantina Cristina Langerhorsttuin,1705HP,1705HP,10,10.0,,,,,Heerhugowaard,Heerhugowaard,537408.3478235856,6918077.595733884
398200000000220,398200000000220,A.L. Salomonstuin,Anna Louisa Salomonstuin,1705HN,1705HN,14,14.0,,,,,Heerhugowaard,Heerhugowaard,537478.0503754311,6917980.620330619
398200000003586,398200000003586,Const. Huygensstraat,C. Huygensstraat,1702EW,1702EW,12,12.0,,,,,Heerhugowaard,Heerhugowaard,538222.8429111944,6921269.069608333
398200000006979,398200000006979,H.T.Kuipers-Rietbergtuin,Helena Theodora Kuipers-Rietbergtuin,1705HJ,1705HJ,6,6.0,,,,,Heerhugowaard,Heerhugowaard,537702.7016570404,6917662.869862104
398200000000088,398200000000088,A.C. op 't Landtplnts,Anna Clasina op 't Landtplantsoen,1705GV,1705GV,6,6.0,,,,,Heerhugowaard,Heerhugowaard,537353.5517319476,6918366.827286437
398200000019914,398200000019914,T. de Vriestuin,Tilly de Vriestuin,1705HL,1705HL,18,18.0,,,,,Heerhugowaard,Heerhugowaard,537585.2052176074,6917819.3966809455
398200000003580,398200000003580,Const. Huygensstraat,C. Huygensstraat,1702EW,1702EW,8,8.0,I,I,,,Heerhugowaard,Heerhugowaard,538278.2491417342,6921250.311908251
398200000003629,398200000003629,Const. Huygensstraat,C. Huygensstraat,1702EW,1702EW,42,42.0,,,,,Heerhugowaard,Heerhugowaard,538225.6376474295,6921354.325102603
398200000008510,398200000008510,J. Slagter-Dingsdagtuin,Johanna Slagter-Dingsdagtuin,1705HV,1705HV,7,7.0,,,,,Heerhugowaard,Heerhugowaard,537595.5054504722,6917499.960476758
398200000016349,398200000016349,R. Neter-Montanhestuin,Rachel Neter-Montanhestuin,1705HH,1705HH,12,12.0,,,,,Heerhugowaard,Heerhugowaard,537779.4117137031,6917683.657050759
398200000003579,398200000003579,Const. Huygensstraat,C. Huygensstraat,1702EW,1702EW,8,8.0,H,H,,,Heerhugowaard,Heerhugowaard,538278.144506452,6921243.519686073
398200000000175,398200000000175,A.C. op 't Landtplnts,Anna Clasina op 't Landtplantsoen,1705GW,1705GW,100,100.0,,,,,Heerhugowaard,Heerhugowaard,537679.0009649063,6918011.065659957
398200000003665,398200000003665,Const. Huygensstraat,C. Huygensstraat,1702EX,1702EX,60,60.0,H,H,,,Heerhugowaard,Heerhugowaard,538375.5505345407,6921331.554957216
398200000016388,398200000016388,R. Neter-Montanhestuin,Rachel Neter-Montanhestuin,1705HG,1705HG,51,51.0,,,,,Heerhugowaard,Heerhugowaard,537787.0856367986,6917674.528648924
398200000000123,398200000000123,A.C. op 't Landtplnts,Anna Clasina op 't Landtplantsoen,1705GT,1705GT,43,43.0,,,,,Heerhugowaard,Heerhugowaard,537610.0894104915,6918176.991225637
398200000006933,398200000006933,H.A. Haak-van Eektuin,Henriette Augusta Haak- van Eektuin,1705HR,1705HR,20,20.0,,,,,Heerhugowaard,Heerhugowaard,537303.341643156,6918122.534534682
398200000006927,398200000006927,H.A. Haak-van Eektuin,Henriette Augusta Haak- van Eektuin,1705HR,1705HR,14,14.0,,,,,Heerhugowaard,Heerhugowaard,537330.2177523772,6918143.363674044
398200000000055,398200000000055,A. Heringa-Jongbloedtuin,Anna Heringa-Jongbloedtuin,1705HS,1705HS,19,19.0,,,,,Heerhugowaard,Heerhugowaard,537281.4946141532,6918139.500903988
398200000003616,398200000003616,Const. Huygensstraat,C. Huygensstraat,1702EV,1702EV,35,35.0,,,,,Heerhugowaard,Heerhugowaard,538278.5522778173,6921520.987621851
398200000000039,398200000000039,A. Heringa-Jongbloedtuin,Anna Heringa-Jongbloedtuin,1705HS,1705HS,3,3.0,,,,,Heerhugowaard,Heerhugowaard,537329.8419424386,6918199.877901808
398200000003590,398200000003590,Const. Huygensstraat,C. Huygensstraat,1702EW,1702EW,16,16.0,,,,,Heerhugowaard,Heerhugowaard,538211.751490886,6921286.421085169
398200000008701,398200000008701,J.W. van der Noordaatuin,Juliana Wilhelmina van der Noordaatuin,1705HM,1705HM,12,12.0,,,,,Heerhugowaard,Heerhugowaard,537541.0643162704,6917904.236604971
398200000000203,398200000000203,A.I. van Hardenbroek erf,Aleida Ingeborg van Hardenbroek erf,1705HT,1705HT,11,11.0,,,,,Heerhugowaard,Heerhugowaard,537858.0406518898,6917552.787101075
398200000008641,398200000008641,J.C. Langerhorsttuin,Jantina Cristina Langerhorsttuin,1705HP,1705HP,18,18.0,,,,,Heerhugowaard,Heerhugowaard,537380.2577151356,6918059.54928996
398200000016393,398200000016393,R. Prinsen Geerligstuin,Reina Prinsen Geerligstuin,1705HK,1705HK,3,3.0,,,,,Heerhugowaard,Heerhugowaard,537678.5079682403,6917708.089967353
398200000003131,398200000003131,C.M. Smoorenburg erf,Christina Maria Smoorenburg erf,1705JC,1705JC,10,10.0,,,,,Heerhugowaard,Heerhugowaard,537561.6355679973,6917253.515121081
398200000019919,398200000019919,T. de Vriestuin,Tilly de Vriestuin,1705HL,1705HL,26,26.0,,,,,Heerhugowaard,Heerhugowaard,537542.5189442737,6917785.395827307
398200000003667,398200000003667,Const. Huygensstraat,C. Huygensstraat,1702EX,1702EX,60,60.0,J,J,,,Heerhugowaard,Heerhugowaard,538383.3509119145,6921338.203107124
398200000008710,398200000008710,J.W. van der Noordaatuin,Juliana Wilhelmina van der Noordaatuin,1705HM,1705HM,21,21.0,,,,,Heerhugowaard,Heerhugowaard,537552.5557072696,6917841.574257508
398200000006995,398200000006995,H.T.Kuipers-Rietbergtuin,Helena Theodora Kuipers-Rietbergtuin,1705HJ,1705HJ,38,38.0,,,,,Heerhugowaard,Heerhugowaard,537668.1762406788,6917541.235371772
398200000000212,398200000000212,A.L. Salomonstuin,Anna Louisa Salomonstuin,1705HN,1705HN,6,6.0,,,,,Heerhugowaard,Heerhugowaard,537503.7353277531,6918002.549037598
398200000008692,398200000008692,J.W. van der Noordaatuin,Juliana Wilhelmina van der Noordaatuin,1705HM,1705HM,3,3.0,,,,,Heerhugowaard,Heerhugowaard,537616.2461121682,6917885.303057073
398200000008488,398200000008488,J. Duikerweg,Jan Duikerweg,1703DH,1703DH,10,10.0,A,A,,,Heerhugowaard,Heerhugowaard,535816.1095974043,6920922.985453794
398200000000104,398200000000104,A.C. op 't Landtplnts,Anna Clasina op 't Landtplantsoen,1705GV,1705GV,24,24.0,,,,,Heerhugowaard,Heerhugowaard,537415.2461518344,6918310.8486412335
398200000008484,398200000008484,J. Duikerweg,Jan Duikerweg,1703DH,1703DH,8,8.0,B,B,,,Heerhugowaard,Heerhugowaard,535839.1751264647,6920949.67541929
398200000005556,398200000005556,Esther de Boer-v Rijkprk,Esther de Boer van Rijkpark,1705LN,1705LN,4,4.0,,,,,Heerhugowaard,Heerhugowaard,536580.7717943187,6918520.652402586
398200000003696,398200000003696,Const. Huygensstraat,C. Huygensstraat,1702EX,1702EX,104,104.0,G,G,,,Heerhugowaard,Heerhugowaard,538346.1619687717,6921375.822565922
398200000000226,398200000000226,A.L. Salomonstuin,Anna Louisa Salomonstuin,1705HN,1705HN,20,20.0,,,,,Heerhugowaard,Heerhugowaard,537449.4766454942,6917942.979594154
398200000008625,398200000008625,J.C. Langerhorsttuin,Jantina Cristina Langerhorsttuin,1705HP,1705HP,2,2.0,,,,,Heerhugowaard,Heerhugowaard,537435.3985914593,6918095.629115222
398200000000211,398200000000211,A.L. Salomonstuin,Anna Louisa Salomonstuin,1705HN,1705HN,5,5.0,,,,,Heerhugowaard,Heerhugowaard,537536.3619483389,6917954.611321839
398200000003660,398200000003660,Const. Huygensstraat,C. Huygensstraat,1702EX,1702EX,60,60.0,C,C,,,Heerhugowaard,Heerhugowaard,538354.8365383395,6921318.768918734
398200000008629,398200000008629,J.C. Langerhorsttuin,Jantina Cristina Langerhorsttuin,1705HP,1705HP,6,6.0,,,,,Heerhugowaard,Heerhugowaard,537421.5990578767,6918086.752940626
398200000016348,398200000016348,R. Neter-Montanhestuin,Rachel Neter-Montanhestuin,1705HG,1705HG,11,11.0,,,,,Heerhugowaard,Heerhugowaard,537754.186964503,6917668.024099975
398200000006783,398200000006783,H. Blokland-Pater erf,Hendrika Blokland-Pater erf,1705GR,1705GR,5,5.0,,,,,Heerhugowaard,Heerhugowaard,537976.7992361626,6917632.6678600805
398200000003640,398200000003640,Const. Huygensstraat,C. Huygensstraat,1702EW,1702EW,52,52.0,B,B,,,Heerhugowaard,Heerhugowaard,538264.51474151,6921309.439448856
398200000006843,398200000006843,H. Roland Holstlaan,Henriette Roland Holstlaan,1703SZ,1703SZ,105,105.0,F,F,,,Heerhugowaard,Heerhugowaard,537192.9541060561,6921727.876963779
398200000000185,398200000000185,A.C. op 't Landtplnts,Anna Clasina op 't Landtplantsoen,1705GX,1705GX,120,120.0,,,,,Heerhugowaard,Heerhugowaard,537746.5211405107,6917938.835519326
398200000026550,398200000026550,Laan van Broekhorn,Rieuwertsweide,1704MC,1704MC,5,5.0,,,,,Heerhugowaard,Heerhugowaard,534428.4278070347,6920785.88744661
398200000016345,398200000016345,R. Neter-Montanhestuin,Rachel Neter-Montanhestuin,1705HH,1705HH,8,8.0,,,,,Heerhugowaard,Heerhugowaard,537777.638970381,6917686.184309605
398200000000829,398200000000829,Ank van der Moerplnts,Ank van der Moerplantsoen,1705LV,1705LV,43,43.0,,,,,Heerhugowaard,Heerhugowaard,536546.5195732448,6918841.575366053
398200000003611,398200000003611,Const. Huygensstraat,C. Huygensstraat,1702EW,1702EW,30,30.0,,,,,Heerhugowaard,Heerhugowaard,538174.1395414064,6921361.108274308
398200000006959,398200000006959,H.Henriquez Pimenteltuin,Henriette Henriquez Pimenteltuin,1705HW,1705HW,36,36.0,,,,,Heerhugowaard,Heerhugowaard,537424.1790434327,6917753.8409968605
398200000006782,398200000006782,H. Blokland-Pater erf,Hendrika Blokland-Pater erf,1705GR,1705GR,4,4.0,,,,,Heerhugowaard,Heerhugowaard,537963.5736450634,6917648.131564415
398200000000792,398200000000792,Ank van der Moerplnts,Ank van der Moerplantsoen,1705LV,1705LV,1,1.0,,,,,Heerhugowaard,Heerhugowaard,536432.5742531781,6918987.462920538
398200000003132,398200000003132,C.M. Smoorenburg erf,Christina Maria Smoorenburg erf,1705JC,1705JC,11,11.0,,,,,Heerhugowaard,Heerhugowaard,537557.2873764022,6917258.373453182
398200000008699,398200000008699,J.W. van der Noordaatuin,Juliana Wilhelmina van der Noordaatuin,1705HM,1705HM,10,10.0,,,,,Heerhugowaard,Heerhugowaard,537548.1576126189,6917907.774026797
398200000000184,398200000000184,A.C. op 't Landtplnts,Anna Clasina op 't Landtplantsoen,1705GX,1705GX,118,118.0,,,,,Heerhugowaard,Heerhugowaard,537738.8259787029,6917944.04944875
398200000003700,398200000003700,Const. Huygensstraat,C. Huygensstraat,1702EZ,1702EZ,110,110.0,,,,,Heerhugowaard,Heerhugowaard,538418.4020574408,6921395.712760946
398200000008702,398200000008702,J.W. van der Noordaatuin,Juliana Wilhelmina van der Noordaatuin,1705HM,1705HM,13,13.0,,,,,Heerhugowaard,Heerhugowaard,537579.5924047886,6917860.305662588
398200000016404,398200000016404,R. Prinsen Geerligstuin,Reina Prinsen Geerligstuin,1705HK,1705HK,25,25.0,,,,,Heerhugowaard,Heerhugowaard,537637.1184183216,6917630.179032823
398200000003670,398200000003670,Const. Huygensstraat,C. Huygensstraat,1702EX,1702EX,64,64.0,,,,,Heerhugowaard,Heerhugowaard,538321.9101701706,6921355.653656893
398200000003107,398200000003107,C.F. Kuijken-vd Eijndetn,C.F. Kuijken-van der Eijndetuin,1705HX,1705HX,10,10.0,,,,,Heerhugowaard,Heerhugowaard,537467.5211997508,6917575.529348709
398200000000128,398200000000128,A.C. op 't Landtplnts,Anna Clasina op 't Landtplantsoen,1705GV,1705GV,48,48.0,,,,,Heerhugowaard,Heerhugowaard,537495.084822839,6918221.567215736
398200000006947,398200000006947,H.Henriquez Pimenteltuin,Henriette Henriquez Pimenteltuin,1705HW,1705HW,13,13.0,,,,,Heerhugowaard,Heerhugowaard,537440.1418812147,6917801.833960972
398200000006984,398200000006984,H.T.Kuipers-Rietbergtuin,Helena Theodora Kuipers-Rietbergtuin,1705HJ,1705HJ,16,16.0,,,,,Heerhugowaard,Heerhugowaard,537705.7769379929,6917621.813598004
398200000000087,398200000000087,A.C. op 't Landtplnts,Anna Clasina op 't Landtplantsoen,1705GV,1705GV,4,4.0,,,,,Heerhugowaard,Heerhugowaard,537347.8327070415,6918374.224921724
398200000006989,398200000006989,H.T.Kuipers-Rietbergtuin,Helena Theodora Kuipers-Rietbergtuin,1705HJ,1705HJ,26,26.0,,,,,Heerhugowaard,Heerhugowaard,537695.2443724214,6917582.329397115
398200000005557,398200000005557,Esther de Boer-v Rijkprk,Esther de Boer van Rijkpark,1705LN,1705LN,5,5.0,,,,,Heerhugowaard,Heerhugowaard,536499.1000122929,6918613.5878065135
398200000000794,398200000000794,Ank van der Moerplnts,Ank van der Moerplantsoen,1705LV,1705LV,3,3.0,,,,,Heerhugowaard,Heerhugowaard,536438.240634551,6918981.067636675
398200000006955,398200000006955,H.Henriquez Pimenteltuin,Henriette Henriquez Pimenteltuin,1705HW,1705HW,28,28.0,,,,,Heerhugowaard,Heerhugowaard,537358.2817036107,6917746.322004232
398200000019083,398200000019083,St Annaplein,Sint Annaplein,1704BP,1704BP,17,17.0,,,,,Heerhugowaard,Heerhugowaard,540039.7472256119,6928827.781709785
398200000016353,398200000016353,R. Neter-Montanhestuin,Rachel Neter-Montanhestuin,1705HH,1705HH,16,16.0,,,,,Heerhugowaard,Heerhugowaard,537781.3788227297,6917681.522075198
398200000006834,398200000006834,H. Roland Holstlaan,Henriette Roland Holstlaan,1703SZ,1703SZ,97,97.0,,,,,Heerhugowaard,Heerhugowaard,537172.4722786614,6921632.553280485
398200000000130,398200000000130,A.C. op 't Landtplnts,Anna Clasina op 't Landtplantsoen,1705GV,1705GV,50,50.0,,,,,Heerhugowaard,Heerhugowaard,537500.1200774797,6918213.217801671
398200000019900,398200000019900,T. de Vriestuin,Tilly de Vriestuin,1705HL,1705HL,4,4.0,,,,,Heerhugowaard,Heerhugowaard,537637.7030205713,6917849.367467612
398200000019080,398200000019080,St Annaplein,Sint Annaplein,1704BP,1704BP,11,11.0,,,,,Heerhugowaard,Heerhugowaard,540006.6828939957,6928835.714085185
398200000006997,398200000006997,H.T.Kuipers-Rietbergtuin,Helena Theodora Kuipers-Rietbergtuin,1705HJ,1705HJ,42,42.0,,,,,Heerhugowaard,Heerhugowaard,537655.353991784,6917530.272061341
398200000016382,398200000016382,R. Neter-Montanhestuin,Rachel Neter-Montanhestuin,1705HG,1705HG,45,45.0,,,,,Heerhugowaard,Heerhugowaard,537776.3045395154,6917656.660755365
398200000006802,398200000006802,H. Roland Holstlaan,Henriette Roland Holstlaan,1703SZ,1703SZ,33,33.0,,,,,Heerhugowaard,Heerhugowaard,537174.997171448,6921643.5301482845
398200000000146,398200000000146,A.C. op 't Landtplnts,Anna Clasina op 't Landtplantsoen,1705GT,1705GT,65,65.0,,,,,Heerhugowaard,Heerhugowaard,537711.4826223353,6918056.197572965
398200000006992,398200000006992,H.T.Kuipers-Rietbergtuin,Helena Theodora Kuipers-Rietbergtuin,1705HJ,1705HJ,32,32.0,,,,,Heerhugowaard,Heerhugowaard,537683.789081421,6917560.415030419
398200000003728,398200000003728,Const. Huygensstraat,C. Huygensstraat,1702EZ,1702EZ,138,138.0,,,,,Heerhugowaard,Heerhugowaard,538385.0712194422,6921549.303099044
398200000006957,398200000006957,H.Henriquez Pimenteltuin,Henriette Henriquez Pimenteltuin,1705HW,1705HW,32,32.0,,,,,Heerhugowaard,Heerhugowaard,537390.773834179,6917755.6331528695
398200000019077,398200000019077,St Annaplein,Sint Annaplein,1704BP,1704BP,5,5.0,,,,,Heerhugowaard,Heerhugowaard,540039.0106389751,6928834.5112627875
398200000000218,398200000000218,A.L. Salomonstuin,Anna Louisa Salomonstuin,1705HN,1705HN,12,12.0,,,,,Heerhugowaard,Heerhugowaard,537483.8695782477,6917985.569360309
398200000000107,398200000000107,A.C. op 't Landtplnts,Anna Clasina op 't Landtplantsoen,1705GS,1705GS,27,27.0,,,,,Heerhugowaard,Heerhugowaard,537458.8941655527,6918344.999981278
398200000006813,398200000006813,H. Roland Holstlaan,Henriette Roland Holstlaan,1703SZ,1703SZ,55,55.0,,,,,Heerhugowaard,Heerhugowaard,537172.3996796571,6921641.711767255
398200000019898,398200000019898,T. de Vriestuin,Tilly de Vriestuin,1705HL,1705HL,2,2.0,,,,,Heerhugowaard,Heerhugowaard,537644.2477202513,6917852.58889685
398200000003649,398200000003649,Const. Huygensstraat,C. Huygensstraat,1702EW,1702EW,52,52.0,K,K,,,Heerhugowaard,Heerhugowaard,538272.6857908904,6921285.747495933
398200000003650,398200000003650,Const. Huygensstraat,C. Huygensstraat,1702EW,1702EW,52,52.0,L,L,,,Heerhugowaard,Heerhugowaard,538279.5637403671,6921284.7163043255
398200000003603,398200000003603,Const. Huygensstraat,C. Huygensstraat,1702EV,1702EV,23,23.0,,,,,Heerhugowaard,Heerhugowaard,538232.9740297496,6921480.009531853
398200000019916,398200000019916,T. de Vriestuin,Tilly de Vriestuin,1705HL,1705HL,20,20.0,,,,,Heerhugowaard,Heerhugowaard,537578.0939715058,6917815.634939813
398200000000098,398200000000098,A.C. op 't Landtplnts,Anna Clasina op 't Landtplantsoen,1705GV,1705GV,18,18.0,,,,,Heerhugowaard,Heerhugowaard,537396.8341994425,6918332.1957490435
398200000008503,398200000008503,J. Duikerweg,Jan Duikerweg,1703DH,1703DH,17,17.0,B,B,,,Heerhugowaard,Heerhugowaard,535785.6671763959,6920729.293932587
398200000006944,398200000006944,H.Henriquez Pimenteltuin,Henriette Henriquez Pimenteltuin,1705HW,1705HW,10,10.0,,,,,Heerhugowaard,Heerhugowaard,537301.2538511009,6917625.960979908
398200000003103,398200000003103,C.F. Kuijken-vd Eijndetn,C.F. Kuijken-van der Eijndetuin,1705HX,1705HX,6,6.0,,,,,Heerhugowaard,Heerhugowaard,537416.8298558699,6917654.310079058
398200000016377,398200000016377,R. Neter-Montanhestuin,Rachel Neter-Montanhestuin,1705HH,1705HH,40,40.0,,,,,Heerhugowaard,Heerhugowaard,537786.7886268859,6917662.214192504
398200000008628,398200000008628,J.C. Langerhorsttuin,Jantina Cristina Langerhorsttuin,1705HP,1705HP,5,5.0,,,,,Heerhugowaard,Heerhugowaard,537472.9346060638,6918031.648567373
398200000000099,398200000000099,A.C. op 't Landtplnts,Anna Clasina op 't Landtplantsoen,1705GS,1705GS,19,19.0,,,,,Heerhugowaard,Heerhugowaard,537419.2710635503,6918390.398723347
398200000000202,398200000000202,A.I. van Hardenbroek erf,Aleida Ingeborg van Hardenbroek erf,1705HT,1705HT,10,10.0,,,,,Heerhugowaard,Heerhugowaard,537869.298713462,6917539.9566611815
398200000003674,398200000003674,Const. Huygensstraat,C. Huygensstraat,1702EX,1702EX,72,72.0,,,,,Heerhugowaard,Heerhugowaard,538299.9569526886,6921388.527938187
398200000006832,398200000006832,H. Roland Holstlaan,Henriette Roland Holstlaan,1703SZ,1703SZ,93,93.0,,,,,Heerhugowaard,Heerhugowaard,537184.3201106016,6921619.236893394
398200000006818,398200000006818,H. Roland Holstlaan,Henriette Roland Holstlaan,1703SZ,1703SZ,65,65.0,,,,,Heerhugowaard,Heerhugowaard,537214.4695584348,6921601.973374654
398200000000817,398200000000817,Ank van der Moerplnts,Ank van der Moerplantsoen,1705LV,1705LV,26,26.0,,,,,Heerhugowaard,Heerhugowaard,536467.352832578,6918874.0388017995
398200000003569,398200000003569,Const. Huygensstraat,C. Huygensstraat,1702EV,1702EV,5,5.0,,,,,Heerhugowaard,Heerhugowaard,538141.6486199199,6921398.375223228
398200000008634,398200000008634,J.C. Langerhorsttuin,Jantina Cristina Langerhorsttuin,1705HP,1705HP,11,11.0,,,,,Heerhugowaard,Heerhugowaard,537454.9120610239,6918012.837864457
398200000008635,398200000008635,J.C. Langerhorsttuin,Jantina Cristina Langerhorsttuin,1705HP,1705HP,12,12.0,,,,,Heerhugowaard,Heerhugowaard,537400.8085388415,6918072.371067524
398200000003685,398200000003685,Const. Huygensstraat,C. Huygensstraat,1702EX,1702EX,94,94.0,,,,,Heerhugowaard,Heerhugowaard,538324.2064852837,6921439.512263156
398200000003639,398200000003639,Const. Huygensstraat,C. Huygensstraat,1702EW,1702EW,52,52.0,A,A,,,Heerhugowaard,Heerhugowaard,538271.2733263018,6921309.176069712
398200000006948,398200000006948,H.Henriquez Pimenteltuin,Henriette Henriquez Pimenteltuin,1705HW,1705HW,14,14.0,,,,,Heerhugowaard,Heerhugowaard,537299.0050390768,6917659.628329386
398200000016395,398200000016395,R. Prinsen Geerligstuin,Reina Prinsen Geerligstuin,1705HK,1705HK,7,7.0,,,,,Heerhugowaard,Heerhugowaard,537667.3317469737,6917696.50269288
398200000011904,398200000011904,M. Zegwaart-de Korte erf,Maria Zegwaart-de Korte erf,1705GP,1705GP,6,6.0,,,,,Heerhugowaard,Heerhugowaard,538028.1270691026,6917661.444168336
398200000016396,398200000016396,R. Prinsen Geerligstuin,Reina Prinsen Geerligstuin,1705HK,1705HK,9,9.0,,,,,Heerhugowaard,Heerhugowaard,537662.1168367639,6917689.769602409
398200000000179,398200000000179,A.C. op 't Landtplnts,Anna Clasina op 't Landtplantsoen,1705GW,1705GW,108,108.0,,,,,Heerhugowaard,Heerhugowaard,537695.9639357814,6917978.158386268
398200000008703,398200000008703,J.W. van der Noordaatuin,Juliana Wilhelmina van der Noordaatuin,1705HM,1705HM,14,14.0,,,,,Heerhugowaard,Heerhugowaard,537533.9508815741,6917899.897645084
398200000003607,398200000003607,Const. Huygensstraat,C. Huygensstraat,1702EW,1702EW,26,26.0,,,,,Heerhugowaard,Heerhugowaard,538185.17415797,6921327.4843752375
398200000005033,398200000005033,E. ten Boom erf,Elisabeth ten Boom erf,1705JB,1705JB,5,5.0,,,,,Heerhugowaard,Heerhugowaard,537695.9116660433,6917380.470435593
398200000003110,398200000003110,C.F. Kuijken-vd Eijndetn,C.F. Kuijken-van der Eijndetuin,1705HX,1705HX,13,13.0,,,,,Heerhugowaard,Heerhugowaard,537499.3674927773,6917527.062286744
398200000006817,398200000006817,H. Roland Holstlaan,Henriette Roland Holstlaan,1703SZ,1703SZ,63,63.0,,,,,Heerhugowaard,Heerhugowaard,537222.8562970515,6921593.371219816
398200000019082,398200000019082,St Annaplein,Sint Annaplein,1704BP,1704BP,15,15.0,,,,,Heerhugowaard,Heerhugowaard,540051.0728991784,6928827.502605456
398200000003566,398200000003566,Const. Huygensstraat,C. Huygensstraat,1702EW,1702EW,2,2.0,,,,,Heerhugowaard,Heerhugowaard,538208.5807251503,6921207.347755191
398200000006961,398200000006961,H.Henriquez Pimenteltuin,Henriette Henriquez Pimenteltuin,1705HW,1705HW,40,40.0,,,,,Heerhugowaard,Heerhugowaard,537455.4071625258,6917741.084826922
398200000003645,398200000003645,Const. Huygensstraat,C. Huygensstraat,1702EW,1702EW,52,52.0,G,G,,,Heerhugowaard,Heerhugowaard,538249.20967071,6921289.761218191
398200000005561,398200000005561,Esther de Boer-v Rijkprk,Esther de Boer van Rijkpark,1705LN,1705LN,9,9.0,,,,,Heerhugowaard,Heerhugowaard,536426.1031384857,6918655.4009108
398200000008474,398200000008474,J. Duikerweg,Jan Duikerweg,1703DH,1703DH,2,2.0,,,,,Heerhugowaard,Heerhugowaard,535958.9109619405,6921035.29665238
398200000006958,398200000006958,H.Henriquez Pimenteltuin,Henriette Henriquez Pimenteltuin,1705HW,1705HW,34,34.0,,,,,Heerhugowaard,Heerhugowaard,537412.5624613793,6917755.023868855
398200000016360,398200000016360,R. Neter-Montanhestuin,Rachel Neter-Montanhestuin,1705HG,1705HG,23,23.0,,,,,Heerhugowaard,Heerhugowaard,537760.0923708099,6917660.44523622
398200000016340,398200000016340,R. Neter-Montanhestuin,Rachel Neter-Montanhestuin,1705HG,1705HG,3,3.0,,,,,Heerhugowaard,Heerhugowaard,537750.6443404765,6917672.489969761
398200000011905,398200000011905,M. Zegwaart-de Korte erf,Maria Zegwaart-de Korte erf,1705GP,1705GP,7,7.0,,,,,Heerhugowaard,Heerhugowaard,538038.3376377882,6917649.858421042
398200000008636,398200000008636,J.C. Langerhorsttuin,Jantina Cristina Langerhorsttuin,1705HP,1705HP,13,13.0,,,,,Heerhugowaard,Heerhugowaard,537448.9599215639,6918006.570258531
398200000014684,398200000014684,Noordscharwouderpolderwg,Noordscharwouderpolderweg,1704PJ,1704PJ,20,20.0,,,,,Heerhugowaard,Heerhugowaard,538314.4133849503,6928529.460006244
398200000003588,398200000003588,Const. Huygensstraat,C. Huygensstraat,1702EW,1702EW,14,14.0,,,,,Heerhugowaard,Heerhugowaard,538217.4419312523,6921277.324151597
398200000000122,398200000000122,A.C. op 't Landtplnts,Anna Clasina op 't Landtplantsoen,1705GV,1705GV,42,42.0,,,,,Heerhugowaard,Heerhugowaard,537474.3776464653,6918242.401789836
398200000016342,398200000016342,R. Neter-Montanhestuin,Rachel Neter-Montanhestuin,1705HG,1705HG,5,5.0,,,,,Heerhugowaard,Heerhugowaard,537768.4928263827,6917683.963653991
398200000000141,398200000000141,A.C. op 't Landtplnts,Anna Clasina op 't Landtplantsoen,1705GW,1705GW,60,60.0,,,,,Heerhugowaard,Heerhugowaard,537544.4138679671,6918151.519384809
398200000008638,398200000008638,J.C. Langerhorsttuin,Jantina Cristina Langerhorsttuin,1705HP,1705HP,15,15.0,,,,,Heerhugowaard,Heerhugowaard,537443.3827853221,6918000.307208576
398200000003716,398200000003716,Const. Huygensstraat,C. Huygensstraat,1702EZ,1702EZ,114,114.0,,,,,Heerhugowaard,Heerhugowaard,538425.7099939168,6921435.158593005
398200000006921,398200000006921,H.A. Haak-van Eektuin,Henriette Augusta Haak- van Eektuin,1705HR,1705HR,8,8.0,,,,,Heerhugowaard,Heerhugowaard,537349.9596943477,6918158.70566558
398200000000161,398200000000161,A.C. op 't Landtplnts,Anna Clasina op 't Landtplantsoen,1705GW,1705GW,80,80.0,,,,,Heerhugowaard,Heerhugowaard,537605.0826325044,6918082.227363663
398200000000165,398200000000165,A.C. op 't Landtplnts,Anna Clasina op 't Landtplantsoen,1705GW,1705GW,84,84.0,,,,,Heerhugowaard,Heerhugowaard,537622.8848914211,6918061.090094782
398200000019897,398200000019897,T. de Vriestuin,Tilly de Vriestuin,1705HL,1705HL,1,1.0,,,,,Heerhugowaard,Heerhugowaard,537676.0640327187,6917815.732493163
398200000003623,398200000003623,Const. Huygensstraat,C. Huygensstraat,1702EV,1702EV,37,37.0,F,F,,,Heerhugowaard,Heerhugowaard,538308.2092112591,6921541.721334596
398200000000134,398200000000134,A.C. op 't Landtplnts,Anna Clasina op 't Landtplantsoen,1705GV,1705GV,54,54.0,,,,,Heerhugowaard,Heerhugowaard,537508.3180865889,6918196.37916873
398200000007481,398200000007481,Henriette Bosmansplnts,Henriette Bosmansplantsoen,1705LA,1705LA,11,11.0,,,,,Heerhugowaard,Heerhugowaard,536562.5015661543,6919348.368545181
398200000003686,398200000003686,Const. Huygensstraat,C. Huygensstraat,1702EX,1702EX,96,96.0,,,,,Heerhugowaard,Heerhugowaard,538329.8875843245,6921433.588918344
398200000000200,398200000000200,A.I. van Hardenbroek erf,Aleida Ingeborg van Hardenbroek erf,1705HT,1705HT,8,8.0,,,,,Heerhugowaard,Heerhugowaard,537886.2476239447,6917512.307316089
398200000016403,398200000016403,R. Prinsen Geerligstuin,Reina Prinsen Geerligstuin,1705HK,1705HK,23,23.0,,,,,Heerhugowaard,Heerhugowaard,537638.5684440013,6917638.39666547
398200000019918,398200000019918,T. de Vriestuin,Tilly de Vriestuin,1705HL,1705HL,24,24.0,,,,,Heerhugowaard,Heerhugowaard,537562.4570728022,6917807.0270642005
398200000005555,398200000005555,Esther de Boer-v Rijkprk,Esther de Boer van Rijkpark,1705LN,1705LN,3,3.0,,,,,Heerhugowaard,Heerhugowaard,536544.1782149555,6918605.741562972
398200000014681,398200000014681,Noordscharwouderpolderwg,Noordscharwouderpolderweg,1704PJ,1704PJ,19,19.0,A,A,,,Heerhugowaard,Heerhugowaard,538044.7717323126,6929153.62911067
398200000016359,398200000016359,R. Neter-Montanhestuin,Rachel Neter-Montanhestuin,1705HH,1705HH,22,22.0,,,,,Heerhugowaard,Heerhugowaard,537768.6126331994,6917668.133691294
398200000003572,398200000003572,Const. Huygensstraat,C. Huygensstraat,1702EW,1702EW,8,8.0,A,A,,,Heerhugowaard,Heerhugowaard,538249.3101263888,6921223.399964931
398200000008694,398200000008694,J.W. van der Noordaatuin,Juliana Wilhelmina van der Noordaatuin,1705HM,1705HM,5,5.0,,,,,Heerhugowaard,Heerhugowaard,537608.4617199152,6917879.232567479
398200000008473,398200000008473,J. Duikerweg,Jan Duikerweg,1703DH,1703DH,1,1.0,,,,,Heerhugowaard,Heerhugowaard,536065.4860504157,6920976.401406166
398200000005563,398200000005563,Esther de Boer-v Rijkprk,Esther de Boer van Rijkpark,1705LN,1705LN,11,11.0,,,,,Heerhugowaard,Heerhugowaard,536386.1648068187,6918702.510551023
398200000000089,398200000000089,A.C. op 't Landtplnts,Anna Clasina op 't Landtplantsoen,1705GV,1705GV,8,8.0,,,,,Heerhugowaard,Heerhugowaard,537359.3613179779,6918361.12060072
398200000006807,398200000006807,H. Roland Holstlaan,Henriette Roland Holstlaan,1703SZ,1703SZ,43,43.0,,,,,Heerhugowaard,Heerhugowaard,537217.0683240272,6921603.626775245
398200000014674,398200000014674,Noordscharwouderpolderwg,Noordscharwouderpolderweg,1704PJ,1704PJ,11,11.0,,,,,Heerhugowaard,Heerhugowaard,538236.2869793528,6928355.2441434
398200000014685,398200000014685,Noordscharwouderpolderwg,Noordscharwouderpolderweg,1704PJ,1704PJ,22,22.0,,,,,Heerhugowaard,Heerhugowaard,538290.6409485395,6928674.385286756
398200000003120,398200000003120,C.F. Kuijken-vd Eijndetn,C.F. Kuijken-van der Eijndetuin,1705HX,1705HX,23,23.0,,,,,Heerhugowaard,Heerhugowaard,537445.3308005534,6917559.198590198
398200000006956,398200000006956,H.Henriquez Pimenteltuin,Henriette Henriquez Pimenteltuin,1705HW,1705HW,30,30.0,,,,,Heerhugowaard,Heerhugowaard,537379.6010143455,6917753.876141531
398200000003705,398200000003705,Const. Huygensstraat,C. Huygensstraat,1702EZ,1702EZ,112,112.0,E,E,,,Heerhugowaard,Heerhugowaard,538463.5721720558,6921415.28381844
398200000000802,398200000000802,Ank van der Moerplnts,Ank van der Moerplantsoen,1705LV,1705LV,11,11.0,,,,,Heerhugowaard,Heerhugowaard,536461.3977195178,6918954.885147936
398200000000176,398200000000176,A.C. op 't Landtplnts,Anna Clasina op 't Landtplantsoen,1705GW,1705GW,102,102.0,,,,,Heerhugowaard,Heerhugowaard,537683.4103815086,6918002.563111825
398200000003605,398200000003605,Const. Huygensstraat,C. Huygensstraat,1702EV,1702EV,25,25.0,,,,,Heerhugowaard,Heerhugowaard,538241.7492216243,6921487.8745976975
398200000000813,398200000000813,Ank van der Moerplnts,Ank van der Moerplantsoen,1705LV,1705LV,22,22.0,,,,,Heerhugowaard,Heerhugowaard,536453.0688958488,6918883.699049335
398200000005948,398200000005948,G. van Lier erf,Geertruida van Lier erf,1703RN,1703RN,3,3.0,,,,,Heerhugowaard,Heerhugowaard,537728.7685031947,6917335.706423642
398200000000125,398200000000125,A.C. op 't Landtplnts,Anna Clasina op 't Landtplantsoen,1705GT,1705GT,45,45.0,,,,,Heerhugowaard,Heerhugowaard,537615.9750777703,6918170.333616424
398200000000050,398200000000050,A. Heringa-Jongbloedtuin,Anna Heringa-Jongbloedtuin,1705HS,1705HS,14,14.0,,,,,Heerhugowaard,Heerhugowaard,537226.5405380473,6918195.163691481
398200000005579,398200000005579,Esther de Boer-v Rijkprk,Esther de Boer van Rijkpark,1705LN,1705LN,27,27.0,,,,,Heerhugowaard,Heerhugowaard,536564.1964067001,6918651.33752699
398200000008514,398200000008514,J. Slagter-Dingsdagtuin,Johanna Slagter-Dingsdagtuin,1705HV,1705HV,15,15.0,,,,,Heerhugowaard,Heerhugowaard,537583.4994016635,6917536.203279633
398200000000113,398200000000113,A.C. op 't Landtplnts,Anna Clasina op 't Landtplantsoen,1705GS,1705GS,33,33.0,,,,,Heerhugowaard,Heerhugowaard,537479.4495677764,6918309.53729168
398200000008494,398200000008494,J. Duikerweg,Jan Duikerweg,1703DH,1703DH,12,12.0,C,C,,,Heerhugowaard,Heerhugowaard,535792.8998948834,6920900.599651928
398200000014677,398200000014677,Noordscharwouderpolderwg,Noordscharwouderpolderweg,1704PJ,1704PJ,15,15.0,A,A,,,Heerhugowaard,Heerhugowaard,538203.9138346687,6928608.108046954
398200000016367,398200000016367,R. Neter-Montanhestuin,Rachel Neter-Montanhestuin,1705HH,1705HH,30,30.0,,,,,Heerhugowaard,Heerhugowaard,537775.8494572074,6917639.654066141
398200000005560,398200000005560,Esther de Boer-v Rijkprk,Esther de Boer van Rijkpark,1705LN,1705LN,8,8.0,,,,,Heerhugowaard,Heerhugowaard,536611.4014217146,6918494.100945175
398200000006962,398200000006962,H.Henriquez Pimenteltuin,Henriette Henriquez Pimenteltuin,1705HW,1705HW,42,42.0,,,,,Heerhugowaard,Heerhugowaard,537471.455587201,6917730.417182323
398200000000140,398200000000140,A.C. op 't Landtplnts,Anna Clasina op 't Landtplantsoen,1705GT,1705GT,59,59.0,,,,,Heerhugowaard,Heerhugowaard,537687.0717620286,6918086.290631976
398200000008517,398200000008517,J. Slagter-Dingsdagtuin,Johanna Slagter-Dingsdagtuin,1705HV,1705HV,21,21.0,,,,,Heerhugowaard,Heerhugowaard,537570.2186555733,6917567.089122408
398200000019084,398200000019084,St Annaplein,Sint Annaplein,1704BP,1704BP,19,19.0,,,,,Heerhugowaard,Heerhugowaard,540028.4803405969,6928828.351836731
398200000000815,398200000000815,Ank van der Moerplnts,Ank van der Moerplantsoen,1705LV,1705LV,24,24.0,,,,,Heerhugowaard,Heerhugowaard,536459.76661314,6918878.985815503
398200000000804,398200000000804,Ank van der Moerplnts,Ank van der Moerplantsoen,1705LV,1705LV,13,13.0,,,,,Heerhugowaard,Heerhugowaard,536470.7100710191,6918944.217619312
398200000025748,398200000025748,J. Duikerweg,Jan Duikerweg,1703DH,1703DH,9,9.0,,,,,Heerhugowaard,Heerhugowaard,535853.8871116302,6920790.774335659
398200000019086,398200000019086,St Annaplein,Sint Annaplein,1704BP,1704BP,23,23.0,,,,,Heerhugowaard,Heerhugowaard,540006.9534776958,6928829.862781495
398200000000222,398200000000222,A.L. Salomonstuin,Anna Louisa Salomonstuin,1705HN,1705HN,16,16.0,,,,,Heerhugowaard,Heerhugowaard,537470.9991623149,6917975.033508591
398200000000103,398200000000103,A.C. op 't Landtplnts,Anna Clasina op 't Landtplantsoen,1705GS,1705GS,23,23.0,,,,,Heerhugowaard,Heerhugowaard,537439.9804968394,6918368.272743018
398200000016356,398200000016356,R. Neter-Montanhestuin,Rachel Neter-Montanhestuin,1705HG,1705HG,19,19.0,,,,,Heerhugowaard,Heerhugowaard,537757.929833118,6917662.969477605
398200000019917,398200000019917,T. de Vriestuin,Tilly de Vriestuin,1705HL,1705HL,22,22.0,,,,,Heerhugowaard,Heerhugowaard,537570.0815809304,6917810.990654228
398200000000219,398200000000219,A.L. Salomonstuin,Anna Louisa Salomonstuin,1705HN,1705HN,13,13.0,,,,,Heerhugowaard,Heerhugowaard,537511.7305277939,6917931.729678529
398200000003617,398200000003617,Const. Huygensstraat,C. Huygensstraat,1702EW,1702EW,36,36.0,,,,,Heerhugowaard,Heerhugowaard,538197.8662199702,6921381.903783267
398200000019913,398200000019913,T. de Vriestuin,Tilly de Vriestuin,1705HL,1705HL,17,17.0,,,,,Heerhugowaard,Heerhugowaard,537565.4934662828,6917748.471738491
398200000006839,398200000006839,H. Roland Holstlaan,Henriette Roland Holstlaan,1703SZ,1703SZ,105,105.0,B,B,,,Heerhugowaard,Heerhugowaard,537168.4416731169,6921733.296784881
398200000000142,398200000000142,A.C. op 't Landtplnts,Anna Clasina op 't Landtplantsoen,1705GT,1705GT,61,61.0,,,,,Heerhugowaard,Heerhugowaard,537693.3778609858,6918079.273515757
398200000000086,398200000000086,A.C. op 't Landtplnts,Anna Clasina op 't Landtplantsoen,1705GV,1705GV,2,2.0,,,,,Heerhugowaard,Heerhugowaard,537342.3641512383,6918382.203311339
398200000003599,398200000003599,Const. Huygensstraat,C. Huygensstraat,1702EV,1702EV,19,19.0,,,,,Heerhugowaard,Heerhugowaard,538219.3603137099,6921468.113622416
398200000016399,398200000016399,R. Prinsen Geerligstuin,Reina Prinsen Geerligstuin,1705HK,1705HK,15,15.0,,,,,Heerhugowaard,Heerhugowaard,537649.7593534415,6917668.812522262
398200000008526,398200000008526,J. Slagter-Dingsdagtuin,Johanna Slagter-Dingsdagtuin,1705HV,1705HV,39,39.0,,,,,Heerhugowaard,Heerhugowaard,537536.4953940834,6917643.391586219
398200000003578,398200000003578,Const. Huygensstraat,C. Huygensstraat,1702EW,1702EW,8,8.0,G,G,,,Heerhugowaard,Heerhugowaard,538271.0507369837,6921243.9405164
398200000003118,398200000003118,C.F. Kuijken-vd Eijndetn,C.F. Kuijken-van der Eijndetuin,1705HX,1705HX,21,21.0,,,,,Heerhugowaard,Heerhugowaard,537464.1745987687,6917529.808723612
398200000006919,398200000006919,H.A. Haak-van Eektuin,Henriette Augusta Haak- van Eektuin,1705HR,1705HR,6,6.0,,,,,Heerhugowaard,Heerhugowaard,537356.8344218009,6918163.513032285
398200000008695,398200000008695,J.W. van der Noordaatuin,Juliana Wilhelmina van der Noordaatuin,1705HM,1705HM,6,6.0,,,,,Heerhugowaard,Heerhugowaard,537562.0489995396,6917917.089114394
398200000000160,398200000000160,A.C. op 't Landtplnts,Anna Clasina op 't Landtplantsoen,1705GT,1705GT,79,79.0,,,,,Heerhugowaard,Heerhugowaard,537792.4166886755,6917966.814000893
398200000000157,398200000000157,A.C. op 't Landtplnts,Anna Clasina op 't Landtplantsoen,1705GW,1705GW,76,76.0,,,,,Heerhugowaard,Heerhugowaard,537597.6390831459,6918098.10869444
398200000008700,398200000008700,J.W. van der Noordaatuin,Juliana Wilhelmina van der Noordaatuin,1705HM,1705HM,11,11.0,,,,,Heerhugowaard,Heerhugowaard,537587.6114206278,6917864.737307497
398200000000828,398200000000828,Ank van der Moerplnts,Ank van der Moerplantsoen,1705LV,1705LV,41,41.0,,,,,Heerhugowaard,Heerhugowaard,536542.0414261947,6918848.558799676
398200000003589,398200000003589,Const. Huygensstraat,C. Huygensstraat,1702EV,1702EV,15,15.0,,,,,Heerhugowaard,Heerhugowaard,538179.0684645323,6921432.499351798
398200000014669,398200000014669,Noordscharwouderpolderwg,Noordscharwouderpolderweg,1704PJ,1704PJ,6,6.0,A,A,,,Heerhugowaard,Heerhugowaard,538506.4208986987,6927905.032694455
398200000003116,398200000003116,C.F. Kuijken-vd Eijndetn,C.F. Kuijken-van der Eijndetuin,1705HX,1705HX,19,19.0,,,,,Heerhugowaard,Heerhugowaard,537482.7520031683,6917501.460574622
398200000005569,398200000005569,Esther de Boer-v Rijkprk,Esther de Boer van Rijkpark,1705LN,1705LN,17,17.0,,,,,Heerhugowaard,Heerhugowaard,536450.9392488782,6918674.725872868
398200000006784,398200000006784,H. Blokland-Pater erf,Hendrika Blokland-Pater erf,1705GR,1705GR,6,6.0,,,,,Heerhugowaard,Heerhugowaard,537985.8993837263,6917622.833029148
398200000014678,398200000014678,Noordscharwouderpolderwg,Noordscharwouderpolderweg,1704PJ,1704PJ,15,15.0,,,,,Heerhugowaard,Heerhugowaard,538191.138219615,6928571.760300955
398200000016372,398200000016372,R. Neter-Montanhestuin,Rachel Neter-Montanhestuin,1705HG,1705HG,35,35.0,,,,,Heerhugowaard,Heerhugowaard,537794.9597378065,6917664.818090568
398200000008516,398200000008516,J. Slagter-Dingsdagtuin,Johanna Slagter-Dingsdagtuin,1705HV,1705HV,19,19.0,,,,,Heerhugowaard,Heerhugowaard,537576.8282074224,6917552.874346808
398200000008511,398200000008511,J. Slagter-Dingsdagtuin,Johanna Slagter-Dingsdagtuin,1705HV,1705HV,9,9.0,,,,,Heerhugowaard,Heerhugowaard,537592.4457143699,6917508.573464482
398200000000091,398200000000091,A.C. op 't Landtplnts,Anna Clasina op 't Landtplantsoen,1705GS,1705GS,11,11.0,,,,,Heerhugowaard,Heerhugowaard,537337.0785995529,6918452.509899003
398200000008524,398200000008524,J. Slagter-Dingsdagtuin,Johanna Slagter-Dingsdagtuin,1705HV,1705HV,35,35.0,,,,,Heerhugowaard,Heerhugowaard,537544.700578181,6917627.459387475
398200000019904,398200000019904,T. de Vriestuin,Tilly de Vriestuin,1705HL,1705HL,8,8.0,,,,,Heerhugowaard,Heerhugowaard,537622.3374008622,6917841.399898789
398200000016405,398200000016405,R. Prinsen Geerligstuin,Reina Prinsen Geerligstuin,1705HK,1705HK,27,27.0,,,,,Heerhugowaard,Heerhugowaard,537636.2413813532,6917621.883392226
398200000016351,398200000016351,R. Neter-Montanhestuin,Rachel Neter-Montanhestuin,1705HH,1705HH,14,14.0,,,,,Heerhugowaard,Heerhugowaard,537764.8742851357,6917672.599707153
398200000007485,398200000007485,Henriette Bosmansplnts,Henriette Bosmansplantsoen,1705LA,1705LA,19,19.0,,,,,Heerhugowaard,Heerhugowaard,536519.680252646,6919396.913197594
398200000003128,398200000003128,C.M. Smoorenburg erf,Christina Maria Smoorenburg erf,1705JC,1705JC,7,7.0,,,,,Heerhugowaard,Heerhugowaard,537625.02852663,6917276.293698761
398200000003697,398200000003697,Const. Huygensstraat,C. Huygensstraat,1702EX,1702EX,104,104.0,,,,,Heerhugowaard,Heerhugowaard,538357.4793285625,6921402.118391574
398200000016358,398200000016358,R. Neter-Montanhestuin,Rachel Neter-Montanhestuin,1705HG,1705HG,21,21.0,,,,,Heerhugowaard,Heerhugowaard,537775.9710174375,6917674.837050937
398200000005947,398200000005947,G. van Lier erf,Geertruida van Lier erf,1703RN,1703RN,2,2.0,,,,,Heerhugowaard,Heerhugowaard,537692.2739748432,6917301.616003281
398200000000148,398200000000148,A.C. op 't Landtplnts,Anna Clasina op 't Landtplantsoen,1705GT,1705GT,67,67.0,,,,,Heerhugowaard,Heerhugowaard,537726.0963508041,6918041.543952494
398200000019899,398200000019899,T. de Vriestuin,Tilly de Vriestuin,1705HL,1705HL,3,3.0,,,,,Heerhugowaard,Heerhugowaard,537665.795532801,6917808.221571593
398200000000827,398200000000827,Ank van der Moerplnts,Ank van der Moerplantsoen,1705LV,1705LV,39,39.0,,,,,Heerhugowaard,Heerhugowaard,536537.3855338333,6918855.761821161
398200000006922,398200000006922,H.A. Haak-van Eektuin,Henriette Augusta Haak- van Eektuin,1705HR,1705HR,9,9.0,,,,,Heerhugowaard,Heerhugowaard,537385.3090590863,6918111.121858827
398200000003127,398200000003127,C.M. Smoorenburg erf,Christina Maria Smoorenburg erf,1705JC,1705JC,6,6.0,,,,,Heerhugowaard,Heerhugowaard,537608.0823283615,6917296.053839223
398200000006791,398200000006791,H. Roland Holstlaan,Henriette Roland Holstlaan,1703SZ,1703SZ,11,11.0,,,,,Heerhugowaard,Heerhugowaard,537221.7645718466,6921607.916183232
398200000006794,398200000006794,H. Roland Holstlaan,Henriette Roland Holstlaan,1703SZ,1703SZ,17,17.0,,,,,Heerhugowaard,Heerhugowaard,537193.3909722578,6921627.484973509
398200000006837,398200000006837,H. Roland Holstlaan,Henriette Roland Holstlaan,1703SZ,1703SZ,103,103.0,,,,,Heerhugowaard,Heerhugowaard,537183.8195287616,6921662.405276689
398200000000180,398200000000180,A.C. op 't Landtplnts,Anna Clasina op 't Landtplantsoen,1705GX,1705GX,110,110.0,,,,,Heerhugowaard,Heerhugowaard,537708.5686470387,6917966.572944016
398200000007480,398200000007480,Henriette Bosmansplnts,Henriette Bosmansplantsoen,1705LA,1705LA,9,9.0,,,,,Heerhugowaard,Heerhugowaard,536576.2280065527,6919332.879776269
398200000000208,398200000000208,A.L. Salomonstuin,Anna Louisa Salomonstuin,1705HN,1705HN,2,2.0,,,,,Heerhugowaard,Heerhugowaard,537516.668649118,6918013.044135423
398200000008639,398200000008639,J.C. Langerhorsttuin,Jantina Cristina Langerhorsttuin,1705HP,1705HP,16,16.0,,,,,Heerhugowaard,Heerhugowaard,537387.3860557483,6918063.4565597065
398200000000192,398200000000192,A.C. op 't Landtplnts,Anna Clasina op 't Landtplantsoen,1705GX,1705GX,134,134.0,,,,,Heerhugowaard,Heerhugowaard,537776.8813520957,6917878.859093864
398200000006953,398200000006953,H.Henriquez Pimenteltuin,Henriette Henriquez Pimenteltuin,1705HW,1705HW,24,24.0,,,,,Heerhugowaard,Heerhugowaard,537332.1503633615,6917727.188217629
398200000008477,398200000008477,J. Duikerweg,Jan Duikerweg,1703DH,1703DH,5,5.0,,,,,Heerhugowaard,Heerhugowaard,535929.4407377616,6920844.273064519
398200000000194,398200000000194,A.I. van Hardenbroek erf,Aleida Ingeborg van Hardenbroek erf,1705HT,1705HT,2,2.0,,,,,Heerhugowaard,Heerhugowaard,537880.702040831,6917614.4640223
398200000000796,398200000000796,Ank van der Moerplnts,Ank van der Moerplantsoen,1705LV,1705LV,5,5.0,,,,,Heerhugowaard,Heerhugowaard,536444.4581099596,6918974.0417735595
398200000008627,398200000008627,J.C. Langerhorsttuin,Jantina Cristina Langerhorsttuin,1705HP,1705HP,4,4.0,,,,,Heerhugowaard,Heerhugowaard,537428.9469982043,6918091.837600172
398200000003668,398200000003668,Const. Huygensstraat,C. Huygensstraat,1702EX,1702EX,60,60.0,,,,,Heerhugowaard,Heerhugowaard,538326.365365199,6921312.931144603
398200000000183,398200000000183,A.C. op 't Landtplnts,Anna Clasina op 't Landtplantsoen,1705GX,1705GX,116,116.0,,,,,Heerhugowaard,Heerhugowaard,537731.15222518,6917949.687315557
398200000007484,398200000007484,Henriette Bosmansplnts,Henriette Bosmansplantsoen,1705LA,1705LA,17,17.0,,,,,Heerhugowaard,Heerhugowaard,536531.5884777034,6919383.379285707
398200000000801,398200000000801,Ank van der Moerplnts,Ank van der Moerplantsoen,1705LV,1705LV,10,10.0,,,,,Heerhugowaard,Heerhugowaard,536417.4313481112,6918921.795240528
398200000000199,398200000000199,A.I. van Hardenbroek erf,Aleida Ingeborg van Hardenbroek erf,1705HT,1705HT,7,7.0,,,,,Heerhugowaard,Heerhugowaard,537935.5739873642,6917561.334448321
398200000003121,398200000003121,C.F. Kuijken-vd Eijndetn,C.F. Kuijken-van der Eijndetuin,1705HX,1705HX,24,24.0,,,,,Heerhugowaard,Heerhugowaard,537438.2743430301,6917569.909280106
398200000003678,398200000003678,Const. Huygensstraat,C. Huygensstraat,1702EX,1702EX,80,80.0,,,,,Heerhugowaard,Heerhugowaard,538264.8903611762,6921441.470516513
398200000005571,398200000005571,Esther de Boer-v Rijkprk,Esther de Boer van Rijkpark,1705LN,1705LN,19,19.0,,,,,Heerhugowaard,Heerhugowaard,536459.0139914973,6918711.5426615635
398200000000101,398200000000101,A.C. op 't Landtplnts,Anna Clasina op 't Landtplantsoen,1705GS,1705GS,21,21.0,,,,,Heerhugowaard,Heerhugowaard,537428.5833680375,6918384.392624091
398200000000221,398200000000221,A.L. Salomonstuin,Anna Louisa Salomonstuin,1705HN,1705HN,15,15.0,,,,,Heerhugowaard,Heerhugowaard,537505.6510710734,6917925.977306552
398200000003677,398200000003677,Const. Huygensstraat,C. Huygensstraat,1702EX,1702EX,78,78.0,,,,,Heerhugowaard,Heerhugowaard,538283.5871706427,6921413.803864573
398200000000112,398200000000112,A.C. op 't Landtplnts,Anna Clasina op 't Landtplantsoen,1705GV,1705GV,32,32.0,,,,,Heerhugowaard,Heerhugowaard,537432.9388552149,6918277.601714876
398200000003631,398200000003631,Const. Huygensstraat,C. Huygensstraat,1702EW,1702EW,44,44.0,,,,,Heerhugowaard,Heerhugowaard,538231.5733903666,6921347.161670968
398200000003101,398200000003101,C.F. Kuijken-vd Eijndetn,C.F. Kuijken-van der Eijndetuin,1705HX,1705HX,4,4.0,,,,,Heerhugowaard,Heerhugowaard,537387.8195968119,6917649.542426979
398200000003690,398200000003690,Const. Huygensstraat,C. Huygensstraat,1702EX,1702EX,104,104.0,A,A,,,Heerhugowaard,Heerhugowaard,538368.8105641991,6921395.631135336
398200000008681,398200000008681,J.L. van der Aaplantsoen,Jacqueline Louise van der Aaplantsoen,1705GZ,1705GZ,12,12.0,,,,,Heerhugowaard,Heerhugowaard,537888.8237971026,6917830.578703013
398200000000214,398200000000214,A.L. Salomonstuin,Anna Louisa Salomonstuin,1705HN,1705HN,8,8.0,,,,,Heerhugowaard,Heerhugowaard,537496.8769542801,6917996.693289741
398200000008637,398200000008637,J.C. Langerhorsttuin,Jantina Cristina Langerhorsttuin,1705HP,1705HP,14,14.0,,,,,Heerhugowaard,Heerhugowaard,537393.9323315364,6918068.401451913
398200000005573,398200000005573,Esther de Boer-v Rijkprk,Esther de Boer van Rijkpark,1705LN,1705LN,21,21.0,,,,,Heerhugowaard,Heerhugowaard,536481.4876931426,6918674.001662648
398200000008630,398200000008630,J.C. Langerhorsttuin,Jantina Cristina Langerhorsttuin,1705HP,1705HP,7,7.0,,,,,Heerhugowaard,Heerhugowaard,537468.0766763017,6918026.182583444
398200000008704,398200000008704,J.W. van der Noordaatuin,Juliana Wilhelmina van der Noordaatuin,1705HM,1705HM,15,15.0,,,,,Heerhugowaard,Heerhugowaard,537573.9197776127,6917855.977904532
398200000016397,398200000016397,R. Prinsen Geerligstuin,Reina Prinsen Geerligstuin,1705HK,1705HK,11,11.0,,,,,Heerhugowaard,Heerhugowaard,537657.7839363158,6917683.199970583
398200000019907,398200000019907,T. de Vriestuin,Tilly de Vriestuin,1705HL,1705HL,11,11.0,,,,,Heerhugowaard,Heerhugowaard,537610.1556443452,6917776.624101119
398200000006931,398200000006931,H.A. Haak-van Eektuin,Henriette Augusta Haak- van Eektuin,1705HR,1705HR,18,18.0,,,,,Heerhugowaard,Heerhugowaard,537308.7649364702,6918114.222984604
398200000000820,398200000000820,Ank van der Moerplnts,Ank van der Moerplantsoen,1705LV,1705LV,29,29.0,,,,,Heerhugowaard,Heerhugowaard,536513.2524121131,6918890.695037939
398200000003704,398200000003704,Const. Huygensstraat,C. Huygensstraat,1702EZ,1702EZ,112,112.0,D,D,,,Heerhugowaard,Heerhugowaard,538463.0669497626,6921408.348187744
398200000000207,398200000000207,A.L. Salomonstuin,Anna Louisa Salomonstuin,1705HN,1705HN,1,1.0,,,,,Heerhugowaard,Heerhugowaard,537548.313435614,6917965.296580553
398200000003112,398200000003112,C.F. Kuijken-vd Eijndetn,C.F. Kuijken-van der Eijndetuin,1705HX,1705HX,15,15.0,,,,,Heerhugowaard,Heerhugowaard,537517.4047082996,6917497.934928483
398200000006785,398200000006785,H. Blokland-Pater erf,Hendrika Blokland-Pater erf,1705GR,1705GR,7,7.0,,,,,Heerhugowaard,Heerhugowaard,537996.4927981492,6917611.299797623
398200000019909,398200000019909,T. de Vriestuin,Tilly de Vriestuin,1705HL,1705HL,13,13.0,,,,,Heerhugowaard,Heerhugowaard,537592.1802640458,6917766.680778218
398200000006811,398200000006811,H. Roland Holstlaan,Henriette Roland Holstlaan,1703SZ,1703SZ,51,51.0,,,,,Heerhugowaard,Heerhugowaard,537183.0966896237,6921629.529637435
398200000006918,398200000006918,H.A. Haak-van Eektuin,Henriette Augusta Haak- van Eektuin,1705HR,1705HR,5,5.0,,,,,Heerhugowaard,Heerhugowaard,537397.7263741932,6918121.982654579
398200000003676,398200000003676,Const. Huygensstraat,C. Huygensstraat,1702EX,1702EX,76,76.0,,,,,Heerhugowaard,Heerhugowaard,538288.5426950003,6921405.704096669
398200000016344,398200000016344,R. Neter-Montanhestuin,Rachel Neter-Montanhestuin,1705HG,1705HG,7,7.0,,,,,Heerhugowaard,Heerhugowaard,537752.221508949,6917670.157429213
398200000003653,398200000003653,Const. Huygensstraat,C. Huygensstraat,1702EW,1702EW,52,52.0,,,,,Heerhugowaard,Heerhugowaard,538257.7647505234,6921317.220197794
398200000000826,398200000000826,Ank van der Moerplnts,Ank van der Moerplantsoen,1705LV,1705LV,37,37.0,,,,,Heerhugowaard,Heerhugowaard,536533.1196594263,6918862.314861585
398200000006990,398200000006990,H.T.Kuipers-Rietbergtuin,Helena Theodora Kuipers-Rietbergtuin,1705HJ,1705HJ,28,28.0,,,,,Heerhugowaard,Heerhugowaard,537692.1517125152,6917574.897198457
398200000000819,398200000000819,Ank van der Moerplnts,Ank van der Moerplantsoen,1705LV,1705LV,28,28.0,,,,,Heerhugowaard,Heerhugowaard,536474.194014102,6918869.69939291
398200000008507,398200000008507,J. Slagter-Dingsdagtuin,Johanna Slagter-Dingsdagtuin,1705HV,1705HV,1,1.0,,,,,Heerhugowaard,Heerhugowaard,537606.0643069744,6917474.369659933
398200000005039,398200000005039,E. ten Boom erf,Elisabeth ten Boom erf,1705JB,1705JB,11,11.0,,,,,Heerhugowaard,Heerhugowaard,537613.2794880276,6917380.541136386
398200000008643,398200000008643,J.C. Langerhorsttuin,Jantina Cristina Langerhorsttuin,1705HP,1705HP,20,20.0,,,,,Heerhugowaard,Heerhugowaard,537361.4691485208,6918033.87932039
398200000008713,398200000008713,J.W. van der Noordaatuin,Juliana Wilhelmina van der Noordaatuin,1705HM,1705HM,24,24.0,,,,,Heerhugowaard,Heerhugowaard,537489.474905426,6917872.074010012
398200000006936,398200000006936,H.Henriquez Pimenteltuin,Henriette Henriquez Pimenteltuin,1705HW,1705HW,2,2.0,,,,,Heerhugowaard,Heerhugowaard,537328.6479924839,6917566.545906357
398200000019915,398200000019915,T. de Vriestuin,Tilly de Vriestuin,1705HL,1705HL,19,19.0,,,,,Heerhugowaard,Heerhugowaard,537555.6694489177,6917742.217334007
398200000003687,398200000003687,Const. Huygensstraat,C. Huygensstraat,1702EX,1702EX,98,98.0,,,,,Heerhugowaard,Heerhugowaard,538336.1513255648,6921425.918106903
398200000008714,398200000008714,J.W. van der Noordaatuin,Juliana Wilhelmina van der Noordaatuin,1705HM,1705HM,25,25.0,,,,,Heerhugowaard,Heerhugowaard,537517.9603216659,6917827.434215761
398200000003691,398200000003691,Const. Huygensstraat,C. Huygensstraat,1702EX,1702EX,104,104.0,B,B,,,Heerhugowaard,Heerhugowaard,538362.2238656338,6921396.65309493
398200000006954,398200000006954,H.Henriquez Pimenteltuin,Henriette Henriquez Pimenteltuin,1705HW,1705HW,26,26.0,,,,,Heerhugowaard,Heerhugowaard,537349.1480708322,6917741.848563541
398200000006928,398200000006928,H.A. Haak-van Eektuin,Henriette Augusta Haak- van Eektuin,1705HR,1705HR,15,15.0,,,,,Heerhugowaard,Heerhugowaard,537365.9115261228,6918094.639984334
398200000008501,398200000008501,J. Duikerweg,Jan Duikerweg,1703DH,1703DH,15,15.0,,,,,Heerhugowaard,Heerhugowaard,535792.7122169344,6920769.484129225
398200000003708,398200000003708,Const. Huygensstraat,C. Huygensstraat,1702EZ,1702EZ,112,112.0,H,H,,,Heerhugowaard,Heerhugowaard,538448.8629146279,6921442.118540196
398200000000105,398200000000105,A.C. op 't Landtplnts,Anna Clasina op 't Landtplantsoen,1705GS,1705GS,25,25.0,,,,,Heerhugowaard,Heerhugowaard,537444.0896901424,6918358.657832956
398200000003635,398200000003635,Const. Huygensstraat,C. Huygensstraat,1702EW,1702EW,48,48.0,,,,,Heerhugowaard,Heerhugowaard,538245.4701130429,6921331.373899423
398200000016383,398200000016383,R. Neter-Montanhestuin,Rachel Neter-Montanhestuin,1705HH,1705HH,46,46.0,,,,,Heerhugowaard,Heerhugowaard,537767.0018375651,6917649.553285242
398200000000100,398200000000100,A.C. op 't Landtplnts,Anna Clasina op 't Landtplantsoen,1705GV,1705GV,20,20.0,,,,,Heerhugowaard,Heerhugowaard,537403.3875695661,6918325.16737134
398200000019076,398200000019076,St Annaplein,Sint Annaplein,1704BP,1704BP,3,3.0,,,,,Heerhugowaard,Heerhugowaard,540051.181798644,6928833.715026872
398200000003576,398200000003576,Const. Huygensstraat,C. Huygensstraat,1702EW,1702EW,8,8.0,E,E,,,Heerhugowaard,Heerhugowaard,538263.7004093684,6921236.776151632
398200000016398,398200000016398,R. Prinsen Geerligstuin,Reina Prinsen Geerligstuin,1705HK,1705HK,13,13.0,,,,,Heerhugowaard,Heerhugowaard,537653.5644343878,6917676.00134586
398200000007479,398200000007479,Henriette Bosmansplnts,Henriette Bosmansplantsoen,1705LA,1705LA,7,7.0,,,,,Heerhugowaard,Heerhugowaard,536588.5287389779,6919318.987794749
398200000000225,398200000000225,A.L. Salomonstuin,Anna Louisa Salomonstuin,1705HN,1705HN,19,19.0,,,,,Heerhugowaard,Heerhugowaard,537493.6557126272,6917914.383136553
398200000003574,398200000003574,Const. Huygensstraat,C. Huygensstraat,1702EW,1702EW,8,8.0,C,C,,,Heerhugowaard,Heerhugowaard,538256.6616345429,6921230.4059785
398200000008679,398200000008679,J.L. van der Aaplantsoen,Jacqueline Louise van der Aaplantsoen,1705GZ,1705GZ,8,8.0,,,,,Heerhugowaard,Heerhugowaard,537858.4910470397,6917836.649007823
398200000006978,398200000006978,H.T.Kuipers-Rietbergtuin,Helena Theodora Kuipers-Rietbergtuin,1705HJ,1705HJ,4,4.0,,,,,Heerhugowaard,Heerhugowaard,537700.5704353708,6917670.951047418
398200000003583,398200000003583,Const. Huygensstraat,C. Huygensstraat,1702EV,1702EV,9,9.0,,,,,Heerhugowaard,Heerhugowaard,538157.5040649029,6921412.767748185
398200000003673,398200000003673,Const. Huygensstraat,C. Huygensstraat,1702EX,1702EX,70,70.0,,,,,Heerhugowaard,Heerhugowaard,538305.55106717,6921379.976119367
398200000000093,398200000000093,A.C. op 't Landtplnts,Anna Clasina op 't Landtplantsoen,1705GS,1705GS,13,13.0,,,,,Heerhugowaard,Heerhugowaard,537385.1529944275,6918425.593148579
398200000003656,398200000003656,Const. Huygensstraat,C. Huygensstraat,1702EX,1702EX,56,56.0,,,,,Heerhugowaard,Heerhugowaard,538312.9930970652,6921301.329465323
398200000003711,398200000003711,Const. Huygensstraat,C. Huygensstraat,1702EZ,1702EZ,112,112.0,K,K,,,Heerhugowaard,Heerhugowaard,538439.024915502,6921430.301344765
398200000005949,398200000005949,G. van Lier erf,Geertruida van Lier erf,1703RN,1703RN,4,4.0,,,,,Heerhugowaard,Heerhugowaard,537744.9967089023,6917317.320445541
398200000005554,398200000005554,Esther de Boer-v Rijkprk,Esther de Boer van Rijkpark,1705LN,1705LN,2,2.0,,,,,Heerhugowaard,Heerhugowaard,536577.0408471785,6918540.444710763
398200000000823,398200000000823,Ank van der Moerplnts,Ank van der Moerplantsoen,1705LV,1705LV,32,32.0,,,,,Heerhugowaard,Heerhugowaard,536489.0730380276,6918860.296123687
398200000000045,398200000000045,A. Heringa-Jongbloedtuin,Anna Heringa-Jongbloedtuin,1705HS,1705HS,9,9.0,,,,,Heerhugowaard,Heerhugowaard,537314.0167683001,6918179.386752914
398200000016347,398200000016347,R. Neter-Montanhestuin,Rachel Neter-Montanhestuin,1705HH,1705HH,10,10.0,,,,,Heerhugowaard,Heerhugowaard,537762.9073384618,6917674.927596385
398200000007487,398200000007487,Henriette Bosmansplnts,Henriette Bosmansplantsoen,1705LA,1705LA,23,23.0,,,,,Heerhugowaard,Heerhugowaard,536493.5077532349,6919426.510565466
398200000000043,398200000000043,A. Heringa-Jongbloedtuin,Anna Heringa-Jongbloedtuin,1705HS,1705HS,7,7.0,,,,,Heerhugowaard,Heerhugowaard,537320.2078785135,6918186.875046783
398200000000143,398200000000143,A.C. op 't Landtplnts,Anna Clasina op 't Landtplantsoen,1705GW,1705GW,62,62.0,,,,,Heerhugowaard,Heerhugowaard,537552.1061269882,6918146.297239218
398200000006926,398200000006926,H.A. Haak-van Eektuin,Henriette Augusta Haak- van Eektuin,1705HR,1705HR,13,13.0,,,,,Heerhugowaard,Heerhugowaard,537372.0413233726,6918100.4803674
398200000008709,398200000008709,J.W. van der Noordaatuin,Juliana Wilhelmina van der Noordaatuin,1705HM,1705HM,20,20.0,,,,,Heerhugowaard,Heerhugowaard,537512.9043531205,6917886.757697723
398200000016354,398200000016354,R. Neter-Montanhestuin,Rachel Neter-Montanhestuin,1705HG,1705HG,17,17.0,,,,,Heerhugowaard,Heerhugowaard,537773.614000298,6917676.769502962
398200000008498,398200000008498,J. Duikerweg,Jan Duikerweg,1703DH,1703DH,15,15.0,A,A,,,Heerhugowaard,Heerhugowaard,535799.5749585917,6920758.929092661
398200000000048,398200000000048,A. Heringa-Jongbloedtuin,Anna Heringa-Jongbloedtuin,1705HS,1705HS,12,12.0,,,,,Heerhugowaard,Heerhugowaard,537232.5679648942,6918200.625839473
398200000008683,398200000008683,J.L. van der Aaplantsoen,Jacqueline Louise van der Aaplantsoen,1705GZ,1705GZ,16,16.0,,,,,Heerhugowaard,Heerhugowaard,537911.806142651,6917810.706455039
398200000016390,398200000016390,R. Neter-Montanhestuin,Rachel Neter-Montanhestuin,1705HG,1705HG,53,53.0,,,,,Heerhugowaard,Heerhugowaard,537772.1735492807,6917661.710741036
398200000003594,398200000003594,Const. Huygensstraat,C. Huygensstraat,1702EV,1702EV,19,19.0,B,B,,,Heerhugowaard,Heerhugowaard,538202.8659203394,6921474.054749664
398200000006828,398200000006828,H. Roland Holstlaan,Henriette Roland Holstlaan,1703SZ,1703SZ,85,85.0,,,,,Heerhugowaard,Heerhugowaard,537220.2601003243,6921591.386258306
398200000003625,398200000003625,Const. Huygensstraat,C. Huygensstraat,1702EW,1702EW,38,38.0,,,,,Heerhugowaard,Heerhugowaard,538203.5168944318,6921387.539308572
398200000003633,398200000003633,Const. Huygensstraat,C. Huygensstraat,1702EW,1702EW,46,46.0,,,,,Heerhugowaard,Heerhugowaard,538237.9885763886,6921339.9194293
398200000008479,398200000008479,J. Duikerweg,Jan Duikerweg,1703DH,1703DH,6,6.0,B,B,,,Heerhugowaard,Heerhugowaard,535866.6159980898,6920965.97831853
398200000000153,398200000000153,A.C. op 't Landtplnts,Anna Clasina op 't Landtplantsoen,1705GW,1705GW,72,72.0,,,,,Heerhugowaard,Heerhugowaard,537588.0315968479,6918115.600847897
398200000006994,398200000006994,H.T.Kuipers-Rietbergtuin,Helena Theodora Kuipers-Rietbergtuin,1705HJ,1705HJ,36,36.0,,,,,Heerhugowaard,Heerhugowaard,537673.9392078912,6917547.69720923
398200000008519,398200000008519,J. Slagter-Dingsdagtuin,Johanna Slagter-Dingsdagtuin,1705HV,1705HV,25,25.0,,,,,Heerhugowaard,Heerhugowaard,537564.1963870839,6917584.279706764
398200000000119,398200000000119,A.C. op 't Landtplnts,Anna Clasina op 't Landtplantsoen,1705GS,1705GS,39,39.0,,,,,Heerhugowaard,Heerhugowaard,537519.1563712127,6918280.723354781
398200000003727,398200000003727,Const. Huygensstraat,C. Huygensstraat,1702EZ,1702EZ,136,136.0,,,,,Heerhugowaard,Heerhugowaard,538377.264040491,6921541.790302685
398200000003689,398200000003689,Const. Huygensstraat,C. Huygensstraat,1702EX,1702EX,102,102.0,,,,,Heerhugowaard,Heerhugowaard,538350.9119175614,6921409.694497541
398200000003641,398200000003641,Const. Huygensstraat,C. Huygensstraat,1702EW,1702EW,52,52.0,C,C,,,Heerhugowaard,Heerhugowaard,538263.9989081417,6921302.840335677
398200000008708,398200000008708,J.W. van der Noordaatuin,Juliana Wilhelmina van der Noordaatuin,1705HM,1705HM,19,19.0,,,,,Heerhugowaard,Heerhugowaard,537559.88509073,6917846.4870136725
398200000005029,398200000005029,E. ten Boom erf,Elisabeth ten Boom erf,1705JB,1705JB,1,1.0,,,,,Heerhugowaard,Heerhugowaard,537654.9239723099,6917426.370457854
398200000006982,398200000006982,H.T.Kuipers-Rietbergtuin,Helena Theodora Kuipers-Rietbergtuin,1705HJ,1705HJ,12,12.0,,,,,Heerhugowaard,Heerhugowaard,537705.8429911563,6917638.698533263
398200000003688,398200000003688,Const. Huygensstraat,C. Huygensstraat,1702EX,1702EX,100,100.0,,,,,Heerhugowaard,Heerhugowaard,538344.346127149,6921417.272267306
398200000000805,398200000000805,Ank van der Moerplnts,Ank van der Moerplantsoen,1705LV,1705LV,14,14.0,,,,,Heerhugowaard,Heerhugowaard,536428.229734427,6918907.2821951555
398200000008497,398200000008497,J. Duikerweg,Jan Duikerweg,1703DH,1703DH,14,14.0,,,,,Heerhugowaard,Heerhugowaard,535679.604936408,6920819.521982651
398200000006917,398200000006917,H.A. Haak-van Eektuin,Henriette Augusta Haak- van Eektuin,1705HR,1705HR,4,4.0,,,,,Heerhugowaard,Heerhugowaard,537363.8526839603,6918169.117966984
398200000000188,398200000000188,A.C. op 't Landtplnts,Anna Clasina op 't Landtplantsoen,1705GX,1705GX,126,126.0,,,,,Heerhugowaard,Heerhugowaard,537764.9568634061,6917914.796139298
398200000003100,398200000003100,C.F. Kuijken-vd Eijndetn,C.F. Kuijken-van der Eijndetuin,1705HX,1705HX,3,3.0,,,,,Heerhugowaard,Heerhugowaard,537394.5936603117,6917638.783316582
398200000003646,398200000003646,Const. Huygensstraat,C. Huygensstraat,1702EW,1702EW,52,52.0,H,H,,,Heerhugowaard,Heerhugowaard,538264.5955739965,6921272.01363657
398200000000131,398200000000131,A.C. op 't Landtplnts,Anna Clasina op 't Landtplantsoen,1705GT,1705GT,51,51.0,,,,,Heerhugowaard,Heerhugowaard,537648.2681566661,6918130.907160516
398200000016387,398200000016387,R. Neter-Montanhestuin,Rachel Neter-Montanhestuin,1705HH,1705HH,50,50.0,,,,,Heerhugowaard,Heerhugowaard,537765.0300896782,6917652.078996216
398200000000206,398200000000206,A.I. van Hardenbroek erf,Aleida Ingeborg van Hardenbroek erf,1705HT,1705HT,14,14.0,,,,,Heerhugowaard,Heerhugowaard,537828.8189617357,6917585.061036602
398200000008697,398200000008697,J.W. van der Noordaatuin,Juliana Wilhelmina van der Noordaatuin,1705HM,1705HM,8,8.0,,,,,Heerhugowaard,Heerhugowaard,537555.0888809295,6917913.343317479
398200000003659,398200000003659,Const. Huygensstraat,C. Huygensstraat,1702EX,1702EX,60,60.0,B,B,,,Heerhugowaard,Heerhugowaard,538354.1602110458,6921311.62585403
398200000016365,398200000016365,R. Neter-Montanhestuin,Rachel Neter-Montanhestuin,1705HH,1705HH,28,28.0,,,,,Heerhugowaard,Heerhugowaard,537793.0827065764,6917655.423170346
398200000006808,398200000006808,H. Roland Holstlaan,Henriette Roland Holstlaan,1703SZ,1703SZ,45,45.0,,,,,Heerhugowaard,Heerhugowaard,537210.4785780354,6921611.589644315
398200000003575,398200000003575,Const. Huygensstraat,C. Huygensstraat,1702EW,1702EW,8,8.0,D,D,,,Heerhugowaard,Heerhugowaard,538263.2786592642,6921230.139876396
398200000003675,398200000003675,Const. Huygensstraat,C. Huygensstraat,1702EX,1702EX,74,74.0,,,,,Heerhugowaard,Heerhugowaard,538294.6904848841,6921396.838121352
398200000003627,398200000003627,Const. Huygensstraat,C. Huygensstraat,1702EW,1702EW,40,40.0,,,,,Heerhugowaard,Heerhugowaard,538220.8315171129,6921361.170557269
398200000016392,398200000016392,R. Prinsen Geerligstuin,Reina Prinsen Geerligstuin,1705HK,1705HK,1,1.0,,,,,Heerhugowaard,Heerhugowaard,537685.086615985,6917713.944841512
398200000019085,398200000019085,St Annaplein,Sint Annaplein,1704BP,1704BP,21,21.0,,,,,Heerhugowaard,Heerhugowaard,540017.4792162533,6928828.843017239
398200000017544,398200000017544,Rubensplein,Rubensplein,1701JD,1701JD,13,13.0,G,F,,,Heerhugowaard,Heerhugowaard,539865.8037439093,6922495.690046025
398200000011901,398200000011901,M. Zegwaart-de Korte erf,Maria Zegwaart-de Korte erf,1705GP,1705GP,3,3.0,,,,,Heerhugowaard,Heerhugowaard,537995.9914093958,6917697.548558777
398200000000097,398200000000097,A.C. op 't Landtplnts,Anna Clasina op 't Landtplantsoen,1705GS,1705GS,17,17.0,,,,,Heerhugowaard,Heerhugowaard,537400.4613669254,6918399.3191913925
398200000003108,398200000003108,C.F. Kuijken-vd Eijndetn,C.F. Kuijken-van der Eijndetuin,1705HX,1705HX,11,11.0,,,,,Heerhugowaard,Heerhugowaard,537480.2053105013,6917555.951804777
398200000008640,398200000008640,J.C. Langerhorsttuin,Jantina Cristina Langerhorsttuin,1705HP,1705HP,17,17.0,,,,,Heerhugowaard,Heerhugowaard,537437.974776004,6917994.083396255
398200000008490,398200000008490,J. Duikerweg,Jan Duikerweg,1703DH,1703DH,10,10.0,,,,,Heerhugowaard,Heerhugowaard,535818.389119544,6920920.628246573
398200000003726,398200000003726,Const. Huygensstraat,C. Huygensstraat,1702EZ,1702EZ,134,134.0,,,,,Heerhugowaard,Heerhugowaard,538370.0398064081,6921535.091941866
398200000003133,398200000003133,C.M. Smoorenburg erf,Christina Maria Smoorenburg erf,1705JC,1705JC,12,12.0,,,,,Heerhugowaard,Heerhugowaard,537541.333315679,6917276.146039837
398200000006932,398200000006932,H.A. Haak-van Eektuin,Henriette Augusta Haak- van Eektuin,1705HR,1705HR,19,19.0,,,,,Heerhugowaard,Heerhugowaard,537332.9298019593,6918079.332223686
398200000003615,398200000003615,Const. Huygensstraat,C. Huygensstraat,1702EW,1702EW,34,34.0,,,,,Heerhugowaard,Heerhugowaard,538190.4723462563,6921374.831275739
398200000000177,398200000000177,A.C. op 't Landtplnts,Anna Clasina op 't Landtplantsoen,1705GW,1705GW,104,104.0,,,,,Heerhugowaard,Heerhugowaard,537686.8500885487,6917993.746379996
398200000003113,398200000003113,C.F. Kuijken-vd Eijndetn,C.F. Kuijken-van der Eijndetuin,1705HX,1705HX,16,16.0,,,,,Heerhugowaard,Heerhugowaard,537524.2662104648,6917487.956490103
398200000006820,398200000006820,H. Roland Holstlaan,Henriette Roland Holstlaan,1703SZ,1703SZ,69,69.0,,,,,Heerhugowaard,Heerhugowaard,537192.5174084777,6921614.06626129
398200000000156,398200000000156,A.C. op 't Landtplnts,Anna Clasina op 't Landtplantsoen,1705GT,1705GT,75,75.0,,,,,Heerhugowaard,Heerhugowaard,537774.8633481005,6917992.896846037
398200000003721,398200000003721,Const. Huygensstraat,C. Huygensstraat,1702EZ,1702EZ,124,124.0,,,,,Heerhugowaard,Heerhugowaard,538398.0130879395,6921476.811969356
398200000000217,398200000000217,A.L. Salomonstuin,Anna Louisa Salomonstuin,1705HN,1705HN,11,11.0,,,,,Heerhugowaard,Heerhugowaard,537517.8330130546,6917938.123662926
398200000008482,398200000008482,J. Duikerweg,Jan Duikerweg,1703DH,1703DH,7,7.0,,,,,Heerhugowaard,Heerhugowaard,535877.6404791506,6920803.484607511
398200000008505,398200000008505,J. Duikerweg,Jan Duikerweg,1703DH,1703DH,17,17.0,,,,,Heerhugowaard,Heerhugowaard,535766.9906546606,6920749.358302464
398200000005580,398200000005580,Esther de Boer-v Rijkprk,Esther de Boer van Rijkpark,1705LN,1705LN,28,28.0,,,,,Heerhugowaard,Heerhugowaard,536695.0697109442,6918488.994284798
398200000000178,398200000000178,A.C. op 't Landtplnts,Anna Clasina op 't Landtplantsoen,1705GW,1705GW,106,106.0,,,,,Heerhugowaard,Heerhugowaard,537691.0507272079,6917985.440107034
398200000003634,398200000003634,Const. Huygensstraat,C. Huygensstraat,1702EV,1702EV,47,47.0,,,,,Heerhugowaard,Heerhugowaard,538348.4898553325,6921582.203527854
398200000006806,398200000006806,H. Roland Holstlaan,Henriette Roland Holstlaan,1703SZ,1703SZ,41,41.0,,,,,Heerhugowaard,Heerhugowaard,537225.2876021209,6921595.186631231
398200000019910,398200000019910,T. de Vriestuin,Tilly de Vriestuin,1705HL,1705HL,14,14.0,,,,,Heerhugowaard,Heerhugowaard,537600.3446650307,6917828.317269887
398200000003648,398200000003648,Const. Huygensstraat,C. Huygensstraat,1702EW,1702EW,52,52.0,J,J,,,Heerhugowaard,Heerhugowaard,538271.7551735434,6921278.2973299725
398200000000170,398200000000170,A.C. op 't Landtplnts,Anna Clasina op 't Landtplantsoen,1705GW,1705GW,90,90.0,,,,,Heerhugowaard,Heerhugowaard,537645.943014663,6918045.011214929
398200000019906,398200000019906,T. de Vriestuin,Tilly de Vriestuin,1705HL,1705HL,10,10.0,,,,,Heerhugowaard,Heerhugowaard,537615.6868881602,6917837.396053892
398200000006988,398200000006988,H.T.Kuipers-Rietbergtuin,Helena Theodora Kuipers-Rietbergtuin,1705HJ,1705HJ,24,24.0,,,,,Heerhugowaard,Heerhugowaard,537698.4352218136,6917590.255368878
398200000008506,398200000008506,J. Duikerweg,Jan Duikerweg,1703DH,1703DH,21,21.0,,,,,Heerhugowaard,Heerhugowaard,535727.9777670364,6920705.532139399
398200000000116,398200000000116,A.C. op 't Landtplnts,Anna Clasina op 't Landtplantsoen,1705GV,1705GV,36,36.0,,,,,Heerhugowaard,Heerhugowaard,537450.9185324219,6918258.528584516
398200000008472,398200000008472,J. Duikerweg,Jan Duikerweg,1703DH,1703DH,1,1.0,A,A,,,Heerhugowaard,Heerhugowaard,535951.2164745515,6920947.198821768
398200000003682,398200000003682,Const. Huygensstraat,C. Huygensstraat,1702EX,1702EX,88,88.0,,,,,Heerhugowaard,Heerhugowaard,538294.511876394,6921468.546707667
398200000006788,398200000006788,H. Roland Holstlaan,Henriette Roland Holstlaan,1703SZ,1703SZ,5,5.0,,,,,Heerhugowaard,Heerhugowaard,537277.6635123581,6921618.613519885
398200000000051,398200000000051,A. Heringa-Jongbloedtuin,Anna Heringa-Jongbloedtuin,1705HS,1705HS,15,15.0,,,,,Heerhugowaard,Heerhugowaard,537298.364522946,6918161.006010299
398200000003655,398200000003655,Const. Huygensstraat,C. Huygensstraat,1702EX,1702EX,54,54.0,,,,,Heerhugowaard,Heerhugowaard,538306.7072253108,6921295.261971289
398200000000047,398200000000047,A. Heringa-Jongbloedtuin,Anna Heringa-Jongbloedtuin,1705HS,1705HS,11,11.0,,,,,Heerhugowaard,Heerhugowaard,537308.9508735329,6918174.01459861
398200000000181,398200000000181,A.C. op 't Landtplnts,Anna Clasina op 't Landtplantsoen,1705GX,1705GX,112,112.0,,,,,Heerhugowaard,Heerhugowaard,537715.9624368843,6917959.912234531
398200000007490,398200000007490,Henriette Bosmansplnts,Henriette Bosmansplantsoen,1705LA,1705LA,29,29.0,,,,,Heerhugowaard,Heerhugowaard,536462.9954139211,6919461.110576246
398200000008676,398200000008676,J.L. van der Aaplantsoen,Jacqueline Louise van der Aaplantsoen,1705GZ,1705GZ,2,2.0,,,,,Heerhugowaard,Heerhugowaard,537819.691870935,6917817.456985183
398200000006810,398200000006810,H. Roland Holstlaan,Henriette Roland Holstlaan,1703SZ,1703SZ,49,49.0,,,,,Heerhugowaard,Heerhugowaard,537189.0230805415,6921622.869807606
398200000006833,398200000006833,H. Roland Holstlaan,Henriette Roland Holstlaan,1703SZ,1703SZ,95,95.0,,,,,Heerhugowaard,Heerhugowaard,537178.0653783657,6921626.2207978545
398200000003637,398200000003637,Const. Huygensstraat,C. Huygensstraat,1702EW,1702EW,50,50.0,,,,,Heerhugowaard,Heerhugowaard,538251.3386224783,6921324.607517662
398200000008707,398200000008707,J.W. van der Noordaatuin,Juliana Wilhelmina van der Noordaatuin,1705HM,1705HM,18,18.0,,,,,Heerhugowaard,Heerhugowaard,537519.4013985852,6917891.251843138
398200000006920,398200000006920,H.A. Haak-van Eektuin,Henriette Augusta Haak- van Eektuin,1705HR,1705HR,7,7.0,,,,,Heerhugowaard,Heerhugowaard,537391.7191659347,6918116.451583969
398200000005038,398200000005038,E. ten Boom erf,Elisabeth ten Boom erf,1705JB,1705JB,10,10.0,,,,,Heerhugowaard,Heerhugowaard,537628.1945802023,6917362.709035636
398200000000042,398200000000042,A. Heringa-Jongbloedtuin,Anna Heringa-Jongbloedtuin,1705HS,1705HS,6,6.0,,,,,Heerhugowaard,Heerhugowaard,537250.3170247207,6918216.503447537
398200000008495,398200000008495,J. Duikerweg,Jan Duikerweg,1703DH,1703DH,12,12.0,,,,,Heerhugowaard,Heerhugowaard,535799.732699815,6920893.631944572
398200000003592,398200000003592,Const. Huygensstraat,C. Huygensstraat,1702EW,1702EW,18,18.0,,,,,Heerhugowaard,Heerhugowaard,538206.5180346471,6921294.498763113
398200000008706,398200000008706,J.W. van der Noordaatuin,Juliana Wilhelmina van der Noordaatuin,1705HM,1705HM,17,17.0,,,,,Heerhugowaard,Heerhugowaard,537565.8496774832,6917850.492198974
398200000006798,398200000006798,H. Roland Holstlaan,Henriette Roland Holstlaan,1703SZ,1703SZ,25,25.0,,,,,Heerhugowaard,Heerhugowaard,537197.2149267463,6921618.190730954
398200000008496,398200000008496,J. Duikerweg,Jan Duikerweg,1703DH,1703DH,13,13.0,,,,,Heerhugowaard,Heerhugowaard,535875.768401893,6920772.010202397
398200000008523,398200000008523,J. Slagter-Dingsdagtuin,Johanna Slagter-Dingsdagtuin,1705HV,1705HV,33,33.0,,,,,Heerhugowaard,Heerhugowaard,537547.9142594787,6917618.090652211
398200000003624,398200000003624,Const. Huygensstraat,C. Huygensstraat,1702EV,1702EV,37,37.0,,,,,Heerhugowaard,Heerhugowaard,538311.5895878947,6921549.032095977
398200000000800,398200000000800,Ank van der Moerplnts,Ank van der Moerplantsoen,1705LV,1705LV,9,9.0,,,,,Heerhugowaard,Heerhugowaard,536456.4878852875,6918960.468410245
398200000019908,398200000019908,T. de Vriestuin,Tilly de Vriestuin,1705HL,1705HL,12,12.0,,,,,Heerhugowaard,Heerhugowaard,537608.1287088688,6917832.501372555
398200000019902,398200000019902,T. de Vriestuin,Tilly de Vriestuin,1705HL,1705HL,6,6.0,,,,,Heerhugowaard,Heerhugowaard,537629.2152429165,6917844.932258718
398200000006835,398200000006835,H. Roland Holstlaan,Henriette Roland Holstlaan,1703SZ,1703SZ,99,99.0,,,,,Heerhugowaard,Heerhugowaard,537167.5380027123,6921637.747662075
398200000003693,398200000003693,Const. Huygensstraat,C. Huygensstraat,1702EX,1702EX,104,104.0,D,D,,,Heerhugowaard,Heerhugowaard,538354.6226000178,6921389.999799155
398200000000144,398200000000144,A.C. op 't Landtplnts,Anna Clasina op 't Landtplantsoen,1705GT,1705GT,63,63.0,,,,,Heerhugowaard,Heerhugowaard,537705.3853570092,6918063.013473309
398200000016394,398200000016394,R. Prinsen Geerligstuin,Reina Prinsen Geerligstuin,1705HK,1705HK,5,5.0,,,,,Heerhugowaard,Heerhugowaard,537672.7628261935,6917702.503701244
398200000000812,398200000000812,Ank van der Moerplnts,Ank van der Moerplantsoen,1705LV,1705LV,21,21.0,,,,,Heerhugowaard,Heerhugowaard,536492.6271114523,6918917.756589816
398200000000198,398200000000198,A.I. van Hardenbroek erf,Aleida Ingeborg van Hardenbroek erf,1705HT,1705HT,6,6.0,,,,,Heerhugowaard,Heerhugowaard,537926.5466410983,6917569.179536834
398200000006826,398200000006826,H. Roland Holstlaan,Henriette Roland Holstlaan,1703SZ,1703SZ,81,81.0,,,,,Heerhugowaard,Heerhugowaard,537185.7945258684,6921660.459168944
398200000019903,398200000019903,T. de Vriestuin,Tilly de Vriestuin,1705HL,1705HL,7,7.0,,,,,Heerhugowaard,Heerhugowaard,537638.1548479476,6917794.023690325
398200000016409,398200000016409,R. Prinsen Geerligstuin,Reina Prinsen Geerligstuin,1705HK,1705HK,35,35.0,,,,,Heerhugowaard,Heerhugowaard,537638.1554783216,6917589.6364938505
398200000008513,398200000008513,J. Slagter-Dingsdagtuin,Johanna Slagter-Dingsdagtuin,1705HV,1705HV,13,13.0,,,,,Heerhugowaard,Heerhugowaard,537586.3235109968,6917526.579348272
398200000016384,398200000016384,R. Neter-Montanhestuin,Rachel Neter-Montanhestuin,1705HG,1705HG,47,47.0,,,,,Heerhugowaard,Heerhugowaard,537789.2498005485,6917672.006057534
398200000003604,398200000003604,Const. Huygensstraat,C. Huygensstraat,1702EW,1702EW,24,24.0,,,,,Heerhugowaard,Heerhugowaard,538190.555575092,6921318.7826056015
398200000005553,398200000005553,Esther de Boer-v Rijkprk,Esther de Boer van Rijkpark,1705LN,1705LN,1,1.0,,,,,Heerhugowaard,Heerhugowaard,536518.7186754057,6918588.094196578
398200000006952,398200000006952,H.Henriquez Pimenteltuin,Henriette Henriquez Pimenteltuin,1705HW,1705HW,22,22.0,,,,,Heerhugowaard,Heerhugowaard,537323.9317442738,6917719.6747173015
398200000003134,398200000003134,C.M. Smoorenburg erf,Christina Maria Smoorenburg erf,1705JC,1705JC,13,13.0,,,,,Heerhugowaard,Heerhugowaard,537537.5331194419,6917280.748105386
398200000006925,398200000006925,H.A. Haak-van Eektuin,Henriette Augusta Haak- van Eektuin,1705HR,1705HR,12,12.0,,,,,Heerhugowaard,Heerhugowaard,537337.0752965659,6918148.688693567
398200000016371,398200000016371,R. Neter-Montanhestuin,Rachel Neter-Montanhestuin,1705HH,1705HH,34,34.0,,,,,Heerhugowaard,Heerhugowaard,537773.6869300208,6917642.178305312
398200000000228,398200000000228,A.L. Salomonstuin,Anna Louisa Salomonstuin,1705HN,1705HN,22,22.0,,,,,Heerhugowaard,Heerhugowaard,537442.6580960349,6917950.7393970415
398200000016361,398200000016361,R. Neter-Montanhestuin,Rachel Neter-Montanhestuin,1705HH,1705HH,24,24.0,,,,,Heerhugowaard,Heerhugowaard,537784.9184491718,6917677.445299316
398200000008691,398200000008691,J.W. van der Noordaatuin,Juliana Wilhelmina van der Noordaatuin,1705HM,1705HM,2,2.0,,,,,Heerhugowaard,Heerhugowaard,537575.7209171538,6917925.431271287
398200000000215,398200000000215,A.L. Salomonstuin,Anna Louisa Salomonstuin,1705HN,1705HN,9,9.0,,,,,Heerhugowaard,Heerhugowaard,537524.3583683254,6917943.00555107
398200000000210,398200000000210,A.L. Salomonstuin,Anna Louisa Salomonstuin,1705HN,1705HN,4,4.0,,,,,Heerhugowaard,Heerhugowaard,537509.7527212403,6918007.824438898
398200000008518,398200000008518,J. Slagter-Dingsdagtuin,Johanna Slagter-Dingsdagtuin,1705HV,1705HV,23,23.0,,,,,Heerhugowaard,Heerhugowaard,537567.7831014408,6917576.658391906
398200000006844,398200000006844,H. Roland Holstlaan,Henriette Roland Holstlaan,1703SZ,1703SZ,105,105.0,G,G,,,Heerhugowaard,Heerhugowaard,537193.4988255424,6921720.437744206
398200000006996,398200000006996,H.T.Kuipers-Rietbergtuin,Helena Theodora Kuipers-Rietbergtuin,1705HJ,1705HJ,40,40.0,,,,,Heerhugowaard,Heerhugowaard,537662.110300484,6917535.460414695
398200000000150,398200000000150,A.C. op 't Landtplnts,Anna Clasina op 't Landtplantsoen,1705GT,1705GT,69,69.0,,,,,Heerhugowaard,Heerhugowaard,537732.5998035636,6918034.736135228
398200000003122,398200000003122,C.M. Smoorenburg erf,Christina Maria Smoorenburg erf,1705JC,1705JC,1,1.0,,,,,Heerhugowaard,Heerhugowaard,537565.4299763857,6917344.319293805
398200000011899,398200000011899,M. Zegwaart-de Korte erf,Maria Zegwaart-de Korte erf,1705GP,1705GP,1,1.0,,,,,Heerhugowaard,Heerhugowaard,537976.8165187256,6917719.031309565
398200000027890,398200000027890,Maartje Offers erf,Maartje Offers erf,1703RC,1705LC,18,18.0,A,A,,,Heerhugowaard,Heerhugowaard,536257.9670696211,6919226.876194949
398200000000147,398200000000147,A.C. op 't Landtplnts,Anna Clasina op 't Landtplantsoen,1705GW,1705GW,66,66.0,,,,,Heerhugowaard,Heerhugowaard,537567.3359383106,6918136.501434689
398200000006963,398200000006963,H.Henriquez Pimenteltuin,Henriette Henriquez Pimenteltuin,1705HW,1705HW,44,44.0,,,,,Heerhugowaard,Heerhugowaard,537479.5999777802,6917722.613424198
398200000006823,398200000006823,H. Roland Holstlaan,Henriette Roland Holstlaan,1703SZ,1703SZ,75,75.0,,,,,Heerhugowaard,Heerhugowaard,537174.7393882879,6921634.534055742
398200000016378,398200000016378,R. Neter-Montanhestuin,Rachel Neter-Montanhestuin,1705HG,1705HG,41,41.0,,,,,Heerhugowaard,Heerhugowaard,537778.2746529543,6917654.133378733
398200000016380,398200000016380,R. Neter-Montanhestuin,Rachel Neter-Montanhestuin,1705HG,1705HG,43,43.0,,,,,Heerhugowaard,Heerhugowaard,537790.8269704304,6917669.671860741
398200000008711,398200000008711,J.W. van der Noordaatuin,Juliana Wilhelmina van der Noordaatuin,1705HM,1705HM,22,22.0,,,,,Heerhugowaard,Heerhugowaard,537494.3639210232,6917863.677658176
398200000000120,398200000000120,A.C. op 't Landtplnts,Anna Clasina op 't Landtplantsoen,1705GV,1705GV,40,40.0,,,,,Heerhugowaard,Heerhugowaard,537466.5175651546,6918248.250890597
398200000003129,398200000003129,C.M. Smoorenburg erf,Christina Maria Smoorenburg erf,1705JC,1705JC,8,8.0,,,,,Heerhugowaard,Heerhugowaard,537521.4654575798,6917187.279183148
398200000008490,398200000008490,J. Duikerweg,Jan Duikerweg,1703DH,1703DH,10,10.0,,,,,Heerhugowaard,Heerhugowaard,535818.389119544,6920920.628246573
398200000000186,398200000000186,A.C. op 't Landtplnts,Anna Clasina op 't Landtplantsoen,1705GX,1705GX,122,122.0,,,,,Heerhugowaard,Heerhugowaard,537753.4635541603,6917931.399617163
398200000000216,398200000000216,A.L. Salomonstuin,Anna Louisa Salomonstuin,1705HN,1705HN,10,10.0,,,,,Heerhugowaard,Heerhugowaard,537490.5283588667,6917991.069042671
398200000003570,398200000003570,Const. Huygensstraat,C. Huygensstraat,1702EW,1702EW,6,6.0,,,,,Heerhugowaard,Heerhugowaard,538223.4519048865,6921220.010094413
398200000006800,398200000006800,H. Roland Holstlaan,Henriette Roland Holstlaan,1703SZ,1703SZ,29,29.0,,,,,Heerhugowaard,Heerhugowaard,537185.6916372776,6921631.676279594
398200000003136,398200000003136,C.M. Smoorenburg erf,Christina Maria Smoorenburg erf,1705JC,1705JC,15,15.0,,,,,Heerhugowaard,Heerhugowaard,537517.8116262751,6917303.339018212
398200000008684,398200000008684,J.L. van der Aaplantsoen,Jacqueline Louise van der Aaplantsoen,1705GZ,1705GZ,18,18.0,,,,,Heerhugowaard,Heerhugowaard,537918.4604712774,6917797.035455958
398200000008642,398200000008642,J.C. Langerhorsttuin,Jantina Cristina Langerhorsttuin,1705HP,1705HP,19,19.0,,,,,Heerhugowaard,Heerhugowaard,537411.8478670063,6917980.641467374
398200000003638,398200000003638,Const. Huygensstraat,C. Huygensstraat,1702EV,1702EV,51,51.0,,,,,Heerhugowaard,Heerhugowaard,538363.018950681,6921595.609228998
398200000003632,398200000003632,Const. Huygensstraat,C. Huygensstraat,1702EV,1702EV,45,45.0,,,,,Heerhugowaard,Heerhugowaard,538341.4523429669,6921575.61871205
398200000003713,398200000003713,Const. Huygensstraat,C. Huygensstraat,1702EZ,1702EZ,112,112.0,M,M,,,Heerhugowaard,Heerhugowaard,538431.261300037,6921424.428785607
398200000008521,398200000008521,J. Slagter-Dingsdagtuin,Johanna Slagter-Dingsdagtuin,1705HV,1705HV,29,29.0,,,,,Heerhugowaard,Heerhugowaard,537556.581183684,6917602.209881211
398200000000187,398200000000187,A.C. op 't Landtplnts,Anna Clasina op 't Landtplantsoen,1705GX,1705GX,124,124.0,,,,,Heerhugowaard,Heerhugowaard,537759.5406008323,6917923.556352779
398200000005581,398200000005581,Esther de Boer-v Rijkprk,Esther de Boer van Rijkpark,1705LN,1705LN,29,29.0,,,,,Heerhugowaard,Heerhugowaard,536587.2810028027,6918632.78049551
398200000006781,398200000006781,H. Blokland-Pater erf,Hendrika Blokland-Pater erf,1705GR,1705GR,3,3.0,,,,,Heerhugowaard,Heerhugowaard,537954.6159502857,6917658.043344345
398200000000825,398200000000825,Ank van der Moerplnts,Ank van der Moerplantsoen,1705LV,1705LV,35,35.0,,,,,Heerhugowaard,Heerhugowaard,536528.421080001,6918869.294922867
398200000003610,398200000003610,Const. Huygensstraat,C. Huygensstraat,1702EV,1702EV,29,29.0,,,,,Heerhugowaard,Heerhugowaard,538256.7484016207,6921501.307029567
398200000019905,398200000019905,T. de Vriestuin,Tilly de Vriestuin,1705HL,1705HL,9,9.0,,,,,Heerhugowaard,Heerhugowaard,537620.1572983504,6917782.248308972
398200000000049,398200000000049,A. Heringa-Jongbloedtuin,Anna Heringa-Jongbloedtuin,1705HS,1705HS,13,13.0,,,,,Heerhugowaard,Heerhugowaard,537303.7478778578,6918167.65364089
398200000003703,398200000003703,Const. Huygensstraat,C. Huygensstraat,1702EZ,1702EZ,112,112.0,C,C,,,Heerhugowaard,Heerhugowaard,538456.4833509967,6921408.745037342
398200000000182,398200000000182,A.C. op 't Landtplnts,Anna Clasina op 't Landtplantsoen,1705GX,1705GX,114,114.0,,,,,Heerhugowaard,Heerhugowaard,537723.6296190365,6917954.2759732595
398200000003577,398200000003577,Const. Huygensstraat,C. Huygensstraat,1702EW,1702EW,8,8.0,F,F,,,Heerhugowaard,Heerhugowaard,538270.6313909342,6921236.9875304205
398200000000046,398200000000046,A. Heringa-Jongbloedtuin,Anna Heringa-Jongbloedtuin,1705HS,1705HS,10,10.0,,,,,Heerhugowaard,Heerhugowaard,537238.4968912068,6918205.851415404
398200000008489,398200000008489,J. Duikerweg,Jan Duikerweg,1703DH,1703DH,10,10.0,B,B,,,Heerhugowaard,Heerhugowaard,535813.6010431931,6920925.797762286
398200000005567,398200000005567,Esther de Boer-v Rijkprk,Esther de Boer van Rijkpark,1705LN,1705LN,15,15.0,,,,,Heerhugowaard,Heerhugowaard,536409.4984188586,6918749.1923039155
398200000000809,398200000000809,Ank van der Moerplnts,Ank van der Moerplantsoen,1705LV,1705LV,18,18.0,,,,,Heerhugowaard,Heerhugowaard,536440.2046902988,6918894.607311323
398200000008481,398200000008481,J. Duikerweg,Jan Duikerweg,1703DH,1703DH,6,6.0,,,,,Heerhugowaard,Heerhugowaard,535871.7476649729,6920960.014744208
398200000016400,398200000016400,R. Prinsen Geerligstuin,Reina Prinsen Geerligstuin,1705HK,1705HK,17,17.0,,,,,Heerhugowaard,Heerhugowaard,537646.4781423042,6917661.517275706
398200000003593,398200000003593,Const. Huygensstraat,C. Huygensstraat,1702EV,1702EV,19,19.0,A,A,,,Heerhugowaard,Heerhugowaard,538196.3736959425,6921474.976678251
398200000016366,398200000016366,R. Neter-Montanhestuin,Rachel Neter-Montanhestuin,1705HG,1705HG,29,29.0,,,,,Heerhugowaard,Heerhugowaard,537784.5670634881,6917647.345654901
398200000000806,398200000000806,Ank van der Moerplnts,Ank van der Moerplantsoen,1705LV,1705LV,15,15.0,,,,,Heerhugowaard,Heerhugowaard,536476.2831672714,6918937.542904537
398200000007478,398200000007478,Henriette Bosmansplnts,Henriette Bosmansplantsoen,1705LA,1705LA,5,5.0,,,,,Heerhugowaard,Heerhugowaard,536598.6636353623,6919307.513039202
398200000000169,398200000000169,A.C. op 't Landtplnts,Anna Clasina op 't Landtplantsoen,1705GW,1705GW,88,88.0,,,,,Heerhugowaard,Heerhugowaard,537637.8376428587,6918050.286256792
398200000008698,398200000008698,J.W. van der Noordaatuin,Juliana Wilhelmina van der Noordaatuin,1705HM,1705HM,9,9.0,,,,,Heerhugowaard,Heerhugowaard,537595.407457391,6917870.35939078
398200000003661,398200000003661,Const. Huygensstraat,C. Huygensstraat,1702EX,1702EX,60,60.0,D,D,,,Heerhugowaard,Heerhugowaard,538361.4098354948,6921318.636017614
398200000000138,398200000000138,A.C. op 't Landtplnts,Anna Clasina op 't Landtplantsoen,1705GV,1705GV,58,58.0,A,A,,,Heerhugowaard,Heerhugowaard,537524.1536389617,6918129.31744911
398200000003587,398200000003587,Const. Huygensstraat,C. Huygensstraat,1702EV,1702EV,13,13.0,,,,,Heerhugowaard,Heerhugowaard,538171.8042617858,6921425.681821142
398200000003098,398200000003098,C.F. Kuijken-vd Eijndetn,C.F. Kuijken-van der Eijndetuin,1705HX,1705HX,1,1.0,,,,,Heerhugowaard,Heerhugowaard,537411.7914127652,6917611.949447329
398200000000197,398200000000197,A.I. van Hardenbroek erf,Aleida Ingeborg van Hardenbroek erf,1705HT,1705HT,5,5.0,,,,,Heerhugowaard,Heerhugowaard,537912.0982434987,6917578.938469968
398200000005037,398200000005037,E. ten Boom erf,Elisabeth ten Boom erf,1705JB,1705JB,9,9.0,,,,,Heerhugowaard,Heerhugowaard,537632.5763247982,6917357.7667723065
398200000000213,398200000000213,A.L. Salomonstuin,Anna Louisa Salomonstuin,1705HN,1705HN,7,7.0,,,,,Heerhugowaard,Heerhugowaard,537530.1031779964,6917948.430490488
398200000003658,398200000003658,Const. Huygensstraat,C. Huygensstraat,1702EX,1702EX,60,60.0,A,A,,,Heerhugowaard,Heerhugowaard,538347.402883486,6921311.940450769
398200000003125,398200000003125,C.M. Smoorenburg erf,Christina Maria Smoorenburg erf,1705JC,1705JC,4,4.0,,,,,Heerhugowaard,Heerhugowaard,537588.2019352975,6917318.582732504
398200000016406,398200000016406,R. Prinsen Geerligstuin,Reina Prinsen Geerligstuin,1705HK,1705HK,29,29.0,,,,,Heerhugowaard,Heerhugowaard,537636.3032821153,6917613.832451842
398200000008512,398200000008512,J. Slagter-Dingsdagtuin,Johanna Slagter-Dingsdagtuin,1705HV,1705HV,11,11.0,,,,,Heerhugowaard,Heerhugowaard,537589.936761551,6917517.640854413
398200000000168,398200000000168,A.C. op 't Landtplnts,Anna Clasina op 't Landtplantsoen,1705GT,1705GT,87,87.0,,,,,Heerhugowaard,Heerhugowaard,537826.9671205695,6917919.792116957
398200000000124,398200000000124,A.C. op 't Landtplnts,Anna Clasina op 't Landtplantsoen,1705GV,1705GV,44,44.0,,,,,Heerhugowaard,Heerhugowaard,537481.9987449155,6918235.972037859
398200000006940,398200000006940,H.Henriquez Pimenteltuin,Henriette Henriquez Pimenteltuin,1705HW,1705HW,6,6.0,,,,,Heerhugowaard,Heerhugowaard,537314.8670105889,6917593.283970764
398200000007477,398200000007477,Henriette Bosmansplnts,Henriette Bosmansplantsoen,1705LA,1705LA,3,3.0,,,,,Heerhugowaard,Heerhugowaard,536609.6499432329,6919295.080187728
398200000006836,398200000006836,H. Roland Holstlaan,Henriette Roland Holstlaan,1703SZ,1703SZ,101,101.0,,,,,Heerhugowaard,Heerhugowaard,537175.0685034322,6921655.139555564
398200000006793,398200000006793,H. Roland Holstlaan,Henriette Roland Holstlaan,1703SZ,1703SZ,15,15.0,,,,,Heerhugowaard,Heerhugowaard,537199.1549640513,6921620.332268799
398200000006946,398200000006946,H.Henriquez Pimenteltuin,Henriette Henriquez Pimenteltuin,1705HW,1705HW,12,12.0,,,,,Heerhugowaard,Heerhugowaard,537298.5856052265,6917637.9275393225
398200000003718,398200000003718,Const. Huygensstraat,C. Huygensstraat,1702EZ,1702EZ,118,118.0,,,,,Heerhugowaard,Heerhugowaard,538414.5586853984,6921451.756359074
398200000005559,398200000005559,Esther de Boer-v Rijkprk,Esther de Boer van Rijkpark,1705LN,1705LN,7,7.0,,,,,Heerhugowaard,Heerhugowaard,536454.9982082422,6918639.1509035565
398200000016401,398200000016401,R. Prinsen Geerligstuin,Reina Prinsen Geerligstuin,1705HK,1705HK,19,19.0,,,,,Heerhugowaard,Heerhugowaard,537642.8803093049,6917654.115709034
398200000008522,398200000008522,J. Slagter-Dingsdagtuin,Johanna Slagter-Dingsdagtuin,1705HV,1705HV,31,31.0,,,,,Heerhugowaard,Heerhugowaard,537551.6051638104,6917609.972161384
398200000000136,398200000000136,A.C. op 't Landtplnts,Anna Clasina op 't Landtplantsoen,1705GV,1705GV,56,56.0,,,,,Heerhugowaard,Heerhugowaard,537511.2115559906,6918186.547243808
398200000000173,398200000000173,A.C. op 't Landtplnts,Anna Clasina op 't Landtplantsoen,1705GW,1705GW,96,96.0,,,,,Heerhugowaard,Heerhugowaard,537667.8447578339,6918026.784681712
398200000003591,398200000003591,Const. Huygensstraat,C. Huygensstraat,1702EV,1702EV,17,17.0,,,,,Heerhugowaard,Heerhugowaard,538187.7000264225,6921439.332303503
398200000003111,398200000003111,C.F. Kuijken-vd Eijndetn,C.F. Kuijken-van der Eijndetuin,1705HX,1705HX,14,14.0,,,,,Heerhugowaard,Heerhugowaard,537505.2516190384,6917517.78031744
398200000016370,398200000016370,R. Neter-Montanhestuin,Rachel Neter-Montanhestuin,1705HG,1705HG,33,33.0,,,,,Heerhugowaard,Heerhugowaard,537782.4059022466,6917649.47747744
398200000016339,398200000016339,R. Neter-Montanhestuin,Rachel Neter-Montanhestuin,1705HH,1705HH,2,2.0,,,,,Heerhugowaard,Heerhugowaard,537758.7716746314,6917680.369983976
398200000000041,398200000000041,A. Heringa-Jongbloedtuin,Anna Heringa-Jongbloedtuin,1705HS,1705HS,5,5.0,,,,,Heerhugowaard,Heerhugowaard,537324.7828769911,6918193.1932052765
398200000027891,398200000027891,Middenweg,Middenweg,1704BN,1704BH,589,589.0,C,C,,,Heerhugowaard,Heerhugowaard,540042.7128037359,6930205.148012392
398200000003573,398200000003573,Const. Huygensstraat,C. Huygensstraat,1702EW,1702EW,8,8.0,B,B,,,Heerhugowaard,Heerhugowaard,538255.7660081511,6921223.766082612
398200000003123,398200000003123,C.M. Smoorenburg erf,Christina Maria Smoorenburg erf,1705JC,1705JC,2,2.0,,,,,Heerhugowaard,Heerhugowaard,537568.4594457865,6917340.916497965
398200000006951,398200000006951,H.Henriquez Pimenteltuin,Henriette Henriquez Pimenteltuin,1705HW,1705HW,20,20.0,,,,,Heerhugowaard,Heerhugowaard,537310.9428266879,6917701.9950591065
398200000006821,398200000006821,H. Roland Holstlaan,Henriette Roland Holstlaan,1703SZ,1703SZ,71,71.0,,,,,Heerhugowaard,Heerhugowaard,537187.0768183564,6921620.894836048
398200000003723,398200000003723,Const. Huygensstraat,C. Huygensstraat,1702EZ,1702EZ,128,128.0,,,,,Heerhugowaard,Heerhugowaard,538388.3267852003,6921493.5529395435
398200000000205,398200000000205,A.I. van Hardenbroek erf,Aleida Ingeborg van Hardenbroek erf,1705HT,1705HT,13,13.0,,,,,Heerhugowaard,Heerhugowaard,537836.6394324645,6917573.745793107
398200000000145,398200000000145,A.C. op 't Landtplnts,Anna Clasina op 't Landtplantsoen,1705GW,1705GW,64,64.0,,,,,Heerhugowaard,Heerhugowaard,537559.9940993409,6918140.863886211
398200000000811,398200000000811,Ank van der Moerplnts,Ank van der Moerplantsoen,1705LV,1705LV,20,20.0,,,,,Heerhugowaard,Heerhugowaard,536446.5776014444,6918888.9399775
398200000003582,398200000003582,Const. Huygensstraat,C. Huygensstraat,1702EW,1702EW,8,8.0,,,,,Heerhugowaard,Heerhugowaard,538230.0218240425,6921226.144106465
398200000000139,398200000000139,A.C. op 't Landtplnts,Anna Clasina op 't Landtplantsoen,1705GV,1705GV,58,58.0,,,,,Heerhugowaard,Heerhugowaard,537513.0751114235,6918176.954703069
398200000003571,398200000003571,Const. Huygensstraat,C. Huygensstraat,1702EV,1702EV,7,7.0,,,,,Heerhugowaard,Heerhugowaard,538149.6012174442,6921406.192765454
398200000000195,398200000000195,A.I. van Hardenbroek erf,Aleida Ingeborg van Hardenbroek erf,1705HT,1705HT,3,3.0,,,,,Heerhugowaard,Heerhugowaard,537890.4371611546,6917603.986204452
398200000003597,398200000003597,Const. Huygensstraat,C. Huygensstraat,1702EV,1702EV,19,19.0,E,E,,,Heerhugowaard,Heerhugowaard,538209.6035834599,6921460.356511308
398200000003702,398200000003702,Const. Huygensstraat,C. Huygensstraat,1702EZ,1702EZ,112,112.0,B,B,,,Heerhugowaard,Heerhugowaard,538456.3079332209,6921402.369503723
398200000006799,398200000006799,H. Roland Holstlaan,Henriette Roland Holstlaan,1703SZ,1703SZ,27,27.0,,,,,Heerhugowaard,Heerhugowaard,537191.289307397,6921625.177206114
398200000007486,398200000007486,Henriette Bosmansplnts,Henriette Bosmansplantsoen,1705LA,1705LA,21,21.0,,,,,Heerhugowaard,Heerhugowaard,536506.3018574283,6919412.04684815
398200000014682,398200000014682,Noordscharwouderpolderwg,Noordscharwouderpolderweg,1704PJ,1704PJ,19,19.0,,,,,Heerhugowaard,Heerhugowaard,538083.536976967,6929055.296969705
398200000000223,398200000000223,A.L. Salomonstuin,Anna Louisa Salomonstuin,1705HN,1705HN,17,17.0,,,,,Heerhugowaard,Heerhugowaard,537500.0480992375,6917920.080220268
398200000005574,398200000005574,Esther de Boer-v Rijkprk,Esther de Boer van Rijkpark,1705LN,1705LN,22,22.0,,,,,Heerhugowaard,Heerhugowaard,536677.2536832237,6918583.305784758
398200000016391,398200000016391,R. Neter-Montanhestuin,Rachel Neter-Montanhestuin,1705HH,1705HH,54,54.0,,,,,Heerhugowaard,Heerhugowaard,537763.2574880557,6917654.802459199
398200000003124,398200000003124,C.M. Smoorenburg erf,Christina Maria Smoorenburg erf,1705JC,1705JC,3,3.0,,,,,Heerhugowaard,Heerhugowaard,537585.1790230627,6917321.990523472
398200000003681,398200000003681,Const. Huygensstraat,C. Huygensstraat,1702EX,1702EX,86,86.0,,,,,Heerhugowaard,Heerhugowaard,538285.4107121384,6921460.697371806
398200000000040,398200000000040,A. Heringa-Jongbloedtuin,Anna Heringa-Jongbloedtuin,1705HS,1705HS,4,4.0,,,,,Heerhugowaard,Heerhugowaard,537256.7186848128,6918221.861316902
398200000003672,398200000003672,Const. Huygensstraat,C. Huygensstraat,1702EX,1702EX,68,68.0,,,,,Heerhugowaard,Heerhugowaard,538311.4834039891,6921371.306468067
398200000005565,398200000005565,Esther de Boer-v Rijkprk,Esther de Boer van Rijkpark,1705LN,1705LN,13,13.0,,,,,Heerhugowaard,Heerhugowaard,536390.912899345,6918736.83096527
398200000000154,398200000000154,A.C. op 't Landtplnts,Anna Clasina op 't Landtplantsoen,1705GT,1705GT,73,73.0,,,,,Heerhugowaard,Heerhugowaard,537754.8102232451,6918001.549228816
398200000000095,398200000000095,A.C. op 't Landtplnts,Anna Clasina op 't Landtplantsoen,1705GS,1705GS,15,15.0,,,,,Heerhugowaard,Heerhugowaard,537394.0508252694,6918406.802221929
398200000003600,398200000003600,Const. Huygensstraat,C. Huygensstraat,1702EW,1702EW,20,20.0,,,,,Heerhugowaard,Heerhugowaard,538201.31001623,6921302.476013966
398200000003664,398200000003664,Const. Huygensstraat,C. Huygensstraat,1702EX,1702EX,60,60.0,G,G,,,Heerhugowaard,Heerhugowaard,538369.3425163525,6921331.690659667
398200000003715,398200000003715,Const. Huygensstraat,C. Huygensstraat,1702EZ,1702EZ,112,112.0,,,,,Heerhugowaard,Heerhugowaard,538426.4756385867,6921402.801808903
398200000000807,398200000000807,Ank van der Moerplnts,Ank van der Moerplantsoen,1705LV,1705LV,16,16.0,,,,,Heerhugowaard,Heerhugowaard,536433.4894961813,6918901.337285563
398200000006797,398200000006797,H. Roland Holstlaan,Henriette Roland Holstlaan,1703SZ,1703SZ,23,23.0,,,,,Heerhugowaard,Heerhugowaard,537212.9144284015,6921613.24343024
398200000003720,398200000003720,Const. Huygensstraat,C. Huygensstraat,1702EZ,1702EZ,122,122.0,,,,,Heerhugowaard,Heerhugowaard,538402.3156339246,6921469.310856213
398200000006827,398200000006827,H. Roland Holstlaan,Henriette Roland Holstlaan,1703SZ,1703SZ,83,83.0,,,,,Heerhugowaard,Heerhugowaard,537194.3881389468,6921667.228750532
398200000000151,398200000000151,A.C. op 't Landtplnts,Anna Clasina op 't Landtplantsoen,1705GW,1705GW,70,70.0,,,,,Heerhugowaard,Heerhugowaard,537581.689698529,6918123.193127119
398200000014686,398200000014686,Noordscharwouderpolderwg,Noordscharwouderpolderweg,1704PJ,1704PJ,26,26.0,,,,,Heerhugowaard,Heerhugowaard,538214.0298500699,6928910.063953302
398200000003581,398200000003581,Const. Huygensstraat,C. Huygensstraat,1702EW,1702EW,8,8.0,J,J,,,Heerhugowaard,Heerhugowaard,538285.810335221,6921250.528093994
398200000003671,398200000003671,Const. Huygensstraat,C. Huygensstraat,1702EX,1702EX,66,66.0,,,,,Heerhugowaard,Heerhugowaard,538316.782232512,6921363.064182326
398200000005564,398200000005564,Esther de Boer-v Rijkprk,Esther de Boer van Rijkpark,1705LN,1705LN,12,12.0,,,,,Heerhugowaard,Heerhugowaard,536639.7952934018,6918523.5648671035
398200000016363,398200000016363,R. Neter-Montanhestuin,Rachel Neter-Montanhestuin,1705HH,1705HH,26,26.0,,,,,Heerhugowaard,Heerhugowaard,537770.7736889631,6917665.802352599
398200000000189,398200000000189,A.C. op 't Landtplnts,Anna Clasina op 't Landtplantsoen,1705GX,1705GX,128,128.0,,,,,Heerhugowaard,Heerhugowaard,537769.1770795049,6917906.495004726
398200000006812,398200000006812,H. Roland Holstlaan,Henriette Roland Holstlaan,1703SZ,1703SZ,53,53.0,,,,,Heerhugowaard,Heerhugowaard,537177.1739731149,6921636.351166147
398200000016389,398200000016389,R. Neter-Montanhestuin,Rachel Neter-Montanhestuin,1705HH,1705HH,52,52.0,,,,,Heerhugowaard,Heerhugowaard,537780.8894041105,6917669.204475778
398200000003707,398200000003707,Const. Huygensstraat,C. Huygensstraat,1702EZ,1702EZ,112,112.0,G,G,,,Heerhugowaard,Heerhugowaard,538455.5618375883,6921441.273871357
398200000003105,398200000003105,C.F. Kuijken-vd Eijndetn,C.F. Kuijken-van der Eijndetuin,1705HX,1705HX,8,8.0,,,,,Heerhugowaard,Heerhugowaard,537436.2471678739,6917624.602849248
398200000003621,398200000003621,Const. Huygensstraat,C. Huygensstraat,1702EV,1702EV,37,37.0,D,D,,,Heerhugowaard,Heerhugowaard,538301.6019192892,6921548.89470815
398200000006942,398200000006942,H.Henriquez Pimenteltuin,Henriette Henriquez Pimenteltuin,1705HW,1705HW,8,8.0,,,,,Heerhugowaard,Heerhugowaard,537309.2323185778,6917605.158192477
398200000008712,398200000008712,J.W. van der Noordaatuin,Juliana Wilhelmina van der Noordaatuin,1705HM,1705HM,23,23.0,,,,,Heerhugowaard,Heerhugowaard,537544.7704382067,6917837.124611874
398200000017541,398200000017541,Rubensplein,Rubensplein,1701JD,1701JD,13,13.0,D,C,,,Heerhugowaard,Heerhugowaard,539874.5568365293,6922486.029355539
398200000003626,398200000003626,Const. Huygensstraat,C. Huygensstraat,1702EV,1702EV,39,39.0,,,,,Heerhugowaard,Heerhugowaard,538319.3113811191,6921556.080754044
398200000000224,398200000000224,A.L. Salomonstuin,Anna Louisa Salomonstuin,1705HN,1705HN,18,18.0,,,,,Heerhugowaard,Heerhugowaard,537464.8691437915,6917969.651694575
398200000006937,398200000006937,H.Henriquez Pimenteltuin,Henriette Henriquez Pimenteltuin,1705HW,1705HW,3,3.0,,,,,Heerhugowaard,Heerhugowaard,537237.2556494742,6917686.260884579
398200000008626,398200000008626,J.C. Langerhorsttuin,Jantina Cristina Langerhorsttuin,1705HP,1705HP,3,3.0,,,,,Heerhugowaard,Heerhugowaard,537477.3533369708,6918037.117745474
398200000005575,398200000005575,Esther de Boer-v Rijkprk,Esther de Boer van Rijkpark,1705LN,1705LN,23,23.0,,,,,Heerhugowaard,Heerhugowaard,536515.9120768313,6918701.396708755
398200000008686,398200000008686,J.L. van der Aaplantsoen,Jacqueline Louise van der Aaplantsoen,1705GZ,1705GZ,22,22.0,,,,,Heerhugowaard,Heerhugowaard,537921.059470324,6917764.13021117
398200000000044,398200000000044,A. Heringa-Jongbloedtuin,Anna Heringa-Jongbloedtuin,1705HS,1705HS,8,8.0,,,,,Heerhugowaard,Heerhugowaard,537244.2607839562,6918210.935543
398200000003698,398200000003698,Const. Huygensstraat,C. Huygensstraat,1702EZ,1702EZ,106,106.0,,,,,Heerhugowaard,Heerhugowaard,538403.0637602421,6921382.721969114
398200000000149,398200000000149,A.C. op 't Landtplnts,Anna Clasina op 't Landtplantsoen,1705GW,1705GW,68,68.0,,,,,Heerhugowaard,Heerhugowaard,537575.521409494,6918129.385125579
398200000003709,398200000003709,Const. Huygensstraat,C. Huygensstraat,1702EZ,1702EZ,112,112.0,I,I,,,Heerhugowaard,Heerhugowaard,538447.3514387811,6921435.508438881
398200000003608,398200000003608,Const. Huygensstraat,C. Huygensstraat,1702EV,1702EV,27,27.0,,,,,Heerhugowaard,Heerhugowaard,538249.3329012094,6921495.108624655
398200000006840,398200000006840,H. Roland Holstlaan,Henriette Roland Holstlaan,1703SZ,1703SZ,105,105.0,C,C,,,Heerhugowaard,Heerhugowaard,537174.6726326997,6921731.5174257
398200000016412,398200000016412,R. Prinsen Geerligstuin,Reina Prinsen Geerligstuin,1705HK,1705HK,41,41.0,,,,,Heerhugowaard,Heerhugowaard,537644.3850293597,6917566.00206161
398200000006950,398200000006950,H.Henriquez Pimenteltuin,Henriette Henriquez Pimenteltuin,1705HW,1705HW,18,18.0,,,,,Heerhugowaard,Heerhugowaard,537306.3860438372,6917692.0812013745
398200000003657,398200000003657,Const. Huygensstraat,C. Huygensstraat,1702EX,1702EX,58,58.0,,,,,Heerhugowaard,Heerhugowaard,538319.4907677872,6921306.595214318
398200000016408,398200000016408,R. Prinsen Geerligstuin,Reina Prinsen Geerligstuin,1705HK,1705HK,33,33.0,,,,,Heerhugowaard,Heerhugowaard,537636.9509041994,6917597.629115258
398200000000162,398200000000162,A.C. op 't Landtplnts,Anna Clasina op 't Landtplantsoen,1705GT,1705GT,81,81.0,,,,,Heerhugowaard,Heerhugowaard,537797.9575904737,6917960.46047741
398200000006987,398200000006987,H.T.Kuipers-Rietbergtuin,Helena Theodora Kuipers-Rietbergtuin,1705HJ,1705HJ,22,22.0,,,,,Heerhugowaard,Heerhugowaard,537700.9352101272,6917597.97485321
398200000000227,398200000000227,A.L. Salomonstuin,Anna Louisa Salomonstuin,1705HN,1705HN,21,21.0,,,,,Heerhugowaard,Heerhugowaard,537466.7428383874,6917903.487966647
398200000006847,398200000006847,H. Roland Holstlaan,Henriette Roland Holstlaan,1703SZ,1703SZ,105,105.0,,,,,Heerhugowaard,Heerhugowaard,537192.0885825781,6921669.010666097
398200000003115,398200000003115,C.F. Kuijken-vd Eijndetn,C.F. Kuijken-van der Eijndetuin,1705HX,1705HX,18,18.0,,,,,Heerhugowaard,Heerhugowaard,537494.5200720113,6917482.705458501
398200000000054,398200000000054,A. Heringa-Jongbloedtuin,Anna Heringa-Jongbloedtuin,1705HS,1705HS,18,18.0,,,,,Heerhugowaard,Heerhugowaard,537214.2895195204,6918184.08451135
398200000003701,398200000003701,Const. Huygensstraat,C. Huygensstraat,1702EZ,1702EZ,112,112.0,A,A,,,Heerhugowaard,Heerhugowaard,538449.6750057685,6921402.978774313
398200000011903,398200000011903,M. Zegwaart-de Korte erf,Maria Zegwaart-de Korte erf,1705GP,1705GP,5,5.0,,,,,Heerhugowaard,Heerhugowaard,538017.7541439211,6917673.178720476
398200000006930,398200000006930,H.A. Haak-van Eektuin,Henriette Augusta Haak- van Eektuin,1705HR,1705HR,17,17.0,,,,,Heerhugowaard,Heerhugowaard,537359.7803094446,6918088.77155734
398200000003630,398200000003630,Const. Huygensstraat,C. Huygensstraat,1702EV,1702EV,43,43.0,,,,,Heerhugowaard,Heerhugowaard,538334.0718240127,6921568.914147868
398200000005570,398200000005570,Esther de Boer-v Rijkprk,Esther de Boer van Rijkpark,1705LN,1705LN,18,18.0,,,,,Heerhugowaard,Heerhugowaard,536600.4738496658,6918568.179662448
398200000005946,398200000005946,G. van Lier erf,Geertruida van Lier erf,1703RN,1703RN,1,1.0,,,,,Heerhugowaard,Heerhugowaard,537706.5861119344,6917284.941681038
398200000003106,398200000003106,C.F. Kuijken-vd Eijndetn,C.F. Kuijken-van der Eijndetuin,1705HX,1705HX,9,9.0,,,,,Heerhugowaard,Heerhugowaard,537461.7970607119,6917584.956047475
398200000003585,398200000003585,Const. Huygensstraat,C. Huygensstraat,1702EV,1702EV,11,11.0,,,,,Heerhugowaard,Heerhugowaard,538164.913795316,6921419.91962334
398200000000209,398200000000209,A.L. Salomonstuin,Anna Louisa Salomonstuin,1705HN,1705HN,3,3.0,,,,,Heerhugowaard,Heerhugowaard,537542.4152133045,6917959.712157873
398200000008715,398200000008715,J.W. van der Noordaatuin,Juliana Wilhelmina van der Noordaatuin,1705HM,1705HM,27,27.0,,,,,Heerhugowaard,Heerhugowaard,537523.8103615226,6917819.826914904
398200000003694,398200000003694,Const. Huygensstraat,C. Huygensstraat,1702EX,1702EX,104,104.0,E,E,,,Heerhugowaard,Heerhugowaard,538354.2211181794,6921382.634421149
398200000014676,398200000014676,Noordscharwouderpolderwg,Noordscharwouderpolderweg,1704PJ,1704PJ,13,13.0,,,,,Heerhugowaard,Heerhugowaard,538221.8286626774,6928450.508649686
398200000006934,398200000006934,H.A. Haak-van Eektuin,Henriette Augusta Haak- van Eektuin,1705HR,1705HR,21,21.0,,,,,Heerhugowaard,Heerhugowaard,537341.2454896106,6918069.2194052385
398200000005578,398200000005578,Esther de Boer-v Rijkprk,Esther de Boer van Rijkpark,1705LN,1705LN,26,26.0,,,,,Heerhugowaard,Heerhugowaard,536718.1317674699,6918518.343525145
398200000000094,398200000000094,A.C. op 't Landtplnts,Anna Clasina op 't Landtplantsoen,1705GV,1705GV,14,14.0,,,,,Heerhugowaard,Heerhugowaard,537381.3510734322,6918344.472920871
398200000016341,398200000016341,R. Neter-Montanhestuin,Rachel Neter-Montanhestuin,1705HH,1705HH,4,4.0,,,,,Heerhugowaard,Heerhugowaard,537776.0616539058,6917688.322290584
398200000005566,398200000005566,Esther de Boer-v Rijkprk,Esther de Boer van Rijkpark,1705LN,1705LN,14,14.0,,,,,Heerhugowaard,Heerhugowaard,536633.8439041044,6918544.182442469
398200000003679,398200000003679,Const. Huygensstraat,C. Huygensstraat,1702EX,1702EX,82,82.0,,,,,Heerhugowaard,Heerhugowaard,538271.293584488,6921447.91351935
398200000016373,398200000016373,R. Neter-Montanhestuin,Rachel Neter-Montanhestuin,1705HH,1705HH,36,36.0,,,,,Heerhugowaard,Heerhugowaard,537788.9560768123,6917659.691630366
398200000017540,398200000017540,Rubensplein,Rubensplein,1701JD,1701JD,13,13.0,C,B,,,Heerhugowaard,Heerhugowaard,539879.8240516998,6922487.263086439
398200000003568,398200000003568,Const. Huygensstraat,C. Huygensstraat,1702EW,1702EW,4,4.0,,,,,Heerhugowaard,Heerhugowaard,538215.1112344557,6921213.036076836
398200000008696,398200000008696,J.W. van der Noordaatuin,Juliana Wilhelmina van der Noordaatuin,1705HM,1705HM,7,7.0,,,,,Heerhugowaard,Heerhugowaard,537601.132306698,6917874.10217855
398200000000118,398200000000118,A.C. op 't Landtplnts,Anna Clasina op 't Landtplantsoen,1705GV,1705GV,38,38.0,,,,,Heerhugowaard,Heerhugowaard,537458.3904800918,6918253.1002758965
398200000006985,398200000006985,H.T.Kuipers-Rietbergtuin,Helena Theodora Kuipers-Rietbergtuin,1705HJ,1705HJ,18,18.0,,,,,Heerhugowaard,Heerhugowaard,537704.4577238816,6917613.902044569
398200000000167,398200000000167,A.C. op 't Landtplnts,Anna Clasina op 't Landtplantsoen,1705GW,1705GW,86,86.0,,,,,Heerhugowaard,Heerhugowaard,537629.7173630261,6918055.145641804
398200000017545,398200000017545,Rubensplein,Rubensplein,1701JD,1701JD,13,13.0,H,G,,,Heerhugowaard,Heerhugowaard,539859.8619206143,6922493.768237413
398200000005030,398200000005030,E. ten Boom erf,Elisabeth ten Boom erf,1705JB,1705JB,2,2.0,,,,,Heerhugowaard,Heerhugowaard,537659.7089075522,6917420.972881278
398200000003683,398200000003683,Const. Huygensstraat,C. Huygensstraat,1702EX,1702EX,90,90.0,,,,,Heerhugowaard,Heerhugowaard,538300.5241300778,6921474.041469202
398200000003666,398200000003666,Const. Huygensstraat,C. Huygensstraat,1702EX,1702EX,60,60.0,I,I,,,Heerhugowaard,Heerhugowaard,538376.5963455107,6921338.151534351
398200000006792,398200000006792,H. Roland Holstlaan,Henriette Roland Holstlaan,1703SZ,1703SZ,13,13.0,,,,,Heerhugowaard,Heerhugowaard,537215.0177546338,6921615.549551816
398200000006780,398200000006780,H. Blokland-Pater erf,Hendrika Blokland-Pater erf,1705GR,1705GR,2,2.0,,,,,Heerhugowaard,Heerhugowaard,537944.4092954509,6917668.885383995
398200000006796,398200000006796,H. Roland Holstlaan,Henriette Roland Holstlaan,1703SZ,1703SZ,21,21.0,,,,,Heerhugowaard,Heerhugowaard,537219.4996053352,6921605.445489877
398200000000108,398200000000108,A.C. op 't Landtplnts,Anna Clasina op 't Landtplantsoen,1705GV,1705GV,28,28.0,,,,,Heerhugowaard,Heerhugowaard,537423.8109897384,6918293.191530533
398200000000163,398200000000163,A.C. op 't Landtplnts,Anna Clasina op 't Landtplantsoen,1705GW,1705GW,82,82.0,,,,,Heerhugowaard,Heerhugowaard,537610.5177866726,6918073.826700782
398200000008487,398200000008487,J. Duikerweg,Jan Duikerweg,1703DH,1703DH,9,9.0,B,B,,,Heerhugowaard,Heerhugowaard,535865.776263959,6920784.005215515
398200000000795,398200000000795,Ank van der Moerplnts,Ank van der Moerplantsoen,1705LV,1705LV,4,4.0,,,,,Heerhugowaard,Heerhugowaard,536404.8744745605,6918941.957577225
398200000004979,398200000004979,Dreef,Dreef,1701GP,1701GP,2,2.0,A,C,,,Heerhugowaard,Heerhugowaard,539611.2821418204,6921861.330222374
398200000000172,398200000000172,A.C. op 't Landtplnts,Anna Clasina op 't Landtplantsoen,1705GW,1705GW,94,94.0,,,,,Heerhugowaard,Heerhugowaard,537660.6911479514,6918034.07056126
398200000000159,398200000000159,A.C. op 't Landtplnts,Anna Clasina op 't Landtplantsoen,1705GW,1705GW,78,78.0,,,,,Heerhugowaard,Heerhugowaard,537601.4957232333,6918090.704981779
398200000008520,398200000008520,J. Slagter-Dingsdagtuin,Johanna Slagter-Dingsdagtuin,1705HV,1705HV,27,27.0,,,,,Heerhugowaard,Heerhugowaard,537559.8966771527,6917592.645743535
398200000006924,398200000006924,H.A. Haak-van Eektuin,Henriette Augusta Haak- van Eektuin,1705HR,1705HR,11,11.0,,,,,Heerhugowaard,Heerhugowaard,537378.6964405508,6918106.244026586
398200000008509,398200000008509,J. Slagter-Dingsdagtuin,Johanna Slagter-Dingsdagtuin,1705HV,1705HV,5,5.0,,,,,Heerhugowaard,Heerhugowaard,537599.7445385053,6917491.552827271
398200000003619,398200000003619,Const. Huygensstraat,C. Huygensstraat,1702EV,1702EV,37,37.0,B,B,,,Heerhugowaard,Heerhugowaard,538294.994253038,6921556.332026617
398200000003119,398200000003119,C.F. Kuijken-vd Eijndetn,C.F. Kuijken-van der Eijndetuin,1705HX,1705HX,22,22.0,,,,,Heerhugowaard,Heerhugowaard,537456.6150459422,6917540.926056505
398200000006945,398200000006945,H.Henriquez Pimenteltuin,Henriette Henriquez Pimenteltuin,1705HW,1705HW,11,11.0,,,,,Heerhugowaard,Heerhugowaard,537263.01569926,6917708.4820111375
398200000003669,398200000003669,Const. Huygensstraat,C. Huygensstraat,1702EX,1702EX,62,62.0,,,,,Heerhugowaard,Heerhugowaard,538326.9068284031,6921348.410393558
398200000006809,398200000006809,H. Roland Holstlaan,Henriette Roland Holstlaan,1703SZ,1703SZ,47,47.0,,,,,Heerhugowaard,Heerhugowaard,537195.1107081785,6921616.212883493
398200000016350,398200000016350,R. Neter-Montanhestuin,Rachel Neter-Montanhestuin,1705HG,1705HG,13,13.0,,,,,Heerhugowaard,Heerhugowaard,537772.0399613573,6917678.909154809
398200000016385,398200000016385,R. Neter-Montanhestuin,Rachel Neter-Montanhestuin,1705HH,1705HH,48,48.0,,,,,Heerhugowaard,Heerhugowaard,537782.8547121568,6917666.87492231
398200000003567,398200000003567,Const. Huygensstraat,C. Huygensstraat,1702EV,1702EV,3,3.0,,,,,Heerhugowaard,Heerhugowaard,538134.492225315,6921392.533447347
398200000006829,398200000006829,H. Roland Holstlaan,Henriette Roland Holstlaan,1703SZ,1703SZ,87,87.0,,,,,Heerhugowaard,Heerhugowaard,537212.2037253198,6921599.827660744
398200000006977,398200000006977,H.T.Kuipers-Rietbergtuin,Helena Theodora Kuipers-Rietbergtuin,1705HJ,1705HJ,2,2.0,,,,,Heerhugowaard,Heerhugowaard,537697.9466838893,6917679.12737109
398200000019911,398200000019911,T. de Vriestuin,Tilly de Vriestuin,1705HL,1705HL,15,15.0,,,,,Heerhugowaard,Heerhugowaard,537581.7793790068,6917761.429406974
398200000000052,398200000000052,A. Heringa-Jongbloedtuin,Anna Heringa-Jongbloedtuin,1705HS,1705HS,16,16.0,,,,,Heerhugowaard,Heerhugowaard,537220.3353656274,6918189.715000811
398200000000818,398200000000818,Ank van der Moerplnts,Ank van der Moerplantsoen,1705LV,1705LV,27,27.0,,,,,Heerhugowaard,Heerhugowaard,536508.4032975583,6918897.357295133
398200000006838,398200000006838,H. Roland Holstlaan,Henriette Roland Holstlaan,1703SZ,1703SZ,105,105.0,A,A,,,Heerhugowaard,Heerhugowaard,537165.4924927532,6921725.89139595
398200000003724,398200000003724,Const. Huygensstraat,C. Huygensstraat,1702EZ,1702EZ,130,130.0,,,,,Heerhugowaard,Heerhugowaard,538381.9835300739,6921501.942498732
398200000005576,398200000005576,Esther de Boer-v Rijkprk,Esther de Boer van Rijkpark,1705LN,1705LN,24,24.0,,,,,Heerhugowaard,Heerhugowaard,536704.8406245736,6918553.936385353
398200000003601,398200000003601,Const. Huygensstraat,C. Huygensstraat,1702EV,1702EV,21,21.0,,,,,Heerhugowaard,Heerhugowaard,538226.0115128092,6921473.756850636
398200000006805,398200000006805,H. Roland Holstlaan,Henriette Roland Holstlaan,1703SZ,1703SZ,39,39.0,,,,,Heerhugowaard,Heerhugowaard,537198.011569146,6921663.005697647
398200000011900,398200000011900,M. Zegwaart-de Korte erf,Maria Zegwaart-de Korte erf,1705GP,1705GP,2,2.0,,,,,Heerhugowaard,Heerhugowaard,537987.1994618822,6917707.5078775855
398200000008678,398200000008678,J.L. van der Aaplantsoen,Jacqueline Louise van der Aaplantsoen,1705GZ,1705GZ,6,6.0,,,,,Heerhugowaard,Heerhugowaard,537843.5108706035,6917833.521097442
398200000003692,398200000003692,Const. Huygensstraat,C. Huygensstraat,1702EX,1702EX,104,104.0,C,C,,,Heerhugowaard,Heerhugowaard,538361.2097862201,6921389.129616648
398200000005577,398200000005577,Esther de Boer-v Rijkprk,Esther de Boer van Rijkpark,1705LN,1705LN,25,25.0,,,,,Heerhugowaard,Heerhugowaard,536533.7142454617,6918672.402333339
398200000019079,398200000019079,St Annaplein,Sint Annaplein,1704BP,1704BP,9,9.0,,,,,Heerhugowaard,Heerhugowaard,540018.4800455611,6928835.157836728
398200000003104,398200000003104,C.F. Kuijken-vd Eijndetn,C.F. Kuijken-van der Eijndetuin,1705HX,1705HX,7,7.0,,,,,Heerhugowaard,Heerhugowaard,537429.0607141937,6917635.525314464
398200000006814,398200000006814,H. Roland Holstlaan,Henriette Roland Holstlaan,1703SZ,1703SZ,57,57.0,,,,,Heerhugowaard,Heerhugowaard,537179.5022900495,6921651.249464441
398200000016362,398200000016362,R. Neter-Montanhestuin,Rachel Neter-Montanhestuin,1705HG,1705HG,25,25.0,,,,,Heerhugowaard,Heerhugowaard,537777.9378460309,6917672.309643379
398200000008693,398200000008693,J.W. van der Noordaatuin,Juliana Wilhelmina van der Noordaatuin,1705HM,1705HM,4,4.0,,,,,Heerhugowaard,Heerhugowaard,537569.2538420687,6917921.737115219
398200000016386,398200000016386,R. Neter-Montanhestuin,Rachel Neter-Montanhestuin,1705HG,1705HG,49,49.0,,,,,Heerhugowaard,Heerhugowaard,537774.1403632041,6917659.184987265
398200000005036,398200000005036,E. ten Boom erf,Elisabeth ten Boom erf,1705JB,1705JB,8,8.0,,,,,Heerhugowaard,Heerhugowaard,537649.2160209032,6917338.947181205
398200000006822,398200000006822,H. Roland Holstlaan,Henriette Roland Holstlaan,1703SZ,1703SZ,73,73.0,,,,,Heerhugowaard,Heerhugowaard,537180.6641442694,6921627.874215181
398200000005031,398200000005031,E. ten Boom erf,Elisabeth ten Boom erf,1705JB,1705JB,3,3.0,,,,,Heerhugowaard,Heerhugowaard,537675.543704366,6917403.526936871
398200000000037,398200000000037,A. Heringa-Jongbloedtuin,Anna Heringa-Jongbloedtuin,1705HS,1705HS,1,1.0,,,,,Heerhugowaard,Heerhugowaard,537334.5329204513,6918206.089781221
398200000005035,398200000005035,E. ten Boom erf,Elisabeth ten Boom erf,1705JB,1705JB,7,7.0,,,,,Heerhugowaard,Heerhugowaard,537652.1261904945,6917335.653904901
398200000003099,398200000003099,C.F. Kuijken-vd Eijndetn,C.F. Kuijken-van der Eijndetuin,1705HX,1705HX,2,2.0,,,,,Heerhugowaard,Heerhugowaard,537406.3814223383,6917619.873169039
398200000003719,398200000003719,Const. Huygensstraat,C. Huygensstraat,1702EZ,1702EZ,120,120.0,,,,,Heerhugowaard,Heerhugowaard,538409.4823752963,6921459.955956961
398200000000096,398200000000096,A.C. op 't Landtplnts,Anna Clasina op 't Landtplantsoen,1705GV,1705GV,16,16.0,,,,,Heerhugowaard,Heerhugowaard,537389.4119008329,6918338.422561847
398200000000137,398200000000137,A.C. op 't Landtplnts,Anna Clasina op 't Landtplantsoen,1705GT,1705GT,57,57.0,,,,,Heerhugowaard,Heerhugowaard,537669.6571906927,6918098.518441991
398200000006804,398200000006804,H. Roland Holstlaan,Henriette Roland Holstlaan,1703SZ,1703SZ,37,37.0,,,,,Heerhugowaard,Heerhugowaard,537189.7446784384,6921655.908728735
398200000003109,398200000003109,C.F. Kuijken-vd Eijndetn,C.F. Kuijken-van der Eijndetuin,1705HX,1705HX,12,12.0,,,,,Heerhugowaard,Heerhugowaard,537487.2666578575,6917545.664889846
398200000006801,398200000006801,H. Roland Holstlaan,Henriette Roland Holstlaan,1703SZ,1703SZ,31,31.0,,,,,Heerhugowaard,Heerhugowaard,537180.0939709158,6921638.173704766
398200000006914,398200000006914,H.A. Haak-van Eektuin,Henriette Augusta Haak- van Eektuin,1705HR,1705HR,1,1.0,,,,,Heerhugowaard,Heerhugowaard,537409.8418951408,6918132.735570814
398200000008501,398200000008501,J. Duikerweg,Jan Duikerweg,1703DH,1703DH,15,15.0,,,,,Heerhugowaard,Heerhugowaard,535792.7122169344,6920769.484129225
398200000003651,398200000003651,Const. Huygensstraat,C. Huygensstraat,1702EW,1702EW,52,52.0,M,M,,,Heerhugowaard,Heerhugowaard,538279.948979558,6921291.179134628
398200000003565,398200000003565,Const. Huygensstraat,C. Huygensstraat,1702EV,1702EV,1,1.0,,,,,Heerhugowaard,Heerhugowaard,538126.6246978627,6921386.079152166
398200000016355,398200000016355,R. Neter-Montanhestuin,Rachel Neter-Montanhestuin,1705HH,1705HH,18,18.0,,,,,Heerhugowaard,Heerhugowaard,537766.8413952984,6917670.46473807
398200000008489,398200000008489,J. Duikerweg,Jan Duikerweg,1703DH,1703DH,10,10.0,B,B,,,Heerhugowaard,Heerhugowaard,535813.6010431931,6920925.797762286
398200000008508,398200000008508,J. Slagter-Dingsdagtuin,Johanna Slagter-Dingsdagtuin,1705HV,1705HV,3,3.0,,,,,Heerhugowaard,Heerhugowaard,537602.9807674199,6917482.444918595
398200000000816,398200000000816,Ank van der Moerplnts,Ank van der Moerplantsoen,1705LV,1705LV,25,25.0,,,,,Heerhugowaard,Heerhugowaard,536502.9275375995,6918904.423608532
398200000003135,398200000003135,C.M. Smoorenburg erf,Christina Maria Smoorenburg erf,1705JC,1705JC,14,14.0,,,,,Heerhugowaard,Heerhugowaard,537521.481925535,6917298.948639041
398200000000797,398200000000797,Ank van der Moerplnts,Ank van der Moerplantsoen,1705LV,1705LV,6,6.0,,,,,Heerhugowaard,Heerhugowaard,536409.4931507143,6918934.487101738
398200000006819,398200000006819,H. Roland Holstlaan,Henriette Roland Holstlaan,1703SZ,1703SZ,67,67.0,,,,,Heerhugowaard,Heerhugowaard,537208.0472969189,6921609.770925576
398200000003598,398200000003598,Const. Huygensstraat,C. Huygensstraat,1702EV,1702EV,19,19.0,F,F,,,Heerhugowaard,Heerhugowaard,538215.9477529877,6921459.2107378375
398200000006795,398200000006795,H. Roland Holstlaan,Henriette Roland Holstlaan,1703SZ,1703SZ,19,19.0,,,,,Heerhugowaard,Heerhugowaard,537227.2321964571,6921597.16487363
398200000016368,398200000016368,R. Neter-Montanhestuin,Rachel Neter-Montanhestuin,1705HG,1705HG,31,31.0,,,,,Heerhugowaard,Heerhugowaard,537797.3149995207,6917662.684458747
398200000006831,398200000006831,H. Roland Holstlaan,Henriette Roland Holstlaan,1703SZ,1703SZ,91,91.0,,,,,Heerhugowaard,Heerhugowaard,537190.0828268972,6921612.249160535
398200000003712,398200000003712,Const. Huygensstraat,C. Huygensstraat,1702EZ,1702EZ,112,112.0,L,L,,,Heerhugowaard,Heerhugowaard,538432.3251609915,6921431.256518284
398200000000204,398200000000204,A.I. van Hardenbroek erf,Aleida Ingeborg van Hardenbroek erf,1705HT,1705HT,12,12.0,,,,,Heerhugowaard,Heerhugowaard,537847.8944195546,6917560.89553979
398200000016364,398200000016364,R. Neter-Montanhestuin,Rachel Neter-Montanhestuin,1705HG,1705HG,27,27.0,,,,,Heerhugowaard,Heerhugowaard,537761.6711788911,6917658.112709957
398200000003614,398200000003614,Const. Huygensstraat,C. Huygensstraat,1702EV,1702EV,33,33.0,,,,,Heerhugowaard,Heerhugowaard,538270.714657372,6921514.89652063
398200000016357,398200000016357,R. Neter-Montanhestuin,Rachel Neter-Montanhestuin,1705HH,1705HH,20,20.0,,,,,Heerhugowaard,Heerhugowaard,537783.1502112398,6917679.385591001
398200000016346,398200000016346,R. Neter-Montanhestuin,Rachel Neter-Montanhestuin,1705HG,1705HG,9,9.0,,,,,Heerhugowaard,Heerhugowaard,537770.4627968881,6917681.241701782
398200000008624,398200000008624,J.C. Langerhorsttuin,Jantina Cristina Langerhorsttuin,1705HP,1705HP,1,1.0,,,,,Heerhugowaard,Heerhugowaard,537483.1392991232,6918042.970179088
398200000003717,398200000003717,Const. Huygensstraat,C. Huygensstraat,1702EZ,1702EZ,116,116.0,,,,,Heerhugowaard,Heerhugowaard,538419.9381697591,6921443.72074479
398200000005558,398200000005558,Esther de Boer-v Rijkprk,Esther de Boer van Rijkpark,1705LN,1705LN,6,6.0,,,,,Heerhugowaard,Heerhugowaard,536593.0410196581,6918503.478308538
398200000003622,398200000003622,Const. Huygensstraat,C. Huygensstraat,1702EV,1702EV,37,37.0,E,E,,,Heerhugowaard,Heerhugowaard,538301.3862525208,6921542.850335207
398200000016369,398200000016369,R. Neter-Montanhestuin,Rachel Neter-Montanhestuin,1705HH,1705HH,32,32.0,,,,,Heerhugowaard,Heerhugowaard,537791.1172517141,6917657.5581546
398200000006960,398200000006960,H.Henriquez Pimenteltuin,Henriette Henriquez Pimenteltuin,1705HW,1705HW,38,38.0,,,,,Heerhugowaard,Heerhugowaard,537445.0888057497,6917746.688593621
398200000003620,398200000003620,Const. Huygensstraat,C. Huygensstraat,1702EV,1702EV,37,37.0,C,C,,,Heerhugowaard,Heerhugowaard,538295.1748630147,6921549.896407588
398200000003117,398200000003117,C.F. Kuijken-vd Eijndetn,C.F. Kuijken-van der Eijndetuin,1705HX,1705HX,20,20.0,,,,,Heerhugowaard,Heerhugowaard,537475.7165483987,6917511.379937311
398200000008688,398200000008688,J.L. van der Aaplantsoen,Jacqueline Louise van der Aaplantsoen,1705GZ,1705GZ,26,26.0,,,,,Heerhugowaard,Heerhugowaard,537906.3928200455,6917737.679607179
398200000006949,398200000006949,H.Henriquez Pimenteltuin,Henriette Henriquez Pimenteltuin,1705HW,1705HW,16,16.0,,,,,Heerhugowaard,Heerhugowaard,537299.5131235344,6917670.712731548
398200000003114,398200000003114,C.F. Kuijken-vd Eijndetn,C.F. Kuijken-van der Eijndetuin,1705HX,1705HX,17,17.0,,,,,Heerhugowaard,Heerhugowaard,537500.9057447073,6917472.152875798
398200000019920,398200000019920,T. de Vriestuin,Tilly de Vriestuin,1705HL,1705HL,28,28.0,,,,,Heerhugowaard,Heerhugowaard,537537.282106617,6917793.690500844
398200000000193,398200000000193,A.I. van Hardenbroek erf,Aleida Ingeborg van Hardenbroek erf,1705HT,1705HT,1,1.0,,,,,Heerhugowaard,Heerhugowaard,537870.7250628091,6917627.739759339
398200000000229,398200000000229,A.L. Salomonstuin,Anna Louisa Salomonstuin,1705HN,1705HN,23,23.0,,,,,Heerhugowaard,Heerhugowaard,537473.2886554458,6917896.319688578
398200000006991,398200000006991,H.T.Kuipers-Rietbergtuin,Helena Theodora Kuipers-Rietbergtuin,1705HJ,1705HJ,30,30.0,,,,,Heerhugowaard,Heerhugowaard,537688.364991311,6917567.461295887
398200000019912,398200000019912,T. de Vriestuin,Tilly de Vriestuin,1705HL,1705HL,16,16.0,,,,,Heerhugowaard,Heerhugowaard,537592.5478012718,6917824.090191021
398200000003684,398200000003684,Const. Huygensstraat,C. Huygensstraat,1702EX,1702EX,92,92.0,,,,,Heerhugowaard,Heerhugowaard,538317.968681756,6921446.79890917
398200000011902,398200000011902,M. Zegwaart-de Korte erf,Maria Zegwaart-de Korte erf,1705GP,1705GP,4,4.0,,,,,Heerhugowaard,Heerhugowaard,538009.8268137041,6917682.140505587
398200000006929,398200000006929,H.A. Haak-van Eektuin,Henriette Augusta Haak- van Eektuin,1705HR,1705HR,16,16.0,,,,,Heerhugowaard,Heerhugowaard,537323.749691627,6918138.51163423
398200000016343,398200000016343,R. Neter-Montanhestuin,Rachel Neter-Montanhestuin,1705HH,1705HH,6,6.0,,,,,Heerhugowaard,Heerhugowaard,537761.134427416,6917677.261928723
398200000000132,398200000000132,A.C. op 't Landtplnts,Anna Clasina op 't Landtplantsoen,1705GV,1705GV,52,52.0,,,,,Heerhugowaard,Heerhugowaard,537504.9563058066,6918205.079571259
398200000008690,398200000008690,J.W. van der Noordaatuin,Juliana Wilhelmina van der Noordaatuin,1705HM,1705HM,1,1.0,,,,,Heerhugowaard,Heerhugowaard,537623.6567063393,6917891.21565597
398200000003652,398200000003652,Const. Huygensstraat,C. Huygensstraat,1702EW,1702EW,52,52.0,N,N,,,Heerhugowaard,Heerhugowaard,538287.0741538611,6921290.745337011
398200000008486,398200000008486,J. Duikerweg,Jan Duikerweg,1703DH,1703DH,9,9.0,A,A,,,Heerhugowaard,Heerhugowaard,535860.5801716872,6920790.014330278
398200000007489,398200000007489,Henriette Bosmansplnts,Henriette Bosmansplantsoen,1705LA,1705LA,27,27.0,,,,,Heerhugowaard,Heerhugowaard,536474.5981539104,6919447.955210043
398200000017542,398200000017542,Rubensplein,Rubensplein,1701JD,1701JD,13,13.0,E,D,,,Heerhugowaard,Heerhugowaard,539872.8134585586,6922491.6473250035
398200000003680,398200000003680,Const. Huygensstraat,C. Huygensstraat,1702EX,1702EX,84,84.0,,,,,Heerhugowaard,Heerhugowaard,538278.6953298498,6921454.185996956
398200000000127,398200000000127,A.C. op 't Landtplnts,Anna Clasina op 't Landtplantsoen,1705GT,1705GT,47,47.0,,,,,Heerhugowaard,Heerhugowaard,537626.7881604887,6918153.284309303
398200000016381,398200000016381,R. Neter-Montanhestuin,Rachel Neter-Montanhestuin,1705HH,1705HH,44,44.0,,,,,Heerhugowaard,Heerhugowaard,537785.0158905961,6917664.7414462995
398200000006786,398200000006786,H. Roland Holstlaan,Henriette Roland Holstlaan,1703SZ,1703SZ,1,1.0,,,,,Heerhugowaard,Heerhugowaard,537290.1015026218,6921604.925461
398200000006993,398200000006993,H.T.Kuipers-Rietbergtuin,Helena Theodora Kuipers-Rietbergtuin,1705HJ,1705HJ,34,34.0,,,,,Heerhugowaard,Heerhugowaard,537678.9133248576,6917553.86275824
398200000006964,398200000006964,H.Henriquez Pimenteltuin,Henriette Henriquez Pimenteltuin,1705HW,1705HW,46,46.0,,,,,Heerhugowaard,Heerhugowaard,537500.96076897,6917717.746457771
398200000016410,398200000016410,R. Prinsen Geerligstuin,Reina Prinsen Geerligstuin,1705HK,1705HK,37,37.0,,,,,Heerhugowaard,Heerhugowaard,537637.6710228558,6917580.981179025
398200000000799,398200000000799,Ank van der Moerplnts,Ank van der Moerplantsoen,1705LV,1705LV,8,8.0,,,,,Heerhugowaard,Heerhugowaard,536413.1855362961,6918928.500149823
398200000005034,398200000005034,E. ten Boom erf,Elisabeth ten Boom erf,1705JB,1705JB,6,6.0,,,,,Heerhugowaard,Heerhugowaard,537698.8318007763,6917377.164011907
398200000000135,398200000000135,A.C. op 't Landtplnts,Anna Clasina op 't Landtplantsoen,1705GT,1705GT,55,55.0,,,,,Heerhugowaard,Heerhugowaard,537662.5489339008,6918106.315917823
398200000000114,398200000000114,A.C. op 't Landtplnts,Anna Clasina op 't Landtplantsoen,1705GV,1705GV,34,34.0,,,,,Heerhugowaard,Heerhugowaard,537443.863612913,6918264.270134033
398200000000110,398200000000110,A.C. op 't Landtplnts,Anna Clasina op 't Landtplantsoen,1705GV,1705GV,30,30.0,,,,,Heerhugowaard,Heerhugowaard,537427.8125317368,6918284.735132297
398200000003606,398200000003606,Const. Huygensstraat,C. Huygensstraat,1702EW,1702EW,26,26.0,A,A,,,Heerhugowaard,Heerhugowaard,538181.106639275,6921334.358535637
398200000006938,398200000006938,H.Henriquez Pimenteltuin,Henriette Henriquez Pimenteltuin,1705HW,1705HW,4,4.0,,,,,Heerhugowaard,Heerhugowaard,537322.6119139674,6917576.730198104
398200000000808,398200000000808,Ank van der Moerplnts,Ank van der Moerplantsoen,1705LV,1705LV,17,17.0,,,,,Heerhugowaard,Heerhugowaard,536481.4489339049,6918930.574737489
398200000019081,398200000019081,St Annaplein,Sint Annaplein,1704BP,1704BP,13,13.0,,,,,Heerhugowaard,Heerhugowaard,539987.7642317911,6928832.65087896
398200000003130,398200000003130,C.M. Smoorenburg erf,Christina Maria Smoorenburg erf,1705JC,1705JC,9,9.0,,,,,Heerhugowaard,Heerhugowaard,537554.6913790568,6917222.352026478
398200000003609,398200000003609,Const. Huygensstraat,C. Huygensstraat,1702EW,1702EW,28,28.0,,,,,Heerhugowaard,Heerhugowaard,538167.1079855162,6921353.786146014
398200000005568,398200000005568,Esther de Boer-v Rijkprk,Esther de Boer van Rijkpark,1705LN,1705LN,16,16.0,,,,,Heerhugowaard,Heerhugowaard,536619.7950842119,6918559.640878783
398200000016411,398200000016411,R. Prinsen Geerligstuin,Reina Prinsen Geerligstuin,1705HK,1705HK,39,39.0,,,,,Heerhugowaard,Heerhugowaard,537639.7931474393,6917573.018747349
398200000006981,398200000006981,H.T.Kuipers-Rietbergtuin,Helena Theodora Kuipers-Rietbergtuin,1705HJ,1705HJ,10,10.0,,,,,Heerhugowaard,Heerhugowaard,537705.3869505133,6917646.893206142
398200000008632,398200000008632,J.C. Langerhorsttuin,Jantina Cristina Langerhorsttuin,1705HP,1705HP,9,9.0,,,,,Heerhugowaard,Heerhugowaard,537462.2413892254,6918020.11705431
398200000006939,398200000006939,H.Henriquez Pimenteltuin,Henriette Henriquez Pimenteltuin,1705HW,1705HW,5,5.0,,,,,Heerhugowaard,Heerhugowaard,537243.0986271132,6917691.27934905
398200000019901,398200000019901,T. de Vriestuin,Tilly de Vriestuin,1705HL,1705HL,5,5.0,,,,,Heerhugowaard,Heerhugowaard,537648.6005101441,6917798.381649162
398200000000821,398200000000821,Ank van der Moerplnts,Ank van der Moerplantsoen,1705LV,1705LV,30,30.0,,,,,Heerhugowaard,Heerhugowaard,536481.0231054152,6918865.432446776
398200000008476,398200000008476,J. Duikerweg,Jan Duikerweg,1703DH,1703DH,4,4.0,,,,,Heerhugowaard,Heerhugowaard,535935.0606520342,6921014.134793085
398200000000133,398200000000133,A.C. op 't Landtplnts,Anna Clasina op 't Landtplantsoen,1705GT,1705GT,53,53.0,,,,,Heerhugowaard,Heerhugowaard,537654.5644681727,6918123.888311226
398200000005562,398200000005562,Esther de Boer-v Rijkprk,Esther de Boer van Rijkpark,1705LN,1705LN,10,10.0,,,,,Heerhugowaard,Heerhugowaard,536634.0623977699,6918503.163976557
398200000006915,398200000006915,H.A. Haak-van Eektuin,Henriette Augusta Haak- van Eektuin,1705HR,1705HR,2,2.0,,,,,Heerhugowaard,Heerhugowaard,537369.9627209048,6918173.690185493
398200000003699,398200000003699,Const. Huygensstraat,C. Huygensstraat,1702EZ,1702EZ,108,108.0,,,,,Heerhugowaard,Heerhugowaard,538410.8315134776,6921389.341841126
398200000016407,398200000016407,R. Prinsen Geerligstuin,Reina Prinsen Geerligstuin,1705HK,1705HK,31,31.0,,,,,Heerhugowaard,Heerhugowaard,537636.2607688701,6917605.884591147
398200000016375,398200000016375,R. Neter-Montanhestuin,Rachel Neter-Montanhestuin,1705HH,1705HH,38,38.0,,,,,Heerhugowaard,Heerhugowaard,537771.3286828495,6917644.701035704
398200000006841,398200000006841,H. Roland Holstlaan,Henriette Roland Holstlaan,1703SZ,1703SZ,105,105.0,D,D,,,Heerhugowaard,Heerhugowaard,537181.826300675,6921735.11173392
398200000003612,398200000003612,Const. Huygensstraat,C. Huygensstraat,1702EV,1702EV,31,31.0,,,,,Heerhugowaard,Heerhugowaard,538264.2194724055,6921508.205312247
398200000008495,398200000008495,J. Duikerweg,Jan Duikerweg,1703DH,1703DH,12,12.0,,,,,Heerhugowaard,Heerhugowaard,535799.732699815,6920893.631944572
