BAGNUMIDENTIFICATIE,B_NUMMERAANDUIDING,OPENBARERUIMTENAAM,B_OPENBARERUIMTE,POSTCODE,B_POSTCODE,HUISNUMMER,B_HUISNUMMER,HUISLETTER,B_HUISLETTER,HUISNUMMERTOEVOEGING,B_HUISNUMMERTOEVOEGING,WOONPLAATSNAAM,B_WOONPLAATSNAAM,x,y
450200000000795,450200000000795,Burgemeester van Lithstr,Burgemeester van Lithstraat,1911AN,1911AN,1,1.0,,,,,Uitgeest,Uitgeest,524147.75781880843,6895038.074000493
450200000000797,450200000000797,Burgemeester van Lithstr,Burgemeester van Lithstraat,1911AN,1911AN,2,2.0,,,,,Uitgeest,Uitgeest,524156.2345393718,6894990.878495341
450200000000798,450200000000798,Burgemeester van Lithstr,Burgemeester van Lithstraat,1911AN,1911AN,3,3.0,,,,,Uitgeest,Uitgeest,524154.776270105,6895033.864781237
450200000000799,450200000000799,Burgemeester van Lithstr,Burgemeester van Lithstraat,1911AN,1911AN,4,4.0,,,,,Uitgeest,Uitgeest,524163.6342994386,6894987.1069694655
450200000000800,450200000000800,Burgemeester van Lithstr,Burgemeester van Lithstraat,1911AN,1911AN,5,5.0,,,,,Uitgeest,Uitgeest,524169.02050895523,6895026.95116854
450200000000801,450200000000801,Burgemeester van Lithstr,Burgemeester van Lithstraat,1911AN,1911AN,6,6.0,,,,,Uitgeest,Uitgeest,524169.96417241293,6894982.68411255
450200000000802,450200000000802,Burgemeester van Lithstr,Burgemeester van Lithstraat,1911AN,1911AN,7,7.0,,,,,Uitgeest,Uitgeest,524176.37679687276,6895022.569170838
450200000000803,450200000000803,Burgemeester van Lithstr,Burgemeester van Lithstraat,1911AN,1911AN,8,8.0,,,,,Uitgeest,Uitgeest,524177.46914164146,6894978.359440891
450200000000804,450200000000804,Burgemeester van Lithstr,Burgemeester van Lithstraat,1911AN,1911AN,9,9.0,,,,,Uitgeest,Uitgeest,524189.5939079966,6895013.057758344
450200000000941,450200000000941,Burgemeester van Lithstr,Burgemeester van Lithstraat,1911AN,1911AN,10,10.0,,,,,Uitgeest,Uitgeest,524185.7610775256,6894973.016121667
450200000000942,450200000000942,Burgemeester van Lithstr,Burgemeester van Lithstraat,1911AN,1911AN,11,11.0,,,,,Uitgeest,Uitgeest,524196.63487451535,6895010.295707436
450200000000943,450200000000943,Burgemeester van Lithstr,Burgemeester van Lithstraat,1911AN,1911AN,12,12.0,,,,,Uitgeest,Uitgeest,524193.7126456467,6894968.639729782
450200000000788,450200000000788,Burgemeester van Lithstr,Burgemeester van Lithstraat,1911AN,1911AN,13,13.0,,,,,Uitgeest,Uitgeest,524209.6148013402,6895002.465805867
450200000000789,450200000000789,Burgemeester van Lithstr,Burgemeester van Lithstraat,1911AN,1911AN,14,14.0,,,,,Uitgeest,Uitgeest,524201.42559166934,6894963.99636113
450200000000790,450200000000790,Burgemeester van Lithstr,Burgemeester van Lithstraat,1911AN,1911AN,15,15.0,,,,,Uitgeest,Uitgeest,524216.84687691374,6894998.031645017
450200000000791,450200000000791,Burgemeester van Lithstr,Burgemeester van Lithstraat,1911AN,1911AN,16,16.0,,,,,Uitgeest,Uitgeest,524208.6106864507,6894959.67195478
450200000000792,450200000000792,Burgemeester van Lithstr,Burgemeester van Lithstraat,1911AN,1911AN,17,17.0,,,,,Uitgeest,Uitgeest,524230.07564162096,6894990.072515845
450200000000793,450200000000793,Burgemeester van Lithstr,Burgemeester van Lithstraat,1911AN,1911AN,18,18.0,,,,,Uitgeest,Uitgeest,524215.553922088,6894955.251548952
450200000000794,450200000000794,Burgemeester van Lithstr,Burgemeester van Lithstraat,1911AN,1911AN,19,19.0,,,,,Uitgeest,Uitgeest,524239.8445860016,6894988.852083438
450200000000796,450200000000796,Burgemeester van Lithstr,Burgemeester van Lithstraat,1911AN,1911AN,20,20.0,,,,,Uitgeest,Uitgeest,524222.7344419004,6894950.537396541
450200000001014,450200000001014,Cornelis Corneliszoonstr,Cornelis Corneliszoonstraat,1911CN,1911CN,1,1.0,,,,,Uitgeest,Uitgeest,524605.1646701436,6896379.494749154
450200000001015,450200000001015,Cornelis Corneliszoonstr,Cornelis Corneliszoonstraat,1911CN,1911CN,2,2.0,,,,,Uitgeest,Uitgeest,524631.3872123729,6896366.842963357
450200000001016,450200000001016,Cornelis Corneliszoonstr,Cornelis Corneliszoonstraat,1911CN,1911CN,3,3.0,,,,,Uitgeest,Uitgeest,524608.9401034645,6896386.479987197
450200000001017,450200000001017,Cornelis Corneliszoonstr,Cornelis Corneliszoonstraat,1911CN,1911CN,4,4.0,,,,,Uitgeest,Uitgeest,524635.3661865904,6896373.816922338
450200000001018,450200000001018,Cornelis Corneliszoonstr,Cornelis Corneliszoonstraat,1911CN,1911CN,5,5.0,,,,,Uitgeest,Uitgeest,524612.4601077783,6896393.943059346
450200000001019,450200000001019,Cornelis Corneliszoonstr,Cornelis Corneliszoonstraat,1911CN,1911CN,6,6.0,,,,,Uitgeest,Uitgeest,524639.2421714742,6896380.046576662
450200000001020,450200000001020,Cornelis Corneliszoonstr,Cornelis Corneliszoonstraat,1911CN,1911CN,7,7.0,,,,,Uitgeest,Uitgeest,524616.692103792,6896401.404564718
450200000001021,450200000001021,Cornelis Corneliszoonstr,Cornelis Corneliszoonstraat,1911CN,1911CN,8,8.0,,,,,Uitgeest,Uitgeest,524643.0043339754,6896387.227379373
450200000001022,450200000001022,Cornelis Corneliszoonstr,Cornelis Corneliszoonstraat,1911CN,1911CN,9,9.0,,,,,Uitgeest,Uitgeest,524584.9687777787,6896417.065517264
450200000000961,450200000000961,Cornelis Corneliszoonstr,Cornelis Corneliszoonstraat,1911CN,1911CN,10,10.0,,,,,Uitgeest,Uitgeest,524647.0134322083,6896395.022274488
450200000000962,450200000000962,Cornelis Corneliszoonstr,Cornelis Corneliszoonstraat,1911CN,1911CN,12,12.0,,,,,Uitgeest,Uitgeest,524650.8575380439,6896401.860135198
450200000001012,450200000001012,Cornelis Corneliszoonstr,Cornelis Corneliszoonstraat,1911CN,1911CN,14,14.0,,,,,Uitgeest,Uitgeest,524659.0434946723,6896426.060899122
450200000001013,450200000001013,Cornelis Corneliszoonstr,Cornelis Corneliszoonstraat,1911CN,1911CN,16,16.0,,,,,Uitgeest,Uitgeest,524660.3084122068,6896433.29078155
450200000000815,450200000000815,Burgemeester v Nienesstr,Burgemeester van Nienesstraat,1911CR,1911CR,1,1.0,,,,,Uitgeest,Uitgeest,524660.5395512294,6896261.654515811
450200000000828,450200000000828,Burgemeester v Nienesstr,Burgemeester van Nienesstraat,1911CR,1911CR,3,3.0,,,,,Uitgeest,Uitgeest,524663.417203617,6896282.285956134
450200000000830,450200000000830,Burgemeester v Nienesstr,Burgemeester van Nienesstraat,1911CR,1911CR,5,5.0,,,,,Uitgeest,Uitgeest,524647.0140799775,6896296.251310196
450200000000832,450200000000832,Burgemeester v Nienesstr,Burgemeester van Nienesstraat,1911CR,1911CR,7,7.0,,,,,Uitgeest,Uitgeest,524638.187315136,6896301.83931709
450200000000834,450200000000834,Burgemeester v Nienesstr,Burgemeester van Nienesstraat,1911CR,1911CR,9,9.0,,,,,Uitgeest,Uitgeest,524626.3941857545,6896307.292717018
450200000000806,450200000000806,Burgemeester v Nienesstr,Burgemeester van Nienesstraat,1911CR,1911CR,11,11.0,,,,,Uitgeest,Uitgeest,524618.4530945224,6896311.8381088665
450200000000808,450200000000808,Burgemeester v Nienesstr,Burgemeester van Nienesstraat,1911CR,1911CR,13,13.0,,,,,Uitgeest,Uitgeest,524610.8675361311,6896317.13673609
450200000000810,450200000000810,Burgemeester v Nienesstr,Burgemeester van Nienesstraat,1911CR,1911CR,15,15.0,,,,,Uitgeest,Uitgeest,524603.5405873344,6896321.261914752
450200000000812,450200000000812,Burgemeester v Nienesstr,Burgemeester van Nienesstraat,1911CR,1911CR,17,17.0,,,,,Uitgeest,Uitgeest,524596.3151288478,6896330.703262149
450200000000814,450200000000814,Burgemeester v Nienesstr,Burgemeester van Nienesstraat,1911CR,1911CR,19,19.0,,,,,Uitgeest,Uitgeest,524585.7825460896,6896332.37274785
450200000000817,450200000000817,Burgemeester v Nienesstr,Burgemeester van Nienesstraat,1911CR,1911CR,21,21.0,,,,,Uitgeest,Uitgeest,524575.6129349883,6896338.229382979
450200000000819,450200000000819,Burgemeester v Nienesstr,Burgemeester van Nienesstraat,1911CR,1911CR,23,23.0,,,,,Uitgeest,Uitgeest,524567.3002900732,6896342.855142178
450200000000821,450200000000821,Burgemeester v Nienesstr,Burgemeester van Nienesstraat,1911CR,1911CR,25,25.0,,,,,Uitgeest,Uitgeest,524556.4697740739,6896349.039430142
450200000000823,450200000000823,Burgemeester v Nienesstr,Burgemeester van Nienesstraat,1911CR,1911CR,27,27.0,,,,,Uitgeest,Uitgeest,524548.6097965292,6896353.85031053
450200000000825,450200000000825,Burgemeester v Nienesstr,Burgemeester van Nienesstraat,1911CS,1911CS,2,2.0,,,,,Uitgeest,Uitgeest,524694.2115341699,6896287.806338998
450200000000829,450200000000829,Burgemeester v Nienesstr,Burgemeester van Nienesstraat,1911CS,1911CS,4,4.0,,,,,Uitgeest,Uitgeest,524687.2481407286,6896298.8963743355
450200000000831,450200000000831,Burgemeester v Nienesstr,Burgemeester van Nienesstraat,1911CS,1911CS,6,6.0,,,,,Uitgeest,Uitgeest,524679.993084546,6896311.184224497
450200000000833,450200000000833,Burgemeester v Nienesstr,Burgemeester van Nienesstraat,1911CS,1911CS,8,8.0,,,,,Uitgeest,Uitgeest,524671.9738856558,6896320.256416063
450200000000805,450200000000805,Burgemeester v Nienesstr,Burgemeester van Nienesstraat,1911CS,1911CS,10,10.0,,,,,Uitgeest,Uitgeest,524661.5511800029,6896328.113864651
450200000000807,450200000000807,Burgemeester v Nienesstr,Burgemeester van Nienesstraat,1911CS,1911CS,12,12.0,,,,,Uitgeest,Uitgeest,524645.4840127153,6896329.392978041
450200000000809,450200000000809,Burgemeester v Nienesstr,Burgemeester van Nienesstraat,1911CS,1911CS,14,14.0,,,,,Uitgeest,Uitgeest,524638.0528739635,6896333.609317022
450200000000811,450200000000811,Burgemeester v Nienesstr,Burgemeester van Nienesstraat,1911CS,1911CS,16,16.0,,,,,Uitgeest,Uitgeest,524630.3569313922,6896337.898828212
450200000000813,450200000000813,Burgemeester v Nienesstr,Burgemeester van Nienesstraat,1911CS,1911CS,18,18.0,,,,,Uitgeest,Uitgeest,524622.5273139187,6896342.626184658
450200000000816,450200000000816,Burgemeester v Nienesstr,Burgemeester van Nienesstraat,1911CS,1911CS,20,20.0,,,,,Uitgeest,Uitgeest,524613.6928669829,6896347.268499721
450200000000818,450200000000818,Burgemeester v Nienesstr,Burgemeester van Nienesstraat,1911CS,1911CS,22,22.0,,,,,Uitgeest,Uitgeest,524596.7367170734,6896356.995579032
450200000000820,450200000000820,Burgemeester v Nienesstr,Burgemeester van Nienesstraat,1911CS,1911CS,24,24.0,,,,,Uitgeest,Uitgeest,524587.1714843592,6896358.718513991
450200000000822,450200000000822,Burgemeester v Nienesstr,Burgemeester van Nienesstraat,1911CS,1911CS,26,26.0,,,,,Uitgeest,Uitgeest,524578.1861458649,6896363.17684223
450200000000824,450200000000824,Burgemeester v Nienesstr,Burgemeester van Nienesstraat,1911CS,1911CS,28,28.0,,,,,Uitgeest,Uitgeest,524572.8274715268,6896371.032207446
450200000000826,450200000000826,Burgemeester v Nienesstr,Burgemeester van Nienesstraat,1911CS,1911CS,30,30.0,,,,,Uitgeest,Uitgeest,524565.0589972842,6896374.822693181
450200000006559,450200000006559,Molenwerf,Benningskamplaan,1911DB,1911LP,16,26.0,,g,,,Uitgeest,Uitgeest,523860.64656756277,6893890.856164233
450200000003007,450200000003007,Koningin Wilhelminastr,Koningin Wilhelminastraat,1911ET,1911ET,1,1.0,,,,,Uitgeest,Uitgeest,524506.528516236,6895958.005478795
450200000003091,450200000003091,Koningin Wilhelminastr,Koningin Wilhelminastraat,1911ET,1911ET,3,3.0,,,,,Uitgeest,Uitgeest,524494.2468856851,6895969.633871275
450200000003094,450200000003094,Koningin Wilhelminastr,Koningin Wilhelminastraat,1911ET,1911ET,5,5.0,,,,,Uitgeest,Uitgeest,524477.0612647802,6895978.35330992
450200000003093,450200000003093,Koningin Wilhelminastr,Koningin Wilhelminastraat,1911ET,1911ET,5,5.0,a,a,,,Uitgeest,Uitgeest,524468.4610695074,6895982.183423423
450200000003096,450200000003096,Koningin Wilhelminastr,Koningin Wilhelminastraat,1911ET,1911ET,7,7.0,,,,,Uitgeest,Uitgeest,524453.2973839414,6895990.265595869
450200000003098,450200000003098,Koningin Wilhelminastr,Koningin Wilhelminastraat,1911ET,1911ET,9,9.0,,,,,Uitgeest,Uitgeest,524444.2799319098,6895995.03736771
450200000002940,450200000002940,Koningin Wilhelminastr,Koningin Wilhelminastraat,1911ET,1911ET,11,11.0,,,,,Uitgeest,Uitgeest,524431.5401874584,6896001.063562434
450200000002942,450200000002942,Koningin Wilhelminastr,Koningin Wilhelminastraat,1911ET,1911ET,13,13.0,,,,,Uitgeest,Uitgeest,524423.414400186,6896005.9094467815
450200000002944,450200000002944,Koningin Wilhelminastr,Koningin Wilhelminastraat,1911ET,1911ET,15,15.0,,,,,Uitgeest,Uitgeest,524414.9374938927,6896010.409981648
450200000003004,450200000003004,Koningin Wilhelminastr,Koningin Wilhelminastraat,1911ET,1911ET,17,17.0,,,,,Uitgeest,Uitgeest,524406.7189428849,6896014.99844413
450200000003006,450200000003006,Koningin Wilhelminastr,Koningin Wilhelminastraat,1911ET,1911ET,19,19.0,,,,,Uitgeest,Uitgeest,524397.6203269474,6896019.672392746
450200000003010,450200000003010,Koningin Wilhelminastr,Koningin Wilhelminastraat,1911ET,1911ET,23,23.0,,,,,Uitgeest,Uitgeest,524352.788684006,6896043.339300272
450200000003012,450200000003012,Koningin Wilhelminastr,Koningin Wilhelminastraat,1911ET,1911ET,25,25.0,,,,,Uitgeest,Uitgeest,524343.190178621,6896048.663031425
450200000003014,450200000003014,Koningin Wilhelminastr,Koningin Wilhelminastraat,1911ET,1911ET,27,27.0,,,,,Uitgeest,Uitgeest,524334.7936059021,6896052.631438984
450200000003016,450200000003016,Koningin Wilhelminastr,Koningin Wilhelminastraat,1911ET,1911ET,29,29.0,,,,,Uitgeest,Uitgeest,524326.2380733937,6896056.405941794
450200000003019,450200000003019,Koningin Wilhelminastr,Koningin Wilhelminastraat,1911ET,1911ET,31,31.0,,,,,Uitgeest,Uitgeest,524317.5999064744,6896061.827459805
450200000003021,450200000003021,Koningin Wilhelminastr,Koningin Wilhelminastraat,1911ET,1911ET,33,33.0,,,,,Uitgeest,Uitgeest,524308.7233329209,6896066.075845299
450200000003022,450200000003022,Koningin Wilhelminastr,Koningin Wilhelminastraat,1911ET,1911ET,35,35.0,,,,,Uitgeest,Uitgeest,524300.5897638411,6896070.334481959
450200000003017,450200000003017,Koningin Wilhelminastr,Koningin Wilhelminastraat,1911EV,1911EV,2,2.0,,,,,Uitgeest,Uitgeest,524513.6126709196,6896001.086714891
450200000003092,450200000003092,Koningin Wilhelminastr,Koningin Wilhelminastraat,1911EV,1911EV,4,4.0,,,,,Uitgeest,Uitgeest,524504.493899651,6896008.110574023
450200000003095,450200000003095,Koningin Wilhelminastr,Koningin Wilhelminastraat,1911EV,1911EV,6,6.0,,,,,Uitgeest,Uitgeest,524497.3565000152,6896013.572603312
450200000003097,450200000003097,Koningin Wilhelminastr,Koningin Wilhelminastraat,1911EV,1911EV,8,8.0,,,,,Uitgeest,Uitgeest,524486.8329932735,6896019.594966347
450200000002939,450200000002939,Koningin Wilhelminastr,Koningin Wilhelminastraat,1911EV,1911EV,10,10.0,,,,,Uitgeest,Uitgeest,524471.3691920423,6896032.06686694
450200000002941,450200000002941,Koningin Wilhelminastr,Koningin Wilhelminastraat,1911EV,1911EV,12,12.0,,,,,Uitgeest,Uitgeest,524461.4818087491,6896036.713781346
450200000002943,450200000002943,Koningin Wilhelminastr,Koningin Wilhelminastraat,1911EV,1911EV,14,14.0,,,,,Uitgeest,Uitgeest,524452.6360364528,6896042.069351708
450200000002945,450200000002945,Koningin Wilhelminastr,Koningin Wilhelminastraat,1911EV,1911EV,16,16.0,,,,,Uitgeest,Uitgeest,524434.5814444378,6896051.599607923
450200000003005,450200000003005,Koningin Wilhelminastr,Koningin Wilhelminastraat,1911EV,1911EV,18,18.0,,,,,Uitgeest,Uitgeest,524425.8787202319,6896055.859611909
450200000003008,450200000003008,Koningin Wilhelminastr,Koningin Wilhelminastraat,1911EV,1911EV,20,20.0,,,,,Uitgeest,Uitgeest,524415.0892118776,6896061.721549214
450200000003009,450200000003009,Koningin Wilhelminastr,Koningin Wilhelminastraat,1911EV,1911EV,22,22.0,,,,,Uitgeest,Uitgeest,524384.0856718777,6896078.5767707685
450200000003011,450200000003011,Koningin Wilhelminastr,Koningin Wilhelminastraat,1911EV,1911EV,24,24.0,,,,,Uitgeest,Uitgeest,524375.519615755,6896083.831301106
450200000003013,450200000003013,Koningin Wilhelminastr,Koningin Wilhelminastraat,1911EV,1911EV,26,26.0,,,,,Uitgeest,Uitgeest,524366.8052783083,6896089.505431686
450200000003015,450200000003015,Koningin Wilhelminastr,Koningin Wilhelminastraat,1911EV,1911EV,28,28.0,,,,,Uitgeest,Uitgeest,524356.5808771452,6896094.568443565
450200000003018,450200000003018,Koningin Wilhelminastr,Koningin Wilhelminastraat,1911EV,1911EV,30,30.0,,,,,Uitgeest,Uitgeest,524347.2214615961,6896099.050817783
450200000003020,450200000003020,Koningin Wilhelminastr,Koningin Wilhelminastraat,1911EV,1911EV,32,32.0,,,,,Uitgeest,Uitgeest,524338.8458035497,6896103.937091103
450200000000843,450200000000843,Burg v Roosmalenstr,Burgemeester van Roosmalenstraat,1911EZ,1911EZ,1,1.0,,,,,Uitgeest,Uitgeest,523960.09448281483,6894764.859723505
450200000000854,450200000000854,Burg v Roosmalenstr,Burgemeester van Roosmalenstraat,1911EZ,1911EZ,3,3.0,,,,,Uitgeest,Uitgeest,523989.9981272031,6894731.219051872
450200000000857,450200000000857,Burg v Roosmalenstr,Burgemeester van Roosmalenstraat,1911EZ,1911EZ,5,5.0,,,,,Uitgeest,Uitgeest,523997.781760052,6894726.547084668
450200000000858,450200000000858,Burg v Roosmalenstr,Burgemeester van Roosmalenstraat,1911EZ,1911EZ,7,7.0,,,,,Uitgeest,Uitgeest,524013.2807641864,6894720.809949138
450200000000859,450200000000859,Burg v Roosmalenstr,Burgemeester van Roosmalenstraat,1911EZ,1911EZ,9,9.0,,,,,Uitgeest,Uitgeest,524021.53488600795,6894714.759592321
450200000000835,450200000000835,Burg v Roosmalenstr,Burgemeester van Roosmalenstraat,1911EZ,1911EZ,11,11.0,,,,,Uitgeest,Uitgeest,524035.6246533675,6894707.129794447
450200000000836,450200000000836,Burg v Roosmalenstr,Burgemeester van Roosmalenstraat,1911EZ,1911EZ,13,13.0,,,,,Uitgeest,Uitgeest,524043.8378163407,6894702.997860086
450200000000837,450200000000837,Burg v Roosmalenstr,Burgemeester van Roosmalenstraat,1911EZ,1911EZ,15,15.0,,,,,Uitgeest,Uitgeest,524059.31645731494,6894693.296217609
450200000000838,450200000000838,Burg v Roosmalenstr,Burgemeester van Roosmalenstraat,1911EZ,1911EZ,17,17.0,,,,,Uitgeest,Uitgeest,524067.4966766232,6894688.6509562805
450200000000839,450200000000839,Burg v Roosmalenstr,Burgemeester van Roosmalenstraat,1911EZ,1911EZ,19,19.0,,,,,Uitgeest,Uitgeest,524077.25786546944,6894684.54342782
450200000000844,450200000000844,Burg v Roosmalenstr,Burgemeester van Roosmalenstraat,1911EZ,1911EZ,21,21.0,,,,,Uitgeest,Uitgeest,524110.42726060655,6894659.731610931
450200000000845,450200000000845,Burg v Roosmalenstr,Burgemeester van Roosmalenstraat,1911EZ,1911EZ,23,23.0,,,,,Uitgeest,Uitgeest,524120.54415070027,6894655.990763249
450200000000846,450200000000846,Burg v Roosmalenstr,Burgemeester van Roosmalenstraat,1911EZ,1911EZ,25,25.0,,,,,Uitgeest,Uitgeest,524143.3212089218,6894647.689454672
450200000000847,450200000000847,Burg v Roosmalenstr,Burgemeester van Roosmalenstraat,1911EZ,1911EZ,27,27.0,,,,,Uitgeest,Uitgeest,524153.8762573005,6894643.743873064
450200000000848,450200000000848,Burg van Roosmalenstraat,Burgemeester van Roosmalenstraat,1911EZ,1911EZ,29,29.0,,,,,Uitgeest,Uitgeest,524176.8372877183,6894635.054531368
450200000000849,450200000000849,Burg v Roosmalenstr,Burgemeester van Roosmalenstraat,1911EZ,1911EZ,31,31.0,,,,,Uitgeest,Uitgeest,524188.12908997474,6894630.893863531
450200000000850,450200000000850,Burg v Roosmalenstr,Burgemeester van Roosmalenstraat,1911EZ,1911EZ,33,33.0,,,,,Uitgeest,Uitgeest,524226.3927785465,6894616.37140355
450200000000851,450200000000851,Burg v Roosmalenstr,Burgemeester van Roosmalenstraat,1911EZ,1911EZ,35,35.0,,,,,Uitgeest,Uitgeest,524236.33711749146,6894612.655118147
450200000000852,450200000000852,Burg v Roosmalenstr,Burgemeester van Roosmalenstraat,1911EZ,1911EZ,37,37.0,,,,,Uitgeest,Uitgeest,524256.27393182454,6894604.806981442
450200000000853,450200000000853,Burg v Roosmalenstr,Burgemeester van Roosmalenstraat,1911EZ,1911EZ,39,39.0,,,,,Uitgeest,Uitgeest,524266.0881987478,6894600.790197204
450200000000855,450200000000855,Burg v Roosmalenstr,Burgemeester van Roosmalenstraat,1911EZ,1911EZ,41,41.0,,,,,Uitgeest,Uitgeest,524286.67855742754,6894593.906704973
450200000000856,450200000000856,Burg v Roosmalenstr,Burgemeester van Roosmalenstraat,1911EZ,1911EZ,43,43.0,,,,,Uitgeest,Uitgeest,524296.1891954466,6894590.436207359
450200000005712,450200000005712,Wethouder Twaalfhovenstr,Wethouder Twaalfhovenstraat,1911HB,1911HB,3,3.0,,,,,Uitgeest,Uitgeest,524033.853455097,6895685.853421614
450200000005723,450200000005723,Wethouder Twaalfhovenstr,Wethouder Twaalfhovenstraat,1911HB,1911HB,5,5.0,,,,,Uitgeest,Uitgeest,524030.04324996215,6895674.438086528
450200000005756,450200000005756,Wethouder Twaalfhovenstr,Wethouder Twaalfhovenstraat,1911HB,1911HB,7,7.0,,,,,Uitgeest,Uitgeest,524020.6986667498,6895657.933779128
450200000005758,450200000005758,Wethouder Twaalfhovenstr,Wethouder Twaalfhovenstraat,1911HB,1911HB,9,9.0,,,,,Uitgeest,Uitgeest,524016.65842241416,6895648.839883615
450200000004429,450200000004429,Wethouder Twaalfhovenstr,Wethouder Twaalfhovenstraat,1911HB,1911HB,11,11.0,,,,,Uitgeest,Uitgeest,524014.836478067,6895638.285258015
450200000004431,450200000004431,Wethouder Twaalfhovenstr,Wethouder Twaalfhovenstraat,1911HB,1911HB,13,13.0,,,,,Uitgeest,Uitgeest,524004.35615436686,6895603.650468212
450200000004433,450200000004433,Wethouder Twaalfhovenstr,Wethouder Twaalfhovenstraat,1911HB,1911HB,15,15.0,,,,,Uitgeest,Uitgeest,524000.4171533847,6895594.610199721
450200000004435,450200000004435,Wethouder Twaalfhovenstr,Wethouder Twaalfhovenstraat,1911HB,1911HB,17,17.0,,,,,Uitgeest,Uitgeest,523999.28659878165,6895585.022488851
450200000004437,450200000004437,Wethouder Twaalfhovenstr,Wethouder Twaalfhovenstraat,1911HB,1911HB,19,19.0,,,,,Uitgeest,Uitgeest,523994.7664420128,6895573.409840515
450200000004439,450200000004439,Wethouder Twaalfhovenstr,Wethouder Twaalfhovenstraat,1911HB,1911HB,21,21.0,,,,,Uitgeest,Uitgeest,523991.6804218248,6895556.494345329
450200000004508,450200000004508,Wethouder Twaalfhovenstr,Wethouder Twaalfhovenstraat,1911HB,1911HB,23,23.0,,,,,Uitgeest,Uitgeest,523987.46043231676,6895547.860933057
450200000004510,450200000004510,Wethouder Twaalfhovenstr,Wethouder Twaalfhovenstraat,1911HB,1911HB,25,25.0,,,,,Uitgeest,Uitgeest,523984.7639879016,6895538.21083807
450200000004512,450200000004512,Wethouder Twaalfhovenstr,Wethouder Twaalfhovenstraat,1911HB,1911HB,27,27.0,,,,,Uitgeest,Uitgeest,523981.47259773023,6895527.984542186
450200000004514,450200000004514,Wethouder Twaalfhovenstr,Wethouder Twaalfhovenstraat,1911HB,1911HB,29,29.0,,,,,Uitgeest,Uitgeest,523979.24886871676,6895517.778181759
450200000004518,450200000004518,Wethouder Twaalfhovenstr,Wethouder Twaalfhovenstraat,1911HB,1911HB,31,31.0,,,,,Uitgeest,Uitgeest,523974.1936920172,6895501.303031811
450200000004520,450200000004520,Wethouder Twaalfhovenstr,Wethouder Twaalfhovenstraat,1911HB,1911HB,33,33.0,,,,,Uitgeest,Uitgeest,523971.49736780924,6895491.118560764
450200000004522,450200000004522,Wethouder Twaalfhovenstr,Wethouder Twaalfhovenstraat,1911HB,1911HB,35,35.0,,,,,Uitgeest,Uitgeest,523967.2889979595,6895481.776583737
450200000004524,450200000004524,Wethouder Twaalfhovenstr,Wethouder Twaalfhovenstraat,1911HB,1911HB,37,37.0,,,,,Uitgeest,Uitgeest,523964.6247304624,6895470.623891433
450200000005711,450200000005711,Wethouder Twaalfhovenstr,Wethouder Twaalfhovenstraat,1911HB,1911HB,39,39.0,,,,,Uitgeest,Uitgeest,523962.3469498508,6895462.33773348
450200000005714,450200000005714,Wethouder Twaalfhovenstr,Wethouder Twaalfhovenstraat,1911HC,1911HC,45,45.0,,,,,Uitgeest,Uitgeest,523938.43264946924,6895395.396551219
450200000005715,450200000005715,Wethouder Twaalfhovenstr,Wethouder Twaalfhovenstraat,1911HC,1911HC,47,47.0,,,,,Uitgeest,Uitgeest,523932.8045976629,6895386.50335345
450200000005716,450200000005716,Wethouder Twaalfhovenstr,Wethouder Twaalfhovenstraat,1911HC,1911HC,49,49.0,,,,,Uitgeest,Uitgeest,523928.7187306904,6895377.577012032
450200000005718,450200000005718,Wethouder Twaalfhovenstr,Wethouder Twaalfhovenstraat,1911HC,1911HC,51,51.0,,,,,Uitgeest,Uitgeest,523924.11780212773,6895365.855329607
450200000005719,450200000005719,Wethouder Twaalfhovenstr,Wethouder Twaalfhovenstraat,1911HC,1911HC,53,53.0,,,,,Uitgeest,Uitgeest,523881.0587236388,6895257.520269789
450200000005720,450200000005720,weth Twaalfhovenstraat,Wethouder Twaalfhovenstraat,1911HC,1911HC,55,55.0,,,,,Uitgeest,Uitgeest,523878.03630885086,6895247.323130093
450200000005721,450200000005721,Wethouder Twaalfhovenstr,Wethouder Twaalfhovenstraat,1911HC,1911HC,57,57.0,,,,,Uitgeest,Uitgeest,523875.4042454616,6895238.353074839
450200000005722,450200000005722,Wethouder Twaalfhovenstr,Wethouder Twaalfhovenstraat,1911HC,1911HC,59,59.0,,,,,Uitgeest,Uitgeest,523873.2271235609,6895228.4467574265
450200000005724,450200000005724,Wethouder Twaalfhovenstr,Wethouder Twaalfhovenstraat,1911HC,1911HC,61,61.0,,,,,Uitgeest,Uitgeest,523868.6808127234,6895209.701163787
450200000005725,450200000005725,Wethouder Twaalfhovenstr,Wethouder Twaalfhovenstraat,1911HC,1911HC,63,63.0,,,,,Uitgeest,Uitgeest,523864.9046698863,6895199.598917195
450200000005726,450200000005726,Wethouder Twaalfhovenstr,Wethouder Twaalfhovenstraat,1911HC,1911HC,65,65.0,,,,,Uitgeest,Uitgeest,523861.1199644571,6895187.439540847
450200000005727,450200000005727,Wethouder Twaalfhovenstr,Wethouder Twaalfhovenstraat,1911HC,1911HC,67,67.0,,,,,Uitgeest,Uitgeest,523860.930277202,6895180.214203532
450200000005728,450200000005728,Wethouder Twaalfhovenstr,Wethouder Twaalfhovenstraat,1911HC,1911HC,69,69.0,,,,,Uitgeest,Uitgeest,523858.34136983013,6895161.934439336
450200000005753,450200000005753,Wethouder Twaalfhovenstr,Wethouder Twaalfhovenstraat,1911HC,1911HC,71,71.0,,,,,Uitgeest,Uitgeest,523855.7748091376,6895151.05931712
450200000005754,450200000005754,Wethouder Twaalfhovenstr,Wethouder Twaalfhovenstraat,1911HC,1911HC,73,73.0,,,,,Uitgeest,Uitgeest,523796.9776089566,6895030.40867375
450200000005755,450200000005755,Wethouder Twaalfhovenstr,Wethouder Twaalfhovenstraat,1911HC,1911HC,75,75.0,,,,,Uitgeest,Uitgeest,523727.75354683236,6894993.859719888
450200000004516,450200000004516,Wethouder Twaalfhovenstr,Wethouder Twaalfhovenstraat,1911HD,1911HD,2,2.0,,,,,Uitgeest,Uitgeest,523961.7281839628,6895602.168544297
450200000004515,450200000004515,Wethouder Twaalfhovenstr,Wethouder Twaalfhovenstraat,1911HD,1911HD,2,2.0,a,a,,,Uitgeest,Uitgeest,523958.58721550246,6895591.994552596
450200000005717,450200000005717,Wethouder Twaalfhovenstr,Wethouder Twaalfhovenstraat,1911HD,1911HD,4,4.0,,,,,Uitgeest,Uitgeest,523957.3368229252,6895576.998884612
450200000005729,450200000005729,Wethouder Twaalfhovenstr,Wethouder Twaalfhovenstraat,1911HD,1911HD,6,6.0,,,,,Uitgeest,Uitgeest,523954.2669450199,6895567.466912013
450200000005757,450200000005757,Wethouder Twaalfhovenstr,Wethouder Twaalfhovenstraat,1911HD,1911HD,8,8.0,,,,,Uitgeest,Uitgeest,523951.21308031876,6895556.752771717
450200000004428,450200000004428,Wethouder Twaalfhovenstr,Wethouder Twaalfhovenstraat,1911HD,1911HD,10,10.0,,,,,Uitgeest,Uitgeest,523947.2140805555,6895545.898184965
450200000004430,450200000004430,Wethouder Twaalfhovenstr,Wethouder Twaalfhovenstraat,1911HD,1911HD,12,12.0,,,,,Uitgeest,Uitgeest,523944.43265667674,6895535.6947583305
450200000004432,450200000004432,Wethouder Twaalfhovenstr,Wethouder Twaalfhovenstraat,1911HD,1911HD,14,14.0,,,,,Uitgeest,Uitgeest,523939.60070991906,6895519.210142885
450200000004434,450200000004434,Wethouder Twaalfhovenstr,Wethouder Twaalfhovenstraat,1911HD,1911HD,16,16.0,,,,,Uitgeest,Uitgeest,523936.3898450191,6895508.974744619
450200000004436,450200000004436,Wethouder Twaalfhovenstr,Wethouder Twaalfhovenstraat,1911HD,1911HD,18,18.0,,,,,Uitgeest,Uitgeest,523933.60014416673,6895498.957099107
450200000004438,450200000004438,Wethouder Twaalfhovenstr,Wethouder Twaalfhovenstraat,1911HD,1911HD,20,20.0,,,,,Uitgeest,Uitgeest,523927.54506492923,6895489.240851724
450200000004440,450200000004440,weth Twaalfhovenstraat,Wethouder Twaalfhovenstraat,1911HD,1911HD,22,22.0,,,,,Uitgeest,Uitgeest,523834.93865084014,6895277.718403296
450200000004509,450200000004509,Wethouder Twaalfhovenstr,Wethouder Twaalfhovenstraat,1911HD,1911HD,24,24.0,,,,,Uitgeest,Uitgeest,523833.01733483386,6895267.125459024
450200000004511,450200000004511,Wethouder Twaalfhovenstr,Wethouder Twaalfhovenstraat,1911HD,1911HD,26,26.0,,,,,Uitgeest,Uitgeest,523833.3346443576,6895243.467961065
450200000004513,450200000004513,Wethouder Twaalfhovenstr,Wethouder Twaalfhovenstraat,1911HD,1911HD,28,28.0,,,,,Uitgeest,Uitgeest,523830.3143301065,6895232.879487209
450200000004517,450200000004517,Wethouder Twaalfhovenstr,Wethouder Twaalfhovenstraat,1911HD,1911HD,30,30.0,,,,,Uitgeest,Uitgeest,523827.05498970544,6895223.291816795
450200000004519,450200000004519,Wethouder Twaalfhovenstr,Wethouder Twaalfhovenstraat,1911HD,1911HD,32,32.0,,,,,Uitgeest,Uitgeest,523823.84478196694,6895211.093412647
450200000004521,450200000004521,Wethouder Twaalfhovenstr,Wethouder Twaalfhovenstraat,1911HD,1911HD,34,34.0,,,,,Uitgeest,Uitgeest,523820.79216604267,6895197.659973685
450200000004523,450200000004523,Wethouder Twaalfhovenstr,Wethouder Twaalfhovenstraat,1911HD,1911HD,36,36.0,,,,,Uitgeest,Uitgeest,523817.2272456617,6895184.111549284
450200000005979,450200000005979,Wethouder Twaalfhovenstr,Wethouder Twaalfhovenstraat,1911HD,1911HD,38,38.0,,,,,Uitgeest,Uitgeest,523813.8092964089,6895174.300449078
450200000005713,450200000005713,Wethouder Twaalfhovenstr,Wethouder Twaalfhovenstraat,1911HD,1911HD,40,40.0,,,,,Uitgeest,Uitgeest,523812.95155372226,6895164.686184208
450200000005769,450200000005769,Wethouder Zonneveldstr,Wethouder Zonneveldstraat,1911HE,1911HE,1,1.0,,,,,Uitgeest,Uitgeest,523952.2790683301,6895257.114676901
450200000005776,450200000005776,Wethouder Zonneveldstr,Wethouder Zonneveldstraat,1911HE,1911HE,2,2.0,,,,,Uitgeest,Uitgeest,523947.1224774809,6895312.525132317
450200000005777,450200000005777,Wethouder Zonneveldstr,Wethouder Zonneveldstraat,1911HE,1911HE,3,3.0,,,,,Uitgeest,Uitgeest,523943.9848943305,6895261.599574905
450200000005778,450200000005778,Wethouder Zonneveldstr,Wethouder Zonneveldstraat,1911HE,1911HE,4,4.0,,,,,Uitgeest,Uitgeest,523940.3144579266,6895316.121310401
450200000005779,450200000005779,Wethouder Zonneveldstr,Wethouder Zonneveldstraat,1911HE,1911HE,5,5.0,,,,,Uitgeest,Uitgeest,523935.0512091944,6895267.112734061
450200000005780,450200000005780,Wethouder Zonneveldstr,Wethouder Zonneveldstraat,1911HE,1911HE,6,6.0,,,,,Uitgeest,Uitgeest,523930.1032445873,6895321.25248001
450200000005781,450200000005781,Wethouder Zonneveldstr,Wethouder Zonneveldstraat,1911HE,1911HE,7,7.0,,,,,Uitgeest,Uitgeest,523920.1926990736,6895275.620302037
450200000005782,450200000005782,Wethouder Zonneveldstr,Wethouder Zonneveldstraat,1911HE,1911HE,8,8.0,,,,,Uitgeest,Uitgeest,523924.06773961557,6895325.90174306
450200000005783,450200000005783,Wethouder Zonneveldstr,Wethouder Zonneveldstraat,1911HE,1911HE,9,9.0,,,,,Uitgeest,Uitgeest,523909.6093873081,6895281.778919913
450200000005759,450200000005759,Wethouder Zonneveldstr,Wethouder Zonneveldstraat,1911HE,1911HE,10,10.0,,,,,Uitgeest,Uitgeest,523915.1927676643,6895329.868134143
450200000005760,450200000005760,Wethouder Zonneveldstr,Wethouder Zonneveldstraat,1911HE,1911HE,11,11.0,,,,,Uitgeest,Uitgeest,523902.398915625,6895285.963224273
450200000005761,450200000005761,Wethouder Zonneveldstr,Wethouder Zonneveldstraat,1911HE,1911HE,12,12.0,,,,,Uitgeest,Uitgeest,523906.7723203877,6895335.563738786
450200000005762,450200000005762,Wethouder Zonneveldstr,Wethouder Zonneveldstraat,1911HE,1911HE,13,13.0,,,,,Uitgeest,Uitgeest,523894.65685253165,6895290.686791978
450200000005763,450200000005763,Wethouder Zonneveldstr,Wethouder Zonneveldstraat,1911HE,1911HE,14,14.0,,,,,Uitgeest,Uitgeest,523859.82580419345,6895356.742683314
450200000005764,450200000005764,Wethouder Zonneveldstr,Wethouder Zonneveldstraat,1911HE,1911HE,15,15.0,,,,,Uitgeest,Uitgeest,523856.41463890614,6895309.331507946
450200000005765,450200000005765,Wethouder Zonneveldstr,Wethouder Zonneveldstraat,1911HE,1911HE,16,16.0,,,,,Uitgeest,Uitgeest,523852.7470872806,6895360.336253288
450200000005766,450200000005766,Wethouder Zonneveldstr,Wethouder Zonneveldstraat,1911HE,1911HE,17,17.0,,,,,Uitgeest,Uitgeest,523846.6654200859,6895314.6922036335
450200000005767,450200000005767,Wethouder Zonneveldstr,Wethouder Zonneveldstraat,1911HE,1911HE,18,18.0,,,,,Uitgeest,Uitgeest,523844.3742751645,6895363.396341957
450200000005768,450200000005768,Wethouder Zonneveldstr,Wethouder Zonneveldstraat,1911HE,1911HE,19,19.0,,,,,Uitgeest,Uitgeest,523837.4111550109,6895317.9988251785
450200000005770,450200000005770,Wethouder Zonneveldstr,Wethouder Zonneveldstraat,1911HE,1911HE,20,20.0,,,,,Uitgeest,Uitgeest,523835.3350743943,6895367.5502162855
450200000005771,450200000005771,Wethouder Zonneveldstr,Wethouder Zonneveldstraat,1911HE,1911HE,21,21.0,,,,,Uitgeest,Uitgeest,523828.1467180715,6895322.213027816
450200000005772,450200000005772,Wethouder Zonneveldstr,Wethouder Zonneveldstraat,1911HE,1911HE,22,22.0,,,,,Uitgeest,Uitgeest,523826.1905615826,6895370.341550773
450200000005773,450200000005773,Wethouder Zonneveldstr,Wethouder Zonneveldstraat,1911HE,1911HE,23,23.0,,,,,Uitgeest,Uitgeest,523819.6340808226,6895326.366900224
450200000005774,450200000005774,Wethouder Zonneveldstr,Wethouder Zonneveldstraat,1911HE,1911HE,24,24.0,,,,,Uitgeest,Uitgeest,523817.86953376385,6895373.474456812
450200000005775,450200000005775,Wethouder Zonneveldstr,Wethouder Zonneveldstraat,1911HE,1911HE,27,27.0,,,,,Uitgeest,Uitgeest,523783.0915605372,6895340.048263292
450200000005469,450200000005469,Prinses Beatrixlaan,Prinses Beatrixlaan,1911HP,1911HP,23,21.0,,,,,Uitgeest,Uitgeest,524200.6466620083,6895656.356859179
450200000003209,450200000003209,Lagendijk,Lagendijk,1911MT,1911MT,19,19.0,,,11,110,Uitgeest,Uitgeest,526087.871033981,6895949.6381148305
450200000003308,450200000003308,Lagendijk,Lagendijk,1911MT,1911MT,19,19.0,,,39,4,Uitgeest,Uitgeest,525860.884919838,6896200.733302463
450200000000827,450200000000827,Burgemeester v Nienesstr,Burgemeester van Nienesstraat,1911CS,1911CS,32,32.0,,,,,Uitgeest,Uitgeest,524557.1868990205,6896375.643751699
450200000000842,450200000000842,Burg v Roosmalenstr,Burgemeester van Roosmalenstraat,1911EZ,1911EZ,1,1.0,c,c,,,Uitgeest,Uitgeest,523980.3930942603,6894747.878465854
450200000000840,450200000000840,Burg v Roosmalenstr,Burgemeester van Roosmalenstraat,1911EZ,1911EZ,1,1.0,a,a,,,Uitgeest,Uitgeest,523966.0524548776,6894761.610924381
450200000000841,450200000000841,Burg v Roosmalenstr,Burgemeester van Roosmalenstraat,1911EZ,1911EZ,1,1.0,b,b,,,Uitgeest,Uitgeest,523975.5101809949,6894753.322597494
450200000003524,450200000003524,Lagendijk,Lagendijk,1911MT,1911MT,7,7.0,C,c,,,Uitgeest,Uitgeest,525751.7426014624,6896122.99962154
450200000003593,450200000003593,Lagendijk,Lagendijk,1911MT,1911MT,7,7.0,D,d,,,Uitgeest,Uitgeest,525757.4736035868,6896148.698659499
450200000006145,450200000006145,Burg v Roosmalenstr,Burgemeester van Roosmalenstraat,1911EZ,1911EZ,2,2.0,,,,,Uitgeest,Uitgeest,524091.2548908724,6894610.755786073
450200000006144,450200000006144,Burg v Roosmalenstr,Burgemeester van Roosmalenstraat,1911EZ,1911EZ,4,4.0,,,,,Uitgeest,Uitgeest,524101.2807600519,6894607.9727063645
450200000006143,450200000006143,Burg v Roosmalenstr,Burgemeester van Roosmalenstraat,1911EZ,1911EZ,6,6.0,,,,,Uitgeest,Uitgeest,524108.65917673445,6894605.220622933
450200000006142,450200000006142,Burg v Roosmalenstr,Burgemeester van Roosmalenstraat,1911EZ,1911EZ,8,8.0,,,,,Uitgeest,Uitgeest,524116.03597919305,6894602.4652301
450200000006141,450200000006141,Burg v Roosmalenstr,Burgemeester van Roosmalenstraat,1911EZ,1911EZ,10,10.0,,,,,Uitgeest,Uitgeest,524123.42094575235,6894599.713196638
450200000006140,450200000006140,Burg v Roosmalenstr,Burgemeester van Roosmalenstraat,1911EZ,1911EZ,12,12.0,,,,,Uitgeest,Uitgeest,524131.7514459138,6894596.697107021
450200000006139,450200000006139,Burg v Roosmalenstr,Burgemeester van Roosmalenstraat,1911EZ,1911EZ,14,14.0,,,,,Uitgeest,Uitgeest,524140.9764748059,6894593.258634893
450200000006138,450200000006138,Burg v Roosmalenstr,Burgemeester van Roosmalenstraat,1911EZ,1911EZ,16,16.0,,,,,Uitgeest,Uitgeest,524150.1183338311,6894589.768401485
450200000006137,450200000006137,Burg v Roosmalenstr,Burgemeester van Roosmalenstraat,1911EZ,1911EZ,18,18.0,,,,,Uitgeest,Uitgeest,524159.3189319221,6894586.309951219
450200000006136,450200000006136,Burg v Roosmalenstr,Burgemeester van Roosmalenstraat,1911EZ,1911EZ,20,20.0,,,,,Uitgeest,Uitgeest,524168.6013824393,6894582.867058915
450200000006135,450200000006135,Burg v Roosmalenstr,Burgemeester van Roosmalenstraat,1911EZ,1911EZ,22,22.0,,,,,Uitgeest,Uitgeest,524178.84914008615,6894580.026785809
450200000006119,450200000006119,Burg v Roosmalenstr,Burgemeester van Roosmalenstraat,1911EZ,1911EZ,24,24.0,,,,,Uitgeest,Uitgeest,524202.0179270095,6894568.213757025
450200000006120,450200000006120,Burg v Roosmalenstr,Burgemeester van Roosmalenstraat,1911EZ,1911EZ,26,26.0,,,,,Uitgeest,Uitgeest,524211.4032879832,6894564.8112507025
450200000006121,450200000006121,Burg v Roosmalenstr,Burgemeester van Roosmalenstraat,1911EZ,1911EZ,28,28.0,,,,,Uitgeest,Uitgeest,524221.252135957,6894563.058936081
450200000006122,450200000006122,Burg v Roosmalenstr,Burgemeester van Roosmalenstraat,1911EZ,1911EZ,30,30.0,,,,,Uitgeest,Uitgeest,524229.88855514413,6894558.011750613
450200000006123,450200000006123,Burg v Roosmalenstr,Burgemeester van Roosmalenstraat,1911EZ,1911EZ,32,32.0,,,,,Uitgeest,Uitgeest,524239.1086859387,6894554.561627384
450200000006124,450200000006124,Burg v Roosmalenstr,Burgemeester van Roosmalenstraat,1911EZ,1911EZ,34,34.0,,,,,Uitgeest,Uitgeest,524248.3319813295,6894551.123034229
450200000006125,450200000006125,Burg v Roosmalenstr,Burgemeester van Roosmalenstraat,1911EZ,1911EZ,36,36.0,,,,,Uitgeest,Uitgeest,524259.63879272476,6894547.621775781
450200000006126,450200000006126,Burg v Roosmalenstr,Burgemeester van Roosmalenstraat,1911EZ,1911EZ,38,38.0,,,,,Uitgeest,Uitgeest,524267.3721311206,6894545.841333391
450200000006127,450200000006127,Burg v Roosmalenstr,Burgemeester van Roosmalenstraat,1911EZ,1911EZ,40,40.0,,,,,Uitgeest,Uitgeest,524275.96819479956,6894540.719741697
450200000006128,450200000006128,Burg v Roosmalenstr,Burgemeester van Roosmalenstraat,1911EZ,1911EZ,42,42.0,,,,,Uitgeest,Uitgeest,524285.28264995076,6894537.52695332
450200000006129,450200000006129,Burg v Roosmalenstr,Burgemeester van Roosmalenstraat,1911EZ,1911EZ,44,44.0,,,,,Uitgeest,Uitgeest,524295.0787111614,6894535.626081254
450200000006130,450200000006130,Burg v Roosmalenstr,Burgemeester van Roosmalenstraat,1911EZ,1911EZ,46,46.0,,,,,Uitgeest,Uitgeest,524304.3611668944,6894532.345830153
450200000006131,450200000006131,Burg v Roosmalenstr,Burgemeester van Roosmalenstraat,1911EZ,1911EZ,48,48.0,,,,,Uitgeest,Uitgeest,524313.5539864409,6894528.8279645415
450200000006132,450200000006132,Burg v Roosmalenstr,Burgemeester van Roosmalenstraat,1911EZ,1911EZ,50,50.0,,,,,Uitgeest,Uitgeest,524322.7772056198,6894525.390940729
450200000006133,450200000006133,Burg v Roosmalenstr,Burgemeester van Roosmalenstraat,1911EZ,1911EZ,52,52.0,,,,,Uitgeest,Uitgeest,524331.9988383654,6894521.9473161725
450200000006134,450200000006134,Burg v Roosmalenstr,Burgemeester van Roosmalenstraat,1911EZ,1911EZ,54,54.0,,,,,Uitgeest,Uitgeest,524341.478090319,6894518.489655704
