BAGNUMIDENTIFICATIE,B_NUMMERAANDUIDING,OPENBARERUIMTENAAM,B_OPENBARERUIMTE,POSTCODE,B_POSTCODE,HUISNUMMER,B_HUISNUMMER,HUISLETTER,B_HUISLETTER,HUISNUMMERTOEVOEGING,B_HUISNUMMERTOEVOEGING,WOONPLAATSNAAM,B_WOONPLAATSNAAM,x,y
597200000265822,597200000265822,Bourgondischelaan,Bourgondischelaan,2983SH,2983SH,12,10,,,,,Ridderkerk,Ridderkerk,513354.4133081371,6779944.823785503
597200000248560,597200000248560,Gebroken Meeldijk,Gebroken Meeldijk,2988CA,2988CA,2,3,,,,,Ridderkerk,Ridderkerk,508134.7192044542,6773689.481776887
597200000124139,597200000124139,Haven,Haven,2984AA,2984BR,30,30,,,,,Ridderkerk,Ridderkerk,515163.13371835736,6777419.745836154
597200000266978,597200000266978,Pruimendijk,Pruimendijk,2989AL,2989AL,184,182,a,,,,Ridderkerk,Ridderkerk,514362.1374187839,6773499.856022313
597200000270352,597200000270352,Ringdijk,Ringdijk,2982XH,2982XH,62,60,,,,,Ridderkerk,Ridderkerk,512403.0809282629,6777173.198816785
597200000245500,597200000245500,Erasmuslaan,Erasmuspark,2984XH,,21,321,a,,,,Ridderkerk,Ridderkerk,514092.3153055683,6776562.493384414
597200000235558,597200000235558,Haven,Haven,2984AA,2984BR,24,24,,,,,Ridderkerk,Ridderkerk,514999.0745363286,6777340.23232155
597200000231542,597200000231542,Ridderhaven,Ridderhaven,2984BT,2984BV,1,1,,,,,Ridderkerk,Ridderkerk,514735.47656235466,6777818.922552297
597200000240794,597200000240794,Vlietlaan,Vlietlaan,2986AZ,2986AZ,6,50,,,,,Ridderkerk,Ridderkerk,515002.5167282036,6775771.584019395
597200000240632,597200000240632,Haven,Haven,2984AA,2984BR,28,28,,,,,Ridderkerk,Ridderkerk,515032.8153561334,6777360.034656946
597200000200212,597200000200212,Haven,Haven,2984AA,2984BR,20,20,,,,,Ridderkerk,Ridderkerk,514817.8338672615,6777682.542942393
597200000233878,597200000233878,Voorzand,Voorzand,2984BH,2984BH,24,24,a,b,,,Ridderkerk,Ridderkerk,512954.02539697837,6776746.430698339
597200000238670,597200000238670,Erasmuslaan,Erasmuspark,2984XH,,23,323,a,,,,Ridderkerk,Ridderkerk,513941.7851524788,6776581.962844634
597200000288011,597200000288011,Talmastraat,Talmastraat,2982XM,2982XM,11,13,,,,,Ridderkerk,Ridderkerk,512089.10126566957,6777235.387759557
597200000288026,597200000288026,Talmastraat,Talmastraat,2982XM,2982XM,21,23,,,,,Ridderkerk,Ridderkerk,512058.6558891858,6777277.115693996
597200000288032,597200000288032,Talmastraat,Talmastraat,2982XM,2982XM,25,27,,,,,Ridderkerk,Ridderkerk,512048.1778998395,6777291.594634831
597200000288038,597200000288038,Talmastraat,Talmastraat,2982XM,2982XM,29,31,,,,,Ridderkerk,Ridderkerk,512037.8739436149,6777305.522820828
597200000288050,597200000288050,Talmastraat,Talmastraat,2982XM,2982XM,37,41,,,,,Ridderkerk,Ridderkerk,511952.8252840599,6777421.296194075
597200000287999,597200000287999,Talmastraat,Talmastraat,2982XM,2982XM,3,5,,,,,Ridderkerk,Ridderkerk,512109.7337888816,6777207.162262945
597200000288041,597200000288041,Talmastraat,Talmastraat,2982XM,2982XM,31,35,,,,,Ridderkerk,Ridderkerk,511968.75099931454,6777399.829482231
597200000288059,597200000288059,Talmastraat,Talmastraat,2982XM,2982XM,43,47,,,,,Ridderkerk,Ridderkerk,511932.8023894489,6777448.507610943
597200000288005,597200000288005,Talmastraat,Talmastraat,2982XM,2982XM,7,9,,,,,Ridderkerk,Ridderkerk,512099.5345409585,6777220.994277235
597200000288008,597200000288008,Talmastraat,Talmastraat,2982XM,2982XM,9,11,,,,,Ridderkerk,Ridderkerk,512094.40081154177,6777228.298071106
597200000288056,597200000288056,Talmastraat,Talmastraat,2982XM,2982XM,41,45,,,,,Ridderkerk,Ridderkerk,511942.4801339245,6777435.266173287
597200000288014,597200000288014,Talmastraat,Talmastraat,2982XM,2982XM,13,15,,,,,Ridderkerk,Ridderkerk,512083.83844453795,6777242.81819269
597200000287996,597200000287996,Talmastraat,Talmastraat,2982XM,2982XM,1,3,,,,,Ridderkerk,Ridderkerk,512115.02731946023,6777200.326966326
597200000288002,597200000288002,Talmastraat,Talmastraat,2982XM,2982XM,5,7,,,,,Ridderkerk,Ridderkerk,512104.4944175508,6777214.071080014
597200000288017,597200000288017,Talmastraat,Talmastraat,2982XM,2982XM,15,17,,,,,Ridderkerk,Ridderkerk,512078.582508229,6777249.610154455
597200000288035,597200000288035,Talmastraat,Talmastraat,2982XM,2982XM,27,29,,,,,Ridderkerk,Ridderkerk,512043.4753710655,6777298.180312672
597200000288020,597200000288020,Talmastraat,Talmastraat,2982XM,2982XM,17,19,,,,,Ridderkerk,Ridderkerk,512068.7317990257,6777263.1915378105
597200000288047,597200000288047,Talmastraat,Talmastraat,2982XM,2982XM,35,39,,,,,Ridderkerk,Ridderkerk,511958.12945574254,6777413.950408673
597200000288062,597200000288062,Talmastraat,Talmastraat,2982XM,2982XM,45,49,,,,,Ridderkerk,Ridderkerk,511927.3240060788,6777455.814240338
597200000288029,597200000288029,Talmastraat,Talmastraat,2982XM,2982XM,23,25,,,,,Ridderkerk,Ridderkerk,512053.6082089427,6777284.378308955
597200000288053,597200000288053,Talmastraat,Talmastraat,2982XM,2982XM,39,43,,,,,Ridderkerk,Ridderkerk,511947.9549550058,6777427.83795953
597200000288023,597200000288023,Talmastraat,Talmastraat,2982XM,2982XM,19,21,,,,,Ridderkerk,Ridderkerk,512063.54968844494,6777270.629342197
597200000288068,597200000288068,Talmastraat,Talmastraat,2982XM,2982XM,49,53,,,,,Ridderkerk,Ridderkerk,511916.82188382087,6777470.239585043
597200000288065,597200000288065,Talmastraat,Talmastraat,2982XM,2982XM,47,51,,,,,Ridderkerk,Ridderkerk,511922.33648152906,6777463.024104161
597200000288044,597200000288044,Talmastraat,Talmastraat,2982XM,2982XM,33,37,,,,,Ridderkerk,Ridderkerk,511963.28386887314,6777406.9984534085
597200000288071,597200000288071,Talmastraat,Talmastraat,2982XM,2982XM,51,55,,,,,Ridderkerk,Ridderkerk,511911.77579709404,6777477.332125896
597200000288119,597200000288119,Klaas Katerstraat,Talmastraat,2982XG,2982XM,24,1,,,,,Ridderkerk,Ridderkerk,512134.5896823272,6777164.597571444
597200000287969,597200000287969,Poesiatstraat,Talmastraat,2982XR,2982XM,32,33,,,,,Ridderkerk,Ridderkerk,511988.5547703004,6777365.350126549
