BAGNUMIDENTIFICATIE,B_NUMMERAANDUIDING,OPENBARERUIMTENAAM,B_OPENBARERUIMTE,POSTCODE,B_POSTCODE,HUISNUMMER,B_HUISNUMMER,HUISLETTER,B_HUISLETTER,HUISNUMMERTOEVOEGING,B_HUISNUMMERTOEVOEGING,WOONPLAATSNAAM,B_WOONPLAATSNAAM,x,y
654200000024899,654200000024899,'s-Heer Abtskerksezandwg,'s-Heer Abtskerksezandweg,4444WW,,1,1,,,,,'s-Heer Abtskerke,'s-Heer Abtskerke,433860.34467547835,6705750.151823985
654200000013176,654200000013176,Burg Andriessenstraat,Burgemeester Andriessenstraat,4441AP,4441AP,2,2,,,,,Ovezande,Ovezande,425407.672965059,6697529.959467747
654200000013177,654200000013177,Burg Andriessenstraat,Burgemeester Andriessenstraat,4441AN,4441AN,3,3,,,,,Ovezande,Ovezande,425497.1530089176,6697600.909764125
654200000013179,654200000013179,Burg Andriessenstraat,Burgemeester Andriessenstraat,4441AN,4441AN,5,5,,,,,Ovezande,Ovezande,425519.1534430042,6697603.969074072
654200000013180,654200000013180,Burg Andriessenstraat,Burgemeester Andriessenstraat,4441AP,4441AP,6,6,,,,,Ovezande,Ovezande,425500.60376536683,6697557.20217863
654200000013181,654200000013181,Burg Andriessenstraat,Burgemeester Andriessenstraat,4441AN,4441AN,7,7,,,,,Ovezande,Ovezande,425536.4857485601,6697609.037054544
654200000013182,654200000013182,Burg Andriessenstraat,Burgemeester Andriessenstraat,4441AP,4441AP,8,8,,,,,Ovezande,Ovezande,425522.2079990819,6697551.615696913
654200000013183,654200000013183,Burg Andriessenstraat,Burgemeester Andriessenstraat,4441AN,4441AN,9,9,,,,,Ovezande,Ovezande,425559.8433375811,6697615.186473469
654200000013184,654200000013184,Burg Andriessenstraat,Burgemeester Andriessenstraat,4441AP,4441AP,10,10,,,,,Ovezande,Ovezande,425537.5825494914,6697564.598188137
654200000013186,654200000013186,Burg Andriessenstraat,Burgemeester Andriessenstraat,4441AP,4441AP,12,12,,,,,Ovezande,Ovezande,425550.70771296485,6697567.41186918
654200000013190,654200000013190,Burg Andriessenstraat,Burgemeester Andriessenstraat,4441AP,4441AP,16,16,,,,,Ovezande,Ovezande,425576.4383103728,6697573.387541897
654200000013191,654200000013191,Burg Andriessenstraat,Burgemeester Andriessenstraat,4441AN,4441AN,17,17,,,,,Ovezande,Ovezande,425616.77602842456,6697626.13341525
654200000013192,654200000013192,Burg Andriessenstraat,Burgemeester Andriessenstraat,4441AP,4441AP,18,18,,,,,Ovezande,Ovezande,425586.1609881106,6697575.102294341
654200000013194,654200000013194,Burg Andriessenstraat,Burgemeester Andriessenstraat,4441AP,4441AP,20,20,,,,,Ovezande,Ovezande,425596.06262698333,6697576.983003688
654200000013196,654200000013196,Burg Andriessenstraat,Burgemeester Andriessenstraat,4441AP,4441AP,24,24,,,,,Ovezande,Ovezande,425622.8634577404,6697582.175771823
654200000013197,654200000013197,Burg Andriessenstraat,Burgemeester Andriessenstraat,4441AN,4441AN,25,25,,,,,Ovezande,Ovezande,425649.86484956736,6697633.082548049
654200000013199,654200000013199,Burg Andriessenstraat,Burgemeester Andriessenstraat,4441AN,4441AN,27,27,,,,,Ovezande,Ovezande,425678.1814818465,6697640.171339318
654200000013200,654200000013200,Burg Andriessenstraat,Burgemeester Andriessenstraat,4441AP,4441AP,28,28,,,,,Ovezande,Ovezande,425642.7756020679,6697585.863990872
654200000013202,654200000013202,Burg Andriessenstraat,Burgemeester Andriessenstraat,4441AP,4441AP,30,30,,,,,Ovezande,Ovezande,425660.56716013566,6697587.350863312
654200000013204,654200000013204,Burg Andriessenstraat,Burgemeester Andriessenstraat,4441AP,4441AP,32,32,,,,,Ovezande,Ovezande,425688.10808881314,6697593.349063573
654200000013205,654200000013205,Burg Andriessenstraat,Burgemeester Andriessenstraat,4441AN,4441AN,33,33,,,,,Ovezande,Ovezande,425735.1873503487,6697564.062318436
654200000013206,654200000013206,Burg Andriessenstraat,Burgemeester Andriessenstraat,4441AP,4441AP,34,34,,,,,Ovezande,Ovezande,425693.9828813494,6697568.749748104
654200000013209,654200000013209,Burg van Horsighstraat,Burgemeester van Horsighstraat,4453CP,4453CP,1,1,,,,,'s-Heerenhoek,'s-Heerenhoek,419084.991960874,6701980.813190555
654200000013185,654200000013185,Burg Andriessenstraat,Burgemeester Andriessenstraat,4441AN,4441AN,11,11,,,,,Ovezande,Ovezande,425570.03409564396,6697617.17456724
654200000013187,654200000013187,Burg Andriessenstraat,Burgemeester Andriessenstraat,4441AN,4441AN,13,13,,,,,Ovezande,Ovezande,425580.22645898716,6697619.162683115
654200000013203,654200000013203,Burg Andriessenstraat,Burgemeester Andriessenstraat,4441AN,4441AN,31,31,,,,,Ovezande,Ovezande,425735.366727706,6697592.740410004
654200000013188,654200000013188,Burg Andriessenstraat,Burgemeester Andriessenstraat,4441AP,4441AP,14,14,,,,,Ovezande,Ovezande,425566.87936718925,6697571.876942742
654200000013189,654200000013189,Burg Andriessenstraat,Burgemeester Andriessenstraat,4441AN,4441AN,15,15,,,,,Ovezande,Ovezande,425590.41722717305,6697621.150752255
654200000013193,654200000013193,Burg Andriessenstraat,Burgemeester Andriessenstraat,4441AN,4441AN,19,19,,,,,Ovezande,Ovezande,425627.04683847283,6697628.047718929
654200000013195,654200000013195,Burg Andriessenstraat,Burgemeester Andriessenstraat,4441AP,4441AP,22,22,,,,,Ovezande,Ovezande,425613.8909657118,6697581.014917884
654200000013198,654200000013198,Burg Andriessenstraat,Burgemeester Andriessenstraat,4441AP,4441AP,26,26,,,,,Ovezande,Ovezande,425632.24851138354,6697583.8832100155
654200000013201,654200000013201,Burg Andriessenstraat,Burgemeester Andriessenstraat,4441AN,4441AN,29,29,,,,,Ovezande,Ovezande,425722.8923283076,6697621.7100630505
654200000013210,654200000013210,Burg van Horsighstraat,Burgemeester van Horsighstraat,4453CS,4453CS,2,2,,,,,'s-Heerenhoek,'s-Heerenhoek,419126.91614507395,6701968.065346535
654200000013211,654200000013211,Burg van Horsighstraat,Burgemeester van Horsighstraat,4453CP,4453CP,3,3,,,,,'s-Heerenhoek,'s-Heerenhoek,419090.83693093515,6701998.280684188
654200000013215,654200000013215,Burg van Horsighstraat,Burgemeester van Horsighstraat,4453CP,4453CP,7,7,,,,,'s-Heerenhoek,'s-Heerenhoek,419103.3715129938,6702020.569432698
654200000013217,654200000013217,Burg van Horsighstraat,Burgemeester van Horsighstraat,4453CP,4453CP,9,9,,,,,'s-Heerenhoek,'s-Heerenhoek,419111.43439799343,6702036.986350719
654200000013218,654200000013218,Burg van Horsighstraat,Burgemeester van Horsighstraat,4453CS,4453CS,10,10,,,,,'s-Heerenhoek,'s-Heerenhoek,419156.98021399113,6702020.790613465
654200000013219,654200000013219,Burg van Horsighstraat,Burgemeester van Horsighstraat,4453CS,4453CS,12,12,,,,,'s-Heerenhoek,'s-Heerenhoek,419173.74786206806,6702020.665160775
654200000013220,654200000013220,Burg van Horsighstraat,Burgemeester van Horsighstraat,4453CP,4453CP,13,13,,,,,'s-Heerenhoek,'s-Heerenhoek,419161.88327314187,6702064.038136743
654200000013221,654200000013221,Burg van Horsighstraat,Burgemeester van Horsighstraat,4453CS,4453CS,14,14,,,,,'s-Heerenhoek,'s-Heerenhoek,419183.9867878808,6702020.522542275
654200000013222,654200000013222,Burg van Horsighstraat,Burgemeester van Horsighstraat,4453CP,4453CP,15,15,,,,,'s-Heerenhoek,'s-Heerenhoek,419172.0723643456,6702064.194749754
654200000013224,654200000013224,Burg van Horsighstraat,Burgemeester van Horsighstraat,4453CP,4453CP,17,17,,,,,'s-Heerenhoek,'s-Heerenhoek,419188.8562159709,6702064.209350723
654200000013225,654200000013225,Burg van Horsighstraat,Burgemeester van Horsighstraat,4453CS,4453CS,18,18,,,,,'s-Heerenhoek,'s-Heerenhoek,419208.7522446375,6702020.405156446
654200000013227,654200000013227,Burg van Horsighstraat,Burgemeester van Horsighstraat,4453CS,4453CS,20,20,,,,,'s-Heerenhoek,'s-Heerenhoek,419226.4521887106,6702020.928344225
654200000013228,654200000013228,Burg van Horsighstraat,Burgemeester van Horsighstraat,4453CP,4453CP,21,21,,,,,'s-Heerenhoek,'s-Heerenhoek,419216.2260189149,6702063.893058119
654200000013229,654200000013229,Burg van Horsighstraat,Burgemeester van Horsighstraat,4453CS,4453CS,22,22,,,,,'s-Heerenhoek,'s-Heerenhoek,419236.68548985064,6702020.9670152925
654200000013231,654200000013231,Burg van Horsighstraat,Burgemeester van Horsighstraat,4453CS,4453CS,24,24,,,,,'s-Heerenhoek,'s-Heerenhoek,419253.8528663333,6702020.874400042
654200000013235,654200000013235,Burg van Horsighstraat,Burgemeester van Horsighstraat,4453CS,4453CS,28,28,,,,,'s-Heerenhoek,'s-Heerenhoek,419274.35106765176,6702020.610279466
654200000013236,654200000013236,Burg van Horsighstraat,Burgemeester van Horsighstraat,4453CR,4453CR,29,29,,,,,'s-Heerenhoek,'s-Heerenhoek,419259.51937117387,6702063.5237643225
654200000013237,654200000013237,Burg van Horsighstraat,Burgemeester van Horsighstraat,4453CS,4453CS,30,30,,,,,'s-Heerenhoek,'s-Heerenhoek,419307.31491244683,6702022.507835651
654200000013238,654200000013238,Burg van Horsighstraat,Burgemeester van Horsighstraat,4453CR,4453CR,31,31,,,,,'s-Heerenhoek,'s-Heerenhoek,419269.06907396775,6702063.619425018
654200000013240,654200000013240,Burg van Horsighstraat,Burgemeester van Horsighstraat,4453CR,4453CR,33,33,,,,,'s-Heerenhoek,'s-Heerenhoek,419278.1971641659,6702063.802038174
654200000013212,654200000013212,Burg van Horsighstraat,Burgemeester van Horsighstraat,4453CS,4453CS,4,4,,,,,'s-Heerenhoek,'s-Heerenhoek,419131.4253073698,6701993.181392001
654200000013213,654200000013213,Burg van Horsighstraat,Burgemeester van Horsighstraat,4453CP,4453CP,5,5,,,,,'s-Heerenhoek,'s-Heerenhoek,419099.3605233059,6702012.342166859
654200000013223,654200000013223,Burg van Horsighstraat,Burgemeester van Horsighstraat,4453CS,4453CS,16,16,,,,,'s-Heerenhoek,'s-Heerenhoek,419198.20700043405,6702019.842350616
654200000013230,654200000013230,Burg van Horsighstraat,Burgemeester van Horsighstraat,4453CP,4453CP,23,23,,,,,'s-Heerenhoek,'s-Heerenhoek,419225.3158618273,6702063.994575977
654200000013234,654200000013234,Burg van Horsighstraat,Burgemeester van Horsighstraat,4453CP,4453CP,27,27,,,,,'s-Heerenhoek,'s-Heerenhoek,419243.3867537118,6702063.830584045
654200000013226,654200000013226,Burg van Horsighstraat,Burgemeester van Horsighstraat,4453CP,4453CP,19,19,,,,,'s-Heerenhoek,'s-Heerenhoek,419199.25434057356,6702064.11362508
654200000013232,654200000013232,Burg van Horsighstraat,Burgemeester van Horsighstraat,4453CP,4453CP,25,25,,,,,'s-Heerenhoek,'s-Heerenhoek,419234.6688493571,6702064.003982659
654200000013233,654200000013233,Burg van Horsighstraat,Burgemeester van Horsighstraat,4453CS,4453CS,26,26,,,,,'s-Heerenhoek,'s-Heerenhoek,419263.9916722626,6702020.767992892
654200000013239,654200000013239,Burg van Horsighstraat,Burgemeester van Horsighstraat,4453CS,4453CS,32,32,,,,,'s-Heerenhoek,'s-Heerenhoek,419308.9709057298,6702012.479745779
654200000013241,654200000013241,Burg van Horsighstraat,Burgemeester van Horsighstraat,4453CS,4453CS,34,34,,,,,'s-Heerenhoek,'s-Heerenhoek,419310.42964194925,6702002.967624684
654200000013242,654200000013242,Burg van Horsighstraat,Burgemeester van Horsighstraat,4453CR,4453CR,35,35,,,,,'s-Heerenhoek,'s-Heerenhoek,419286.3995644151,6702063.470951725
654200000013244,654200000013244,Burg van Horsighstraat,Burgemeester van Horsighstraat,4453CR,4453CR,37,37,,,,,'s-Heerenhoek,'s-Heerenhoek,419301.1687957702,6702062.5956336595
654200000013245,654200000013245,Burg van Horsighstraat,Burgemeester van Horsighstraat,4453CS,4453CS,38,38,,,,,'s-Heerenhoek,'s-Heerenhoek,419315.01334002346,6701982.050109864
654200000013247,654200000013247,Burg van Horsighstraat,Burgemeester van Horsighstraat,4453CS,4453CS,40,40,,,,,'s-Heerenhoek,'s-Heerenhoek,419316.485399481,6701973.381482161
654200000013248,654200000013248,Burg van Horsighstraat,Burgemeester van Horsighstraat,4453CR,4453CR,41,41,,,,,'s-Heerenhoek,'s-Heerenhoek,419326.32961126574,6702065.4594789585
654200000013250,654200000013250,Burg van Horsighstraat,Burgemeester van Horsighstraat,4453CS,4453CS,42,42,,,,,'s-Heerenhoek,'s-Heerenhoek,419317.587689655,6701964.340055448
654200000013252,654200000013252,Burg van Horsighstraat,Burgemeester van Horsighstraat,4453CS,4453CS,44,44,,,,,'s-Heerenhoek,'s-Heerenhoek,419319.1071354761,6701955.412327124
654200000013254,654200000013254,Burg van Horsighstraat,Burgemeester van Horsighstraat,4453CS,4453CS,46,46,,,,,'s-Heerenhoek,'s-Heerenhoek,419323.16631660657,6701923.832154264
654200000013258,654200000013258,Burg van Horsighstraat,Burgemeester van Horsighstraat,4453CR,4453CR,53,53,,,,,'s-Heerenhoek,'s-Heerenhoek,419355.61210607726,6701961.07923018
654200000013259,654200000013259,Burg van Horsighstraat,Burgemeester van Horsighstraat,4453CR,4453CR,55,55,,,,,'s-Heerenhoek,'s-Heerenhoek,419357.09948811197,6701952.512138647
654200000013260,654200000013260,Burg Jansenstraat,Burgemeester Jansenstraat,4431BK,4431BK,1,1,,,,,'s-Gravenpolder,'s-Gravenpolder,433764.18004286604,6703009.042927532
654200000013262,654200000013262,Burg Jansenstraat,Burgemeester Jansenstraat,4431BL,4431BL,2,2,,,,,'s-Gravenpolder,'s-Gravenpolder,433753.8531070662,6702952.7530721035
654200000013263,654200000013263,Burg Jansenstraat,Burgemeester Jansenstraat,4431BK,4431BK,3,3,,,,,'s-Gravenpolder,'s-Gravenpolder,433913.1946279946,6703059.336344148
654200000013264,654200000013264,Burg Jansenstraat,Burgemeester Jansenstraat,4431BL,4431BL,4,4,,,,,'s-Gravenpolder,'s-Gravenpolder,433763.07361524453,6702955.605156763
654200000013268,654200000013268,Burg Jansenstraat,Burgemeester Jansenstraat,4431BL,4431BL,8,8,,,,,'s-Gravenpolder,'s-Gravenpolder,433781.5161870058,6702961.312541519
654200000013269,654200000013269,Burg Jansenstraat,Burgemeester Jansenstraat,4431BK,4431BK,9,9,,,,,'s-Gravenpolder,'s-Gravenpolder,433939.62654191593,6703071.814974208
654200000013270,654200000013270,Burg Jansenstraat,Burgemeester Jansenstraat,4431BL,4431BL,10,10,,,,,'s-Gravenpolder,'s-Gravenpolder,433808.48024371394,6702969.666461726
654200000013243,654200000013243,Burg van Horsighstraat,Burgemeester van Horsighstraat,4453CS,4453CS,36,36,,,,,'s-Heerenhoek,'s-Heerenhoek,419311.8635749103,6701993.63483663
654200000013246,654200000013246,Burg van Horsighstraat,Burgemeester van Horsighstraat,4453CR,4453CR,39,39,,,,,'s-Heerenhoek,'s-Heerenhoek,419310.715366229,6702062.832506951
654200000013251,654200000013251,Burg van Horsighstraat,Burgemeester van Horsighstraat,4453CR,4453CR,43,43,,,,,'s-Heerenhoek,'s-Heerenhoek,419344.83937314706,6702026.927179938
654200000013253,654200000013253,Burg van Horsighstraat,Burgemeester van Horsighstraat,4453CR,4453CR,45,45,,,,,'s-Heerenhoek,'s-Heerenhoek,419347.5831137479,6702004.825091929
654200000013257,654200000013257,Burg van Horsighstraat,Burgemeester van Horsighstraat,4453CR,4453CR,51,51,,,,,'s-Heerenhoek,'s-Heerenhoek,419354.4166430165,6701969.917828897
654200000013255,654200000013255,Burg van Horsighstraat,Burgemeester van Horsighstraat,4453CR,4453CR,47,47,,,,,'s-Heerenhoek,'s-Heerenhoek,419349.1793164496,6701994.962710776
654200000013261,654200000013261,Burg Jansenstraat,Burgemeester Jansenstraat,4431BK,4431BK,1,1,A,A,,,'s-Gravenpolder,'s-Gravenpolder,433766.78518877114,6703042.56767945
654200000013265,654200000013265,Burg Jansenstraat,Burgemeester Jansenstraat,4431BK,4431BK,5,5,,,,,'s-Gravenpolder,'s-Gravenpolder,433921.9657715805,6703063.33714369
654200000013267,654200000013267,Burg Jansenstraat,Burgemeester Jansenstraat,4431BK,4431BK,7,7,,,,,'s-Gravenpolder,'s-Gravenpolder,433931.80297858006,6703067.852872439
654200000013256,654200000013256,Burg van Horsighstraat,Burgemeester van Horsighstraat,4453CR,4453CR,49,49,,,,,'s-Heerenhoek,'s-Heerenhoek,419353.0053558632,6701979.170800028
654200000013266,654200000013266,Burgemeester Jansenstr,Burgemeester Jansenstraat,4431BL,4431BL,6,6,,,,,'s-Gravenpolder,'s-Gravenpolder,433772.2956985174,6702958.458870294
654200000013271,654200000013271,Burg Jansenstraat,Burgemeester Jansenstraat,4431BK,4431BK,11,11,,,,,'s-Gravenpolder,'s-Gravenpolder,433992.1189521299,6703113.761258616
654200000013274,654200000013274,Burg Jansenstraat,Burgemeester Jansenstraat,4431BL,4431BL,14,14,,,,,'s-Gravenpolder,'s-Gravenpolder,433868.1881065365,6702991.344752093
654200000013275,654200000013275,Burg Jansenstraat,Burgemeester Jansenstraat,4431BK,4431BK,15,15,,,,,'s-Gravenpolder,'s-Gravenpolder,434046.0707801294,6703127.410171908
654200000013277,654200000013277,Burgemeester Jansenstr,Burgemeester Jansenstraat,4431BK,4431BK,17,17,,,,,'s-Gravenpolder,'s-Gravenpolder,434082.7130657966,6703143.573245999
654200000013281,654200000013281,Burgemeester Jansenstr,Burgemeester Jansenstraat,4431BK,4431BK,19,19,,,,,'s-Gravenpolder,'s-Gravenpolder,434104.75035031175,6703151.605482398
654200000013272,654200000013272,Burg Jansenstraat,Burgemeester Jansenstraat,4431BL,4431BL,12,12,,,,,'s-Gravenpolder,'s-Gravenpolder,433839.6377536797,6702982.136139082
654200000013273,654200000013273,Burg Jansenstraat,Burgemeester Jansenstraat,4431BK,4431BK,13,13,,,,,'s-Gravenpolder,'s-Gravenpolder,434029.1730193099,6703116.381422796
654200000013276,654200000013276,Burg Jansenstraat,Burgemeester Jansenstraat,4431BL,4431BL,16,16,,,,,'s-Gravenpolder,'s-Gravenpolder,433895.8142459566,6703002.750871933
654200000013393,654200000013393,Burg van Lierestraat,Burgemeester van Lierestraat,4436AL,4436AL,2,2,,,,,Oudelande,Oudelande,428980.6299123972,6693978.596864943
654200000013394,654200000013394,Burg van Lierestraat,Burgemeester van Lierestraat,4436AL,4436AL,3,3,,,,,Oudelande,Oudelande,428942.7815379858,6693912.992997772
654200000013396,654200000013396,Burg van Lierestraat,Burgemeester van Lierestraat,4436AL,4436AL,5,5,,,,,Oudelande,Oudelande,428987.02956064075,6693907.097745248
654200000117238,654200000117238,Burg van Lierestraat,Burgemeester van Lierestraat,4436AL,4436AL,6,6,,,,,Oudelande,Oudelande,428944.63172894064,6693990.467750116
654200000013401,654200000013401,Burg van Lierestraat,Burgemeester van Lierestraat,4436AL,4436AL,10,10,,,,,Oudelande,Oudelande,428926.40362803143,6693997.401077254
654200000230939,654200000230939,Burg van Lierestraat,Burgemeester van Lierestraat,4436AL,,10,10,G,G,,,Oudelande,Oudelande,428921.2021535466,6694033.659033528
654200000013411,654200000013411,Burg van Lierestraat,Burgemeester van Lierestraat,4436AL,4436AL,20,20,,,,,Oudelande,Oudelande,428903.37530530663,6693939.4191837935
654200000013417,654200000013417,Burg van Lierestraat,Burgemeester van Lierestraat,4436AL,4436AL,32,32,,,,,Oudelande,Oudelande,428899.69683156203,6693848.203138586
654200000013418,654200000013418,Burg van Lierestraat,Burgemeester van Lierestraat,4436AL,4436AL,34,34,,,,,Oudelande,Oudelande,428898.7488204507,6693834.739883265
654200000013420,654200000013420,Burg van Lierestraat,Burgemeester van Lierestraat,4436AL,4436AL,38,38,,,,,Oudelande,Oudelande,428898.30560840195,6693810.414324545
654200000013333,654200000013333,Burg Prumersstraat,Burgemeester Prumersstraat,4431CA,4431CA,4,4,,,,,'s-Gravenpolder,'s-Gravenpolder,434249.77307874226,6703101.8236027565
654200000013392,654200000013392,Burg van Lierestraat,Burgemeester van Lierestraat,4436AL,4436AL,1,1,,,,,Oudelande,Oudelande,428951.22568702395,6693943.282759598
654200000013399,654200000013399,Burg van Lierestraat,Burgemeester van Lierestraat,4436AL,4436AL,7,7,,,,,Oudelande,Oudelande,428945.456156394,6693878.334809444
654200000013395,654200000013395,Burg van Lierestraat,Burgemeester van Lierestraat,4436AL,4436AL,4,4,,,,,Oudelande,Oudelande,428963.7002238756,6693981.002678226
654200000013400,654200000013400,Burg van Lierestraat,Burgemeester van Lierestraat,4436AL,4436AL,8,8,,,,,Oudelande,Oudelande,428932.98620064865,6693987.905331981
654200000013332,654200000013332,Burg Prumersstraat,Burgemeester Prumersstraat,4431BZ,4431BZ,3,3,,,,,'s-Gravenpolder,'s-Gravenpolder,434219.95809914474,6703149.474112831
654200000230937,654200000230937,Burg van Lierestraat,Burgemeester van Lierestraat,4436AL,,10,10,E,E,,,Oudelande,Oudelande,428917.4578298657,6694024.42032886
654200000013409,654200000013409,Burg van Lierestraat,Burgemeester van Lierestraat,4436AL,4436AL,14,14,,,,,Oudelande,Oudelande,428905.09089572384,6693960.991503868
654200000013410,654200000013410,Burg van Lierestraat,Burgemeester van Lierestraat,4436AL,4436AL,18,18,,,,,Oudelande,Oudelande,428904.23388235515,6693950.206155488
654200000013412,654200000013412,Burg van Lierestraat,Burgemeester van Lierestraat,4436AL,4436AL,22,22,,,,,Oudelande,Oudelande,428902.5182962976,6693928.633863689
654200000230934,654200000230934,Burg van Lierestraat,Burgemeester van Lierestraat,4436AL,,10,10,B,B,,,Oudelande,Oudelande,428912.3102186659,6694010.829690183
654200000230933,654200000230933,Burg van Lierestraat,Burgemeester van Lierestraat,4436AL,,10,10,A,A,,,Oudelande,Oudelande,428910.369199966,6694006.708675129
654200000013413,654200000013413,Burg van Lierestraat,Burgemeester van Lierestraat,4436AL,4436AL,24,24,,,,,Oudelande,Oudelande,428902.09911289153,6693911.626254385
654200000013415,654200000013415,Burg van Lierestraat,Burgemeester van Lierestraat,4436AL,4436AL,28,28,,,,,Oudelande,Oudelande,428900.753979303,6693879.188812531
654200000013416,654200000013416,Burg van Lierestraat,Burgemeester van Lierestraat,4436AL,4436AL,30,30,,,,,Oudelande,Oudelande,428900.263349147,6693865.433527733
654200000013414,654200000013414,Burg van Lierestraat,Burgemeester van Lierestraat,4436AL,4436AL,26,26,,,,,Oudelande,Oudelande,428901.24301146186,6693892.944086685
654200000013330,654200000013330,Burg Prumersstraat,Burgemeester Prumersstraat,4431BZ,4431BZ,1,1,,,,,'s-Gravenpolder,'s-Gravenpolder,434196.65207348956,6703138.6776634585
654200000013331,654200000013331,Burg Prumersstraat,Burgemeester Prumersstraat,4431CA,4431CA,2,2,,,,,'s-Gravenpolder,'s-Gravenpolder,434220.18675336003,6703086.721172824
654200000013419,654200000013419,Burg van Lierestraat,Burgemeester van Lierestraat,4436AL,4436AL,36,36,,,,,Oudelande,Oudelande,428898.7946330471,6693824.169483165
654200000013334,654200000013334,Burg Prumersstraat,Burgemeester Prumersstraat,4431BZ,4431BZ,5,5,,,,,'s-Gravenpolder,'s-Gravenpolder,434243.6908916129,6703161.660575897
654200000013336,654200000013336,Burg Prumersstraat,Burgemeester Prumersstraat,4431BZ,4431BZ,7,7,,,,,'s-Gravenpolder,'s-Gravenpolder,434268.642350036,6703170.485995605
654200000013338,654200000013338,Burg Prumersstraat,Burgemeester Prumersstraat,4431BZ,4431BZ,9,9,,,,,'s-Gravenpolder,'s-Gravenpolder,434285.50490343204,6703270.414951112
654200000013339,654200000013339,Burg Prumersstraat,Burgemeester Prumersstraat,4431CA,4431CA,10,10,,,,,'s-Gravenpolder,'s-Gravenpolder,434330.70049368346,6703158.162463467
654200000013340,654200000013340,Burg Prumersstraat,Burgemeester Prumersstraat,4431BZ,4431BZ,11,11,,,,,'s-Gravenpolder,'s-Gravenpolder,434287.5768672984,6703294.579756737
654200000013341,654200000013341,Burg Prumersstraat,Burgemeester Prumersstraat,4431CA,4431CA,12,12,,,,,'s-Gravenpolder,'s-Gravenpolder,434332.24951513973,6703185.91255918
654200000013342,654200000013342,Burg Prumersstraat,Burgemeester Prumersstraat,4431BZ,4431BZ,13,13,,,,,'s-Gravenpolder,'s-Gravenpolder,434278.53577540873,6703320.065918628
654200000013343,654200000013343,Burg Prumersstraat,Burgemeester Prumersstraat,4431CA,4431CA,14,14,,,,,'s-Gravenpolder,'s-Gravenpolder,434334.7717303641,6703219.61602214
654200000013344,654200000013344,Burg Prumersstraat,Burgemeester Prumersstraat,4431BZ,4431BZ,15,15,,,,,'s-Gravenpolder,'s-Gravenpolder,434270.02261539147,6703344.955779648
654200000013346,654200000013346,Burg Prumersstraat,Burgemeester Prumersstraat,4431BZ,4431BZ,17,17,,,,,'s-Gravenpolder,'s-Gravenpolder,434253.2211194677,6703370.909882881
654200000013350,654200000013350,Burg Prumersstraat,Burgemeester Prumersstraat,4431BZ,4431BZ,21,21,,,,,'s-Gravenpolder,'s-Gravenpolder,434294.0580777295,6703378.061979502
654200000013351,654200000013351,Burg Prumersstraat,Burgemeester Prumersstraat,4431CA,4431CA,22,22,,,,,'s-Gravenpolder,'s-Gravenpolder,434349.6448810171,6703361.035921354
654200000013352,654200000013352,Burg Prumersstraat,Burgemeester Prumersstraat,4431BZ,4431BZ,23,23,,,,,'s-Gravenpolder,'s-Gravenpolder,434297.67659912974,6703413.234288551
654200000013353,654200000013353,Burg Prumersstraat,Burgemeester Prumersstraat,4431CA,4431CA,24,24,,,,,'s-Gravenpolder,'s-Gravenpolder,434356.93536315643,6703405.67815794
654200000013335,654200000013335,Burg Prumersstraat,Burgemeester Prumersstraat,4431CA,4431CA,6,6,,,,,'s-Gravenpolder,'s-Gravenpolder,434280.04935083055,6703116.169074701
654200000013337,654200000013337,Burg Prumersstraat,Burgemeester Prumersstraat,4431CA,4431CA,8,8,,,,,'s-Gravenpolder,'s-Gravenpolder,434311.88157588145,6703131.288320277
654200000013345,654200000013345,Burgemeester Prumersstr,Burgemeester Prumersstraat,4431CA,4431CA,16,16,,,,,'s-Gravenpolder,'s-Gravenpolder,434339.9360546052,6703256.141141243
654200000013347,654200000013347,Burg Prumersstraat,Burgemeester Prumersstraat,4431CA,4431CA,18,18,,,,,'s-Gravenpolder,'s-Gravenpolder,434343.93389422935,6703284.953528237
654200000013348,654200000013348,Burg Prumersstraat,Burgemeester Prumersstraat,4431BZ,4431BZ,19,19,,,,,'s-Gravenpolder,'s-Gravenpolder,434260.8284257811,6703394.667718767
654200000013349,654200000013349,Burg Prumersstraat,Burgemeester Prumersstraat,4431CA,4431CA,20,20,,,,,'s-Gravenpolder,'s-Gravenpolder,434348.4157428292,6703320.221756221
654200000013354,654200000013354,Burg Prumersstraat,Burgemeester Prumersstraat,4431CA,4431CA,26,26,,,,,'s-Gravenpolder,'s-Gravenpolder,434360.3224941127,6703437.035761349
654200000013355,654200000013355,Burg Prumersstraat,Burgemeester Prumersstraat,4431CA,4431CA,28,28,,,,,'s-Gravenpolder,'s-Gravenpolder,434363.8693755211,6703471.649449632
654200000013421,654200000013421,Burg Vermetstraat,Burgemeester Vermetstraat,4456AJ,4456AJ,1,1,,,,,Lewedorp,Lewedorp,417589.1365029916,6708991.817473953
654200000013424,654200000013424,Burg Vermetstraat,Burgemeester Vermetstraat,4456AJ,4456AJ,4,4,,,,,Lewedorp,Lewedorp,417635.36839923105,6708956.369816132
654200000013425,654200000013425,Burg Vermetstraat,Burgemeester Vermetstraat,4456AJ,4456AJ,5,5,,,,,Lewedorp,Lewedorp,417643.8820861078,6708952.4737623995
654200000013422,654200000013422,Burg Vermetstraat,Burgemeester Vermetstraat,4456AJ,4456AJ,2,2,,,,,Lewedorp,Lewedorp,417604.97812297684,6708974.478077206
654200000013423,654200000013423,Burg Vermetstraat,Burgemeester Vermetstraat,4456AJ,4456AJ,3,3,,,,,Lewedorp,Lewedorp,417623.19882201584,6708961.365035966
654200000013426,654200000013426,Burg Vermetstraat,Burgemeester Vermetstraat,4456AJ,4456AJ,6,6,,,,,Lewedorp,Lewedorp,417657.50830435083,6708946.146608513
654200000013428,654200000013428,Burg Vermetstraat,Burgemeester Vermetstraat,4456AJ,4456AJ,8,8,,,,,Lewedorp,Lewedorp,417700.39158944925,6708967.182909958
654200000013430,654200000013430,Burg Vermetstraat,Burgemeester Vermetstraat,4456AJ,4456AJ,10,10,,,,,Lewedorp,Lewedorp,417704.8251458618,6708997.389331277
654200000013431,654200000013431,Burg Vermetstraat,Burgemeester Vermetstraat,4456AJ,4456AJ,11,11,,,,,Lewedorp,Lewedorp,417706.46182580217,6709007.501384417
654200000013432,654200000013432,Burg Vermetstraat,Burgemeester Vermetstraat,4456AJ,4456AJ,12,12,,,,,Lewedorp,Lewedorp,417712.95356622565,6709032.208659791
654200000013434,654200000013434,Burg Vermetstraat,Burgemeester Vermetstraat,4456AJ,4456AJ,13,13,,,,,Lewedorp,Lewedorp,417740.2112802002,6709193.828380369
654200000013435,654200000013435,Burg Vermetstraat,Burgemeester Vermetstraat,4456AJ,4456AJ,14,14,,,,,Lewedorp,Lewedorp,417740.9159633648,6709219.159943022
654200000013436,654200000013436,Burg Vermetstraat,Burgemeester Vermetstraat,4456AJ,4456AJ,15,15,,,,,Lewedorp,Lewedorp,417737.29541287944,6709254.077639454
654200000013438,654200000013438,Burg Vermetstraat,Burgemeester Vermetstraat,4456AK,4456AK,17,17,,,,,Lewedorp,Lewedorp,417750.2909660423,6709339.318075429
654200000013439,654200000013439,Burg Vermetstraat,Burgemeester Vermetstraat,4456AK,4456AK,17,17,A,A,,,Lewedorp,Lewedorp,417750.3255297616,6709369.307964254
654200000013440,654200000013440,Burg Vermetstraat,Burgemeester Vermetstraat,4456AK,4456AK,18,18,,,,,Lewedorp,Lewedorp,417750.9955889575,6709392.821223966
654200000013441,654200000013441,Burg Vermetstraat,Burgemeester Vermetstraat,4456AK,4456AK,19,19,,,,,Lewedorp,Lewedorp,417750.7807452774,6709404.073622659
654200000013442,654200000013442,Burg Vermetstraat,Burgemeester Vermetstraat,4456AK,4456AK,20,20,,,,,Lewedorp,Lewedorp,417752.7384671981,6709420.697293337
654200000013443,654200000013443,Burg Vermetstraat,Burgemeester Vermetstraat,4456AK,4456AK,21,21,,,,,Lewedorp,Lewedorp,417747.1706146018,6709434.009116007
654200000013445,654200000013445,Burg Vogelaarstraat,Burgemeester Vogelaarstraat,4435AR,4435AR,1,1,,,,,Baarland,Baarland,432835.51258144923,6693788.018395379
654200000013447,654200000013447,Burg Vogelaarstraat,Burgemeester Vogelaarstraat,4435AR,4435AR,3,3,,,,,Baarland,Baarland,432845.0138219394,6693790.546975826
654200000013448,654200000013448,Burg Vogelaarstraat,Burgemeester Vogelaarstraat,4435AS,4435AS,4,4,,,,,Baarland,Baarland,432902.3263375707,6693808.562673133
654200000013449,654200000013449,Burg Vogelaarstraat,Burgemeester Vogelaarstraat,4435AR,4435AR,5,5,,,,,Baarland,Baarland,432853.905174873,6693793.008428525
654200000013450,654200000013450,Burg Vogelaarstraat,Burgemeester Vogelaarstraat,4435AS,4435AS,6,6,,,,,Baarland,Baarland,432902.61677980394,6693821.562546927
654200000013451,654200000013451,Burg Vogelaarstraat,Burgemeester Vogelaarstraat,4435AR,4435AR,7,7,,,,,Baarland,Baarland,432863.1019732507,6693795.479375115
654200000013453,654200000013453,Burg Vogelaarstraat,Burgemeester Vogelaarstraat,4435AR,4435AR,9,9,,,,,Baarland,Baarland,432858.3540892583,6693879.634291548
654200000013454,654200000013454,Burg Vogelaarstraat,Burgemeester Vogelaarstraat,4435AS,4435AS,10,10,,,,,Baarland,Baarland,432902.60641541466,6693837.606182267
654200000013455,654200000013455,Burg Vogelaarstraat,Burgemeester Vogelaarstraat,4435AR,4435AR,11,11,,,,,Baarland,Baarland,432857.98955825676,6693919.741561737
654200000013456,654200000013456,Burg Vogelaarstraat,Burgemeester Vogelaarstraat,4435AS,4435AS,12,12,,,,,Baarland,Baarland,432901.86002014135,6693855.6770736575
654200000013458,654200000013458,Burg Vogelaarstraat,Burgemeester Vogelaarstraat,4435AR,4435AR,15,15,,,,,Baarland,Baarland,432848.25696501974,6694318.772649249
654200000013462,654200000013462,Burg Vogelaarstraat,Burgemeester Vogelaarstraat,4435AS,4435AS,18,18,,,,,Baarland,Baarland,432901.3019010894,6693889.937022006
654200000013463,654200000013463,Burg Vogelaarstraat,Burgemeester Vogelaarstraat,4435AS,4435AS,20,20,,,,,Baarland,Baarland,432901.67266983376,6693907.450252032
654200000013464,654200000013464,Burg Vogelaarstraat,Burgemeester Vogelaarstraat,4435AS,4435AS,22,22,,,,,Baarland,Baarland,432901.85327277525,6693915.034767092
654200000013465,654200000013465,Burg Vogelaarstraat,Burgemeester Vogelaarstraat,4435AS,4435AS,24,24,,,,,Baarland,Baarland,432901.12484875217,6693923.327356011
654200000013466,654200000013466,Burg Vogelaarstraat,Burgemeester Vogelaarstraat,4435AS,4435AS,26,26,,,,,Baarland,Baarland,432896.6722428263,6693964.671045555
654200000013468,654200000013468,Burg Vogelaarstraat,Burgemeester Vogelaarstraat,4435AS,4435AS,30,30,,,,,Baarland,Baarland,432916.5928441239,6694180.373823367
654200000013427,654200000013427,Burg Vermetstraat,Burgemeester Vermetstraat,4456AJ,4456AJ,7,7,,,,,Lewedorp,Lewedorp,417665.7671863446,6708941.098729993
654200000013429,654200000013429,Burg Vermetstraat,Burgemeester Vermetstraat,4456AJ,4456AJ,9,9,,,,,Lewedorp,Lewedorp,417702.7123608148,6708982.1164538
654200000013467,654200000013467,Burg Vogelaarstraat,Burgemeester Vogelaarstraat,4435AS,4435AS,28,28,,,,,Baarland,Baarland,432892.0980915487,6694114.925973327
654200000013437,654200000013437,Burg Vermetstraat,Burgemeester Vermetstraat,4456AJ,4456AJ,16,16,,,,,Lewedorp,Lewedorp,417746.69843375386,6709276.158598924
654200000013452,654200000013452,Burg Vogelaarstraat,Burgemeester Vogelaarstraat,4435AS,4435AS,8,8,,,,,Baarland,Baarland,432902.7316159302,6693829.545119251
654200000013446,654200000013446,Burg Vogelaarstraat,Burgemeester Vogelaarstraat,4435AS,4435AS,2,2,,,,,Baarland,Baarland,432903.0697365459,6693800.710109014
654200000013457,654200000013457,Burg Vogelaarstraat,Burgemeester Vogelaarstraat,4435AS,4435AS,14,14,,,,,Baarland,Baarland,432901.51651622547,6693865.488869526
654200000013459,654200000013459,Burg Vogelaarstraat,Burgemeester Vogelaarstraat,4435AS,4435AS,16,16,,,,,Baarland,Baarland,432901.4416752511,6693880.852603615
654200000013280,654200000013280,Burg Jansenstraat,Burgemeester Jansenstraat,4431BL,4431BL,18,18,,,,,'s-Gravenpolder,'s-Gravenpolder,434067.0004939988,6703082.508289262
654200000231131,654200000231131,Noordland,Noordlandseweg,4451RP,4451RM,2,1,A,,,,Heinkenszand,Heinkenszand,424048.6260185691,6706287.86959913
654200000023017,654200000023017,van der Poest Clementstr,van der Poest Clementstraat,4443AL,4443AL,1,1,,,,,Nisse,Nisse,428647.35110621556,6702141.161964426
654200000023018,654200000023018,van der Poest Clementstr,van der Poest Clementstraat,4443AM,4443AM,2,2,,,,,Nisse,Nisse,428599.07865469117,6702162.770585776
654200000023019,654200000023019,van der Poest Clementstr,van der Poest Clementstraat,4443AM,4443AM,4,4,,,,,Nisse,Nisse,428604.31893965486,6702136.536048571
654200000023020,654200000023020,van der Poest Clementstr,van der Poest Clementstraat,4443AL,4443AL,5,5,,,,,Nisse,Nisse,428620.28200196463,6702084.926692295
654200000023021,654200000023021,van der Poest Clementstr,van der Poest Clementstraat,4443AM,4443AM,6,6,,,,,Nisse,Nisse,428552.1970885,6702097.00190222
654200000023022,654200000023022,van der Poest Clementstr,van der Poest Clementstraat,4443AL,4443AL,7,7,,,,,Nisse,Nisse,428587.1561826794,6702033.519801284
654200000023023,654200000023023,van der Poest Clementstr,van der Poest Clementstraat,4443AM,4443AM,8,8,,,,,Nisse,Nisse,428544.6517484349,6702088.3561407635
654200000023024,654200000023024,van der Poest Clementstr,van der Poest Clementstraat,4443AL,4443AL,9,9,,,,,Nisse,Nisse,428525.2596066592,6701995.491305293
654200000023025,654200000023025,van der Poest Clementstr,van der Poest Clementstraat,4443AM,4443AM,10,10,,,,,Nisse,Nisse,428537.4310145259,6702080.499375953
654200000023026,654200000023026,van der Poest Clementstr,van der Poest Clementstraat,4443AL,4443AL,11,11,,,,,Nisse,Nisse,428517.5599599107,6701989.617526134
654200000023029,654200000023029,van der Poest Clementstr,van der Poest Clementstraat,4443AM,4443AM,14,14,,,,,Nisse,Nisse,428514.39530190517,6702057.197148645
654200000023030,654200000023030,van der Poest Clementstr,van der Poest Clementstraat,4443AL,4443AL,15,15,,,,,Nisse,Nisse,428504.4715437847,6701967.619588053
654200000023033,654200000023033,van der Poest Clementstr,van der Poest Clementstraat,4443AM,4443AM,18,18,,,,,Nisse,Nisse,428467.7832953638,6702002.732720704
654200000023034,654200000023034,van der Poest Clementstr,van der Poest Clementstraat,4443AL,4443AL,19,19,,,,,Nisse,Nisse,428489.3478885442,6701944.680885991
654200000023035,654200000023035,van der Poest Clementstr,van der Poest Clementstraat,4443AM,4443AM,20,20,,,,,Nisse,Nisse,428451.36628403544,6701984.775592262
654200000023038,654200000023038,van der Poest Clementstr,van der Poest Clementstraat,4443AM,4443AM,22,22,,,,,Nisse,Nisse,428423.7151747783,6701950.265460724
654200000023040,654200000023040,van der Poest Clementstr,van der Poest Clementstraat,4443AM,4443AM,24,24,,,,,Nisse,Nisse,428408.9338742669,6701933.06566736
654200000023041,654200000023041,van der Poest Clementstr,van der Poest Clementstraat,4443AL,4443AL,25,25,,,,,Nisse,Nisse,428393.5133351076,6701836.223200927
654200000023042,654200000023042,van der Poest Clementstr,van der Poest Clementstraat,4443AM,4443AM,26,26,,,,,Nisse,Nisse,428401.4517210212,6701923.183063138
654200000023043,654200000023043,van der Poest Clementstr,van der Poest Clementstraat,4443AM,4443AM,28,28,,,,,Nisse,Nisse,428382.0285701461,6701906.209441075
654200000023044,654200000023044,van der Poest Clementstr,van der Poest Clementstraat,4443AM,4443AM,30,30,,,,,Nisse,Nisse,428358.8824715997,6701929.494481501
654200000023045,654200000023045,van der Poest Clementstr,van der Poest Clementstraat,4443AM,4443AM,32,32,,,,,Nisse,Nisse,428303.8328801563,6701878.734561327
654200000023027,654200000023027,van der Poest Clementstr,van der Poest Clementstraat,4443AM,4443AM,12,12,,,,,Nisse,Nisse,428531.10144265107,6702072.160382195
654200000023028,654200000023028,van der Poest Clementstr,van der Poest Clementstraat,4443AL,4443AL,13,13,,,,,Nisse,Nisse,428508.94215992495,6701975.461469715
654200000023031,654200000023031,van der Poest Clementstr,van der Poest Clementstraat,4443AM,4443AM,16,16,,,,,Nisse,Nisse,428498.5032469195,6702039.098531648
654200000023032,654200000023032,van der Poest Clementstr,van der Poest Clementstraat,4443AL,4443AL,17,17,,,,,Nisse,Nisse,428495.0773515755,6701951.46373255
654200000023036,654200000023036,van der Poest Clementstr,van der Poest Clementstraat,4443AM,4443AM,20,20,A,A,,,Nisse,Nisse,428435.846393421,6701967.805867053
654200000023037,654200000023037,van der Poest Clementstr,van der Poest Clementstraat,4443AL,4443AL,21,21,,,,,Nisse,Nisse,428436.75334383006,6701888.726985939
654200000023039,654200000023039,van der Poest Clementstr,van der Poest Clementstraat,4443AL,4443AL,23,23,,,,,Nisse,Nisse,428415.6053343287,6701869.078399434
654200000020391,654200000020391,Pr Willem-Alexanderstr,Prins Willem-Alexanderstraat,4441AR,,5,5,A,A,,,Ovezande,Ovezande,425530.22256032034,6697746.753524662
654200000020392,654200000020392,Pr Willem-Alexanderstr,Prins Willem-Alexanderstraat,4441AR,,5,5,B,B,,,Ovezande,Ovezande,425534.66912874754,6697747.396560448
654200000020395,654200000020395,Pr Willem-Alexanderstr,Prins Willem-Alexanderstraat,4441AR,,5,5,E,E,,,Ovezande,Ovezande,425548.00730677217,6697749.322410169
654200000020398,654200000020398,Pr Willem-Alexanderstr,Prins Willem-Alexanderstraat,4441AR,,5,5,H,H,,,Ovezande,Ovezande,425553.21763051307,6697772.9278772175
654200000020399,654200000020399,Pr Willem-Alexanderstr,Prins Willem-Alexanderstraat,4441AR,,5,5,K,K,,,Ovezande,Ovezande,425548.8143563388,6697772.280965722
654200000020400,654200000020400,Pr Willem-Alexanderstr,Prins Willem-Alexanderstraat,4441AR,,5,5,M,M,,,Ovezande,Ovezande,425544.41108288016,6697771.634051897
654200000020401,654200000020401,Pr Willem-Alexanderstr,Prins Willem-Alexanderstraat,4441AR,,5,5,N,N,,,Ovezande,Ovezande,425540.0078101372,6697770.987135731
654200000020402,654200000020402,Pr Willem-Alexanderstr,Prins Willem-Alexanderstraat,4441AR,,5,5,P,P,,,Ovezande,Ovezande,425535.6045381099,6697770.340217223
654200000020396,654200000020396,Pr Willem-Alexanderstr,Prins Willem-Alexanderstraat,4441AR,,5,5,F,F,,,Ovezande,Ovezande,425552.45391240873,6697749.963831967
654200000020403,654200000020403,Pr Willem-Alexanderstr,Prins Willem-Alexanderstraat,4441AR,,5,5,R,R,,,Ovezande,Ovezande,425531.2012667984,6697769.693296375
654200000020405,654200000020405,Pr Willem-Alexanderstr,Prins Willem-Alexanderstraat,4441AR,,5,5,T,T,,,Ovezande,Ovezande,425522.3931260745,6697768.399413225
654200000020388,654200000020388,Pr Willem-Alexanderstr,Prins Willem-Alexanderstraat,4441AS,4441AS,2,2,A,A,,,Ovezande,Ovezande,425499.88133045216,6697662.070192841
654200000020393,654200000020393,Pr Willem-Alexanderstr,Prins Willem-Alexanderstraat,4441AR,,5,5,C,C,,,Ovezande,Ovezande,425539.11573223263,6697748.037989399
654200000020397,654200000020397,Pr Willem-Alexanderstr,Prins Willem-Alexanderstraat,4441AR,,5,5,G,G,,,Ovezande,Ovezande,425556.8637682801,6697750.676693659
654200000020404,654200000020404,Pr Willem-Alexanderstr,Prins Willem-Alexanderstraat,4441AR,,5,5,S,S,,,Ovezande,Ovezande,425526.7963959546,6697769.046338759
654200000020387,654200000020387,Pr Willem-Alexanderstr,Prins Willem-Alexanderstraat,4441AS,4441AS,2,2,,,,,Ovezande,Ovezande,425489.87302640546,6697660.456718417
654200000020394,654200000020394,Pr Willem-Alexanderstr,Prins Willem-Alexanderstraat,4441AR,,5,5,D,D,,,Ovezande,Ovezande,425543.5607018526,6697748.6809859825
654200000020389,654200000020389,Pr Willem-Alexanderstr,Prins Willem-Alexanderstraat,4441AS,4441AS,4,4,,,,,Ovezande,Ovezande,425509.8880039765,6697663.685225222
654200000020390,654200000020390,Pr Willem-Alexanderstr,Prins Willem-Alexanderstraat,4441AR,4441AR,5,5,,,,,Ovezande,Ovezande,425536.17206830066,6697716.521317599
654200000020406,654200000020406,Pr Willem-Alexanderstr,Prins Willem-Alexanderstraat,4441AS,4441AS,6,6,,,,,Ovezande,Ovezande,425525.09174515004,6697672.465140144
654200000020407,654200000020407,Pr Willem-Alexanderstr,Prins Willem-Alexanderstraat,4441AR,4441AR,7,7,,,,,Ovezande,Ovezande,425545.0966579111,6697718.804862504
654200000020408,654200000020408,Pr Willem-Alexanderstr,Prins Willem-Alexanderstraat,4441AS,4441AS,8,8,,,,,Ovezande,Ovezande,425534.51400959573,6697674.08362095
654200000020409,654200000020409,Pr Willem-Alexanderstr,Prins Willem-Alexanderstraat,4441AR,4441AR,9,9,,,,,Ovezande,Ovezande,425554.7689055192,6697720.340421919
654200000020410,654200000020410,Pr Willem-Alexanderstr,Prins Willem-Alexanderstraat,4441AS,4441AS,10,10,,,,,Ovezande,Ovezande,425543.93787809,6697675.702125559
654200000020411,654200000020411,Pr Willem-Alexanderstr,Prins Willem-Alexanderstraat,4441AR,4441AR,11,11,,,,,Ovezande,Ovezande,425564.4411568526,6697721.875970084
654200000020412,654200000020412,Pr Willem-Alexanderstr,Prins Willem-Alexanderstraat,4441AS,4441AS,12,12,,,,,Ovezande,Ovezande,425553.3601501738,6697677.320585123
654200000020413,654200000020413,Pr Willem-Alexanderstr,Prins Willem-Alexanderstraat,4441AR,4441AR,13,13,,,,,Ovezande,Ovezande,425575.58947708196,6697723.263478866
654200000020414,654200000020414,Pr Willem-Alexanderstr,Prins Willem-Alexanderstraat,4441AS,4441AS,14,14,,,,,Ovezande,Ovezande,425562.7840606407,6697678.937464066
654200000020415,654200000020415,Pr Willem-Alexanderstr,Prins Willem-Alexanderstraat,4441AR,4441AR,15,15,,,,,Ovezande,Ovezande,425591.01529932575,6697725.189213512
654200000020416,654200000020416,Pr Willem-Alexanderstr,Prins Willem-Alexanderstraat,4441AS,4441AS,16,16,,,,,Ovezande,Ovezande,425572.2063403604,6697680.55590238
654200000020417,654200000020417,Pr Willem-Alexanderstr,Prins Willem-Alexanderstraat,4441AR,4441AR,17,17,,,,,Ovezande,Ovezande,425601.0377283518,6697726.820534821
654200000020418,654200000020418,Pr Willem-Alexanderstr,Prins Willem-Alexanderstraat,4441AS,4441AS,18,18,,,,,Ovezande,Ovezande,425590.49681666325,6697683.426088617
654200000020419,654200000020419,Pr Willem-Alexanderstr,Prins Willem-Alexanderstraat,4441AR,4441AR,19,19,,,,,Ovezande,Ovezande,425611.0601958013,6697728.450239642
654200000020420,654200000020420,Pr Willem-Alexanderstr,Prins Willem-Alexanderstraat,4441AS,4441AS,20,20,,,,,Ovezande,Ovezande,425599.84869710426,6697685.042981301
654200000020421,654200000020421,Pr Willem-Alexanderstr,Prins Willem-Alexanderstraat,4441AR,4441AR,21,21,,,,,Ovezande,Ovezande,425621.08263302245,6697730.081536843
654200000020422,654200000020422,Pr Willem-Alexanderstr,Prins Willem-Alexanderstraat,4441AS,4441AS,22,22,,,,,Ovezande,Ovezande,425609.20058133145,6697686.659863516
654200000020423,654200000020423,Pr Willem-Alexanderstr,Prins Willem-Alexanderstraat,4441AR,4441AR,23,23,,,,,Ovezande,Ovezande,425631.10507434246,6697731.712821988
654200000020424,654200000020424,Pr Willem-Alexanderstr,Prins Willem-Alexanderstraat,4441AS,4441AS,24,24,,,,,Ovezande,Ovezande,425618.5541039002,6697688.275165265
654200000020425,654200000020425,Pr Willem-Alexanderstr,Prins Willem-Alexanderstraat,4441AR,4441AR,25,25,,,,,Ovezande,Ovezande,425652.07352900814,6697736.931051048
654200000020426,654200000020426,Pr Willem-Alexanderstr,Prins Willem-Alexanderstraat,4441AS,4441AS,26,26,,,,,Ovezande,Ovezande,425627.905995698,6697689.8920265585
654200000020427,654200000020427,Pr Willem-Alexanderstr,Prins Willem-Alexanderstraat,4441AR,4441AR,27,27,,,,,Ovezande,Ovezande,425661.9592908616,6697738.516020742
654200000020428,654200000020428,Pr Willem-Alexanderstr,Prins Willem-Alexanderstraat,4441AS,4441AS,28,28,,,,,Ovezande,Ovezande,425637.2578912815,6697691.508877406
654200000013178,654200000013178,Burg Andriessenstraat,Burgemeester Andriessenstraat,4441AP,4441AP,4,4,,,,,Ovezande,Ovezande,425461.86193905293,6697549.902889226
654200000013406,654200000013406,Burg van Lierestraat,Burgemeester van Lierestraat,4436AL,4436AL,12,12,,,,,Oudelande,Oudelande,428867.0639585234,6694006.693503109
654200000013407,654200000013407,Burg van Lierestraat,Burgemeester van Lierestraat,4436AL,4436AL,12,12,A,A,,,Oudelande,Oudelande,428875.82634231995,6693997.644894866
654200000013408,654200000013408,Burg van Lierestraat,Burgemeester van Lierestraat,4436AL,4436AL,12,12,B,B,,,Oudelande,Oudelande,428884.58870662865,6693988.596287021
654200000231291,654200000231291,Burg van Horsighstraat,Burgemeester van Horsighstraat,4453CP,4453CP,13,13,A,A,,,'s-Heerenhoek,'s-Heerenhoek,419209.37702074903,6702209.942746588
654200000013216,654200000013216,Burg van Horsighstraat,Burgemeester van Horsighstraat,4453CS,4453CS,8,8,,,,,'s-Heerenhoek,'s-Heerenhoek,419147.4357822085,6702021.109294214
654200000013460,654200000013460,Burg Vogelaarstraat,Burgemeester Vogelaarstraat,4435AR,4435AR,17,17,,,,,Baarland,Baarland,432810.5880873812,6694589.4853438735
654200000231042,654200000231042,van der Poest Clementstr,van der Poest Clementstraat,4443AM,4443AM,40,40,,,,,Nisse,Nisse,428181.84979016753,6701694.436128516
654200000231073,654200000231073,van der Poest Clementstr,van der Poest Clementstraat,4443AM,4443AM,38,38,,,,,Nisse,Nisse,428212.71424609545,6701721.01810466
654200000231303,654200000231303,van der Poest Clementstr,van der Poest Clementstraat,4443AM,4443AM,36,36,,,,,Nisse,Nisse,428237.79185484385,6701748.734917301
654200000231294,654200000231294,Frankrijkweg,San Marinoweg,,,36,36,,,,,Nieuwdorp,Nieuwdorp,413357.9261136591,6702724.586108867
