BAGNUMIDENTIFICATIE,B_NUMMERAANDUIDING,OPENBARERUIMTENAAM,B_OPENBARERUIMTE,POSTCODE,B_POSTCODE,HUISNUMMER,B_HUISNUMMER,HUISLETTER,B_HUISLETTER,HUISNUMMERTOEVOEGING,B_HUISNUMMERTOEVOEGING,WOONPLAATSNAAM,B_WOONPLAATSNAAM,x,y
715200000005725,715200000005725,Jacob van Heemskerkstr,Jacob van Heemskerkstraat,4535BB,4535BB,1,1.0,,,,,Terneuzen,Terneuzen,428854.85660007806,6678074.762775897
715200000005726,715200000005726,Jacob van Heemskerkstr,Jacob van Heemskerkstraat,4535BB,4535BB,2,2.0,,,,,Terneuzen,Terneuzen,428862.2942973101,6678130.797543254
715200000005727,715200000005727,Jacob van Heemskerkstr,Jacob van Heemskerkstraat,4535BB,4535BB,3,3.0,,,,,Terneuzen,Terneuzen,428863.8614919348,6678080.301057972
715200000005728,715200000005728,Jacob van Heemskerkstr,Jacob van Heemskerkstraat,4535BB,4535BB,4,4.0,,,,,Terneuzen,Terneuzen,428870.65736367536,6678134.653741809
715200000005729,715200000005729,Jacob van Heemskerkstr,Jacob van Heemskerkstraat,4535BB,4535BB,5,5.0,,,,,Terneuzen,Terneuzen,428871.81952841155,6678085.114282047
715200000005730,715200000005730,Jacob van Heemskerkstr,Jacob van Heemskerkstraat,4535BB,4535BB,6,6.0,,,,,Terneuzen,Terneuzen,428878.63545019657,6678139.275254388
715200000005731,715200000005731,Jacob van Heemskerkstr,Jacob van Heemskerkstraat,4535BB,4535BB,7,7.0,,,,,Terneuzen,Terneuzen,428880.78646740544,6678089.950376444
715200000005732,715200000005732,Jacob van Heemskerkstr,Jacob van Heemskerkstraat,4535BB,4535BB,8,8.0,,,,,Terneuzen,Terneuzen,428887.40278032544,6678144.722071789
715200000005733,715200000005733,Jacob van Heemskerkstr,Jacob van Heemskerkstraat,4535BB,4535BB,9,9.0,,,,,Terneuzen,Terneuzen,428889.54221359524,6678095.185541727
715200000005734,715200000005734,Jacob van Heemskerkstr,Jacob van Heemskerkstraat,4535BB,4535BB,10,10.0,,,,,Terneuzen,Terneuzen,428894.99825827015,6678148.930370979
715200000005735,715200000005735,Jacob van Heemskerkstr,Jacob van Heemskerkstraat,4535BB,4535BB,11,11.0,,,,,Terneuzen,Terneuzen,428897.7848997683,6678098.840594543
715200000005736,715200000005736,Jacob van Heemskerkstr,Jacob van Heemskerkstraat,4535BB,4535BB,12,12.0,,,,,Terneuzen,Terneuzen,428903.7825961047,6678153.567264596
715200000005737,715200000005737,Jacob van Heemskerkstr,Jacob van Heemskerkstraat,4535BB,4535BB,13,13.0,,,,,Terneuzen,Terneuzen,428938.3480788446,6678121.092535066
715200000005738,715200000005738,Jacob van Heemskerkstr,Jacob van Heemskerkstraat,4535BB,4535BB,14,14.0,,,,,Terneuzen,Terneuzen,428912.180002518,6678157.387323881
715200000005739,715200000005739,Jacob van Heemskerkstr,Jacob van Heemskerkstraat,4535BB,4535BB,15,15.0,,,,,Terneuzen,Terneuzen,428947.36244621215,6678126.869550528
715200000005740,715200000005740,Jacob van Heemskerkstr,Jacob van Heemskerkstraat,4535BB,4535BB,16,16.0,,,,,Terneuzen,Terneuzen,428920.139587519,6678162.817087949
715200000005741,715200000005741,Jacob van Heemskerkstr,Jacob van Heemskerkstraat,4535BB,4535BB,17,17.0,,,,,Terneuzen,Terneuzen,428954.93093416304,6678131.070809948
715200000005742,715200000005742,Jacob van Heemskerkstr,Jacob van Heemskerkstraat,4535BB,4535BB,18,18.0,,,,,Terneuzen,Terneuzen,428930.307967709,6678167.563204285
715200000005743,715200000005743,Jacob van Heemskerkstr,Jacob van Heemskerkstraat,4535BB,4535BB,19,19.0,,,,,Terneuzen,Terneuzen,428963.7079475984,6678135.295934152
715200000005744,715200000005744,Jacob van Heemskerkstr,Jacob van Heemskerkstraat,4535BB,4535BB,21,21.0,,,,,Terneuzen,Terneuzen,428972.4680243222,6678140.329361909
715200000005745,715200000005745,Jacob van Heemskerkstr,Jacob van Heemskerkstraat,4535BB,4535BB,23,23.0,,,,,Terneuzen,Terneuzen,428982.25279825577,6678145.089733956
715200000006150,715200000006150,Juliana van Stolbergstr,Juliana van Stolbergstraat,4532AX,4532AX,1,1.0,,,,,Terneuzen,Terneuzen,426990.9226062552,6680157.390938309
715200000006151,715200000006151,Juliana van Stolbergstr,Juliana van Stolbergstraat,4532AZ,4532AZ,2,2.0,,,,,Terneuzen,Terneuzen,427025.97839467507,6680155.215156518
715200000006152,715200000006152,Juliana van Stolbergstr,Juliana van Stolbergstraat,4532AX,4532AX,3,3.0,,,,,Terneuzen,Terneuzen,426999.04841676494,6680124.88749936
715200000006153,715200000006153,Juliana van Stolbergstr,Juliana van Stolbergstraat,4532AZ,4532AZ,4,4.0,,,,,Terneuzen,Terneuzen,427035.0693205085,6680135.879162765
715200000006154,715200000006154,Juliana van Stolbergstr,Juliana van Stolbergstraat,4532AX,4532AX,5,5.0,,,,,Terneuzen,Terneuzen,427001.5450307203,6680117.821099859
715200000006155,715200000006155,Juliana van Stolbergstr,Juliana van Stolbergstraat,4532AZ,4532AZ,6,6.0,,,,,Terneuzen,Terneuzen,427034.91583123774,6680126.015716071
715200000006156,715200000006156,Juliana van Stolbergstr,Juliana van Stolbergstraat,4532AX,4532AX,7,7.0,,,,,Terneuzen,Terneuzen,427003.78548404574,6680108.822382799
715200000006157,715200000006157,Juliana van Stolbergstr,Juliana van Stolbergstraat,4532AZ,4532AZ,8,8.0,,,,,Terneuzen,Terneuzen,427037.17526181956,6680116.195705993
715200000006158,715200000006158,Juliana van Stolbergstr,Juliana van Stolbergstraat,4532AX,4532AX,9,9.0,,,,,Terneuzen,Terneuzen,427006.0362211982,6680099.4138561245
715200000006159,715200000006159,Juliana van Stolbergstr,Juliana van Stolbergstraat,4532AZ,4532AZ,10,10.0,,,,,Terneuzen,Terneuzen,427038.9704373037,6680108.832449765
715200000006160,715200000006160,Juliana van Stolbergstr,Juliana van Stolbergstraat,4532AX,4532AX,11,11.0,,,,,Terneuzen,Terneuzen,427007.02968812524,6680091.2118523335
715200000006161,715200000006161,Juliana van Stolbergstr,Juliana van Stolbergstraat,4532AZ,4532AZ,12,12.0,,,,,Terneuzen,Terneuzen,427042.0402855174,6680099.441373321
715200000006162,715200000006162,Juliana van Stolbergstr,Juliana van Stolbergstraat,4532AX,4532AX,13,13.0,,,,,Terneuzen,Terneuzen,427009.6543577418,6680083.454669866
715200000006163,715200000006163,Juliana van Stolbergstr,Juliana van Stolbergstraat,4532AZ,4532AZ,14,14.0,,,,,Terneuzen,Terneuzen,427044.37314536684,6680089.246556724
715200000006164,715200000006164,Juliana van Stolbergstr,Juliana van Stolbergstraat,4532AX,4532AX,15,15.0,,,,,Terneuzen,Terneuzen,427012.6806696566,6680076.117695189
715200000006165,715200000006165,Juliana van Stolbergstr,Juliana van Stolbergstraat,4532AZ,4532AZ,16,16.0,,,,,Terneuzen,Terneuzen,427051.0536026197,6680070.2741655875
715200000006166,715200000006166,Juliana van Stolbergstr,Juliana van Stolbergstraat,4532AX,4532AX,17,17.0,,,,,Terneuzen,Terneuzen,427014.9400788179,6680066.299352239
715200000006167,715200000006167,Juliana van Stolbergstr,Juliana van Stolbergstraat,4532AZ,4532AZ,18,18.0,,,,,Terneuzen,Terneuzen,427072.2254050967,6680003.956950437
715200000006168,715200000006168,Juliana van Stolbergstr,Juliana van Stolbergstraat,4532AX,4532AX,19,19.0,,,,,Terneuzen,Terneuzen,427016.35263004876,6680057.694677025
715200000006169,715200000006169,Juliana van Stolbergstr,Juliana van Stolbergstraat,4532AZ,4532AZ,20,20.0,,,,,Terneuzen,Terneuzen,427071.977658244,6679993.865816879
715200000006170,715200000006170,Juliana van Stolbergstr,Juliana van Stolbergstraat,4532AX,4532AX,21,21.0,,,,,Terneuzen,Terneuzen,427019.4050680535,6680049.124969591
715200000006171,715200000006171,Juliana van Stolbergstr,Juliana van Stolbergstraat,4532AZ,4532AZ,22,22.0,,,,,Terneuzen,Terneuzen,427076.08990168176,6679985.788036787
715200000006172,715200000006172,Juliana van Stolbergstr,Juliana van Stolbergstraat,4532AX,4532AX,23,23.0,,,,,Terneuzen,Terneuzen,427021.64548227243,6680040.126322854
715200000006173,715200000006173,Juliana van Stolbergstr,Juliana van Stolbergstraat,4532AZ,4532AZ,24,24.0,,,,,Terneuzen,Terneuzen,427079.44123314205,6679976.377460254
715200000006174,715200000006174,Juliana van Stolbergstr,Juliana van Stolbergstraat,4532AX,4532AX,25,25.0,,,,,Terneuzen,Terneuzen,427024.2716840338,6680032.370818888
715200000006175,715200000006175,Juliana van Stolbergstr,Juliana van Stolbergstraat,4532AZ,4532AZ,26,26.0,,,,,Terneuzen,Terneuzen,427080.9451159868,6679967.454478702
715200000006176,715200000006176,Juliana van Stolbergstr,Juliana van Stolbergstraat,4532AX,4532AX,27,27.0,,,,,Terneuzen,Terneuzen,427026.1017177889,6680023.363441319
715200000006177,715200000006177,Juliana van Stolbergstr,Juliana van Stolbergstraat,4532AZ,4532AZ,28,28.0,,,,,Terneuzen,Terneuzen,427083.3434352247,6679957.784962091
715200000006178,715200000006178,Juliana van Stolbergstr,Juliana van Stolbergstraat,4532AX,4532AX,29,29.0,,,,,Terneuzen,Terneuzen,427028.33498935367,6680014.776304648
715200000006179,715200000006179,Juliana van Stolbergstr,Juliana van Stolbergstraat,4532AZ,4532AZ,30,30.0,,,,,Terneuzen,Terneuzen,427090.4838411463,6679923.435321538
715200000006180,715200000006180,Juliana van Stolbergstr,Juliana van Stolbergstraat,4532AX,4532AX,31,31.0,,,,,Terneuzen,Terneuzen,427030.95957965415,6680007.020788384
715200000006181,715200000006181,Juliana van Stolbergstr,Juliana van Stolbergstraat,4532AX,4532AX,33,33.0,,,,,Terneuzen,Terneuzen,427034.0032585236,6679998.862577127
715200000006182,715200000006182,Juliana van Stolbergstr,Juliana van Stolbergstraat,4532AX,4532AX,35,35.0,,,,,Terneuzen,Terneuzen,427035.834870519,6679989.855268147
715200000006183,715200000006183,Juliana van Stolbergstr,Juliana van Stolbergstraat,4532AX,4532AX,37,37.0,,,,,Terneuzen,Terneuzen,427038.8785379864,6679981.697072092
715200000006184,715200000006184,Juliana van Stolbergstr,Juliana van Stolbergstraat,4532AX,4532AX,39,39.0,,,,,Terneuzen,Terneuzen,427041.110187621,6679973.109941403
715200000006185,715200000006185,Juliana van Stolbergstr,Juliana van Stolbergstraat,4532AX,4532AX,41,41.0,,,,,Terneuzen,Terneuzen,427043.576090385,6679965.077190273
715200000006186,715200000006186,Juliana van Stolbergstr,Juliana van Stolbergstraat,4532AX,4532AX,43,43.0,,,,,Terneuzen,Terneuzen,427045.01324498886,6679957.645574118
715200000006187,715200000006187,Juliana van Stolbergstr,Juliana van Stolbergstraat,4532AX,4532AX,45,45.0,,,,,Terneuzen,Terneuzen,427048.3586042164,6679947.312346359
715200000006188,715200000006188,Juliana van Stolbergstr,Juliana van Stolbergstraat,4532AX,4532AX,47,47.0,,,,,Terneuzen,Terneuzen,427060.36189890146,6679911.378255564
715200000011643,715200000011643,Verl van Steenbergenlaan,Verlengde van Steenbergenlaan,4537BC,4537BC,2,2.0,,,,,Terneuzen,Terneuzen,426362.6927832824,6680487.900874237
715200000011644,715200000011644,Verl van Steenbergenlaan,Verlengde van Steenbergenlaan,4537BB,4537BB,3,3.0,,,,,Terneuzen,Terneuzen,426295.9271274152,6680558.012902671
715200000011645,715200000011645,Verl van Steenbergenlaan,Verlengde van Steenbergenlaan,4537BB,4537BB,3,3.0,a,a,,,Terneuzen,Terneuzen,426286.110000398,6680548.7797817085
715200000011646,715200000011646,Verl van Steenbergenlaan,Verlengde van Steenbergenlaan,4537BC,4537BC,4,4.0,,,,,Terneuzen,Terneuzen,426350.0203605697,6680483.415376543
715200000011647,715200000011647,Verl van Steenbergenlaan,Verlengde van Steenbergenlaan,4537BB,4537BB,5,5.0,,,,,Terneuzen,Terneuzen,426277.3576687312,6680546.186494513
715200000011648,715200000011648,Verl van Steenbergenlaan,Verlengde van Steenbergenlaan,4537BC,4537BC,6,6.0,,,,,Terneuzen,Terneuzen,426343.6921136355,6680475.846046091
715200000011650,715200000011650,Verl van Steenbergenlaan,Verlengde van Steenbergenlaan,4537BC,4537BC,8,8.0,,,,,Terneuzen,Terneuzen,426337.597053411,6680468.280106467
715200000011651,715200000011651,Verl van Steenbergenlaan,Verlengde van Steenbergenlaan,4537BB,4537BB,9,9.0,,,,,Terneuzen,Terneuzen,426252.11857238086,6680520.396936001
715200000011652,715200000011652,Verl van Steenbergenlaan,Verlengde van Steenbergenlaan,4537BC,4537BC,10,10.0,,,,,Terneuzen,Terneuzen,426328.42566869943,6680461.811221222
715200000011653,715200000011653,Verl van Steenbergenlaan,Verlengde van Steenbergenlaan,4537BB,4537BB,11,11.0,,,,,Terneuzen,Terneuzen,426230.2431034463,6680494.206884177
715200000011654,715200000011654,Verl van Steenbergenlaan,Verlengde van Steenbergenlaan,4537BC,4537BC,12,12.0,,,,,Terneuzen,Terneuzen,426322.27729813574,6680453.6739068795
715200000011655,715200000011655,Verl van Steenbergenlaan,Verlengde van Steenbergenlaan,4537BB,4537BB,15,15.0,,,,,Terneuzen,Terneuzen,426211.99888262,6680474.549830224
715200000011656,715200000011656,Verl van Steenbergenlaan,Verlengde van Steenbergenlaan,4537BB,4537BB,23,23.0,,,,,Terneuzen,Terneuzen,426186.3674163797,6680453.473938593
715200000011366,715200000011366,Verl van Steenbergenlaan,Verlengde van Steenbergenlaan,4537BC,4537BC,16,16.0,,,,,Terneuzen,Terneuzen,426275.3187777948,6680367.375762577
715200000011657,715200000011657,Verl van Steenbergenlaan,Verlengde van Steenbergenlaan,4537BB,4537BB,25,25.0,,,,,Terneuzen,Terneuzen,426169.49087007204,6680448.212554545
715200000011658,715200000011658,Verl van Steenbergenlaan,Verlengde van Steenbergenlaan,4537BB,4537BB,27,27.0,,,,,Terneuzen,Terneuzen,426168.75107633317,6680433.224859275
715200000037751,715200000037751,Middenstraat,Middenstraat,4541AC,,111,111.0,g,,1,g1,Sluiskil,Sluiskil,427149.67908299254,6670439.702663408
715200000016441,715200000016441,Gerard v.d. Nissestraat,Gerard van der Nissestraat,4543AD,4543AD,1,1.0,,,,,Zaamslag,Zaamslag,435630.05287183943,6677315.377512409
715200000016442,715200000016442,Gerard v.d. Nissestraat,Gerard van der Nissestraat,4543AE,4543AE,2,2.0,,,,,Zaamslag,Zaamslag,435627.9618709665,6677269.829212367
715200000016443,715200000016443,Gerard v.d. Nissestraat,Gerard van der Nissestraat,4543AD,4543AD,3,3.0,,,,,Zaamslag,Zaamslag,435639.89664167986,6677315.524027232
715200000016444,715200000016444,Gerard v.d. Nissestraat,Gerard van der Nissestraat,4543AE,4543AE,4,4.0,,,,,Zaamslag,Zaamslag,435638.0414302779,6677269.604238247
715200000016445,715200000016445,Gerard v.d. Nissestraat,Gerard van der Nissestraat,4543AD,4543AD,5,5.0,,,,,Zaamslag,Zaamslag,435655.1243030617,6677313.341011025
715200000016446,715200000016446,Gerard v.d. Nissestraat,Gerard van der Nissestraat,4543AE,4543AE,6,6.0,,,,,Zaamslag,Zaamslag,435651.2242164192,6677269.121864575
715200000016447,715200000016447,Gerard v.d. Nissestraat,Gerard van der Nissestraat,4543AD,4543AD,7,7.0,,,,,Zaamslag,Zaamslag,435665.94915711135,6677313.3008128805
715200000016448,715200000016448,Gerard v.d. Nissestraat,Gerard van der Nissestraat,4543AE,4543AE,8,8.0,,,,,Zaamslag,Zaamslag,435662.3935621137,6677268.545863746
715200000016449,715200000016449,Gerard v.d. Nissestraat,Gerard van der Nissestraat,4543AD,4543AD,9,9.0,,,,,Zaamslag,Zaamslag,435679.60206265026,6677314.614783189
715200000016450,715200000016450,Gerard v.d. Nissestraat,Gerard van der Nissestraat,4543AE,4543AE,10,10.0,,,,,Zaamslag,Zaamslag,435745.6949843147,6677257.479121678
715200000016451,715200000016451,Gerard v.d. Nissestraat,Gerard van der Nissestraat,4543AD,4543AD,11,11.0,,,,,Zaamslag,Zaamslag,435690.5459751564,6677314.213503287
715200000016452,715200000016452,Gerard v.d. Nissestraat,Gerard van der Nissestraat,4543AE,4543AE,12,12.0,,,,,Zaamslag,Zaamslag,435766.8395070832,6677258.132774893
715200000016454,715200000016454,Gerard v.d. Nissestraat,Gerard van der Nissestraat,4543AE,4543AE,14,14.0,,,,,Zaamslag,Zaamslag,435792.2314063769,6677255.47630898
715200000016455,715200000016455,Gerard v.d. Nissestraat,Gerard van der Nissestraat,4543AD,4543AD,15,15.0,,,,,Zaamslag,Zaamslag,435801.3161653866,6677309.2837498365
715200000016456,715200000016456,Gerard v.d. Nissestraat,Gerard van der Nissestraat,4543AD,4543AD,15,15.0,a,a,,,Zaamslag,Zaamslag,435830.2566295831,6677309.6418334665
715200000016457,715200000016457,Gerard v.d. Nissestraat,Gerard van der Nissestraat,4543AE,4543AE,16,16.0,,,,,Zaamslag,Zaamslag,435846.6138763228,6677253.692766435
715200000016458,715200000016458,Gerard v.d. Nissestraat,Gerard van der Nissestraat,4543AD,4543AD,17,17.0,,,,,Zaamslag,Zaamslag,435864.1480386002,6677311.645041139
715200000016459,715200000016459,Gerard v.d. Nissestraat,Gerard van der Nissestraat,4543AD,4543AD,19,19.0,,,,,Zaamslag,Zaamslag,435902.00131696253,6677312.22634118
715200000016460,715200000016460,Gerard v.d. Nissestraat,Gerard van der Nissestraat,4543AE,4543AE,20,20.0,,,,,Zaamslag,Zaamslag,435891.32111992076,6677252.19837507
715200000016461,715200000016461,Gerard v.d. Nissestraat,Gerard van der Nissestraat,4543AD,4543AD,21,21.0,,,,,Zaamslag,Zaamslag,435937.04288832005,6677309.844556811
715200000016462,715200000016462,Gerard v.d. Nissestraat,Gerard van der Nissestraat,4543AE,4543AE,22,22.0,,,,,Zaamslag,Zaamslag,435935.1405037093,6677251.654473102
715200000016463,715200000016463,Gerard v.d. Nissestraat,Gerard van der Nissestraat,4543AD,4543AD,23,23.0,,,,,Zaamslag,Zaamslag,435961.0125879655,6677310.098488669
715200000016464,715200000016464,Gerard v.d. Nissestraat,Gerard van der Nissestraat,4543AE,4543AE,24,24.0,,,,,Zaamslag,Zaamslag,435947.1399939498,6677251.327026179
715200000016465,715200000016465,Gerard v.d. Nissestraat,Gerard van der Nissestraat,4543AD,4543AD,25,25.0,,,,,Zaamslag,Zaamslag,435996.1666337454,6677309.428740777
715200000016466,715200000016466,Gerard v.d. Nissestraat,Gerard van der Nissestraat,4543AE,4543AE,26,26.0,,,,,Zaamslag,Zaamslag,435965.960515166,6677250.018233037
715200000016467,715200000016467,Gerard v.d. Nissestraat,Gerard van der Nissestraat,4543AD,4543AD,27,27.0,,,,,Zaamslag,Zaamslag,436035.5768745991,6677307.866529223
715200000016468,715200000016468,Gerard v.d. Nissestraat,Gerard van der Nissestraat,4543AE,4543AE,28,28.0,,,,,Zaamslag,Zaamslag,435988.25533370604,6677250.169385589
715200000016469,715200000016469,Gerard v.d. Nissestraat,Gerard van der Nissestraat,4543AD,4543AD,29,29.0,,,,,Zaamslag,Zaamslag,436072.9071714171,6677302.047918088
715200000016470,715200000016470,Gerard v.d. Nissestraat,Gerard van der Nissestraat,4543AE,4543AE,30,30.0,,,,,Zaamslag,Zaamslag,436002.42194408394,6677249.757559379
715200000016471,715200000016471,Gerard v.d. Nissestraat,Gerard van der Nissestraat,4543AE,4543AE,32,32.0,,,,,Zaamslag,Zaamslag,436023.12449250056,6677251.266222024
715200000016800,715200000016800,Molenstraat,Molenstraat,4543CM,4543CN,1,1.0,,,,,Zaamslag,Zaamslag,435368.07521212864,6676245.502019252
715200000016472,715200000016472,Gerard v.d. Nissestraat,Gerard van der Nissestraat,4543AD,4543AD,33,33.0,,,,,Zaamslag,Zaamslag,436123.01828563714,6677296.834658889
715200000016473,715200000016473,Gerard v.d. Nissestraat,Gerard van der Nissestraat,4543AE,4543AE,34,34.0,,,,,Zaamslag,Zaamslag,436034.9515172612,6677250.93836291
715200000016474,715200000016474,Gerard v.d. Nissestraat,Gerard van der Nissestraat,4543AD,4543AD,35,35.0,,,,,Zaamslag,Zaamslag,436136.66973484884,6677296.791662326
715200000016475,715200000016475,Gerard v.d. Nissestraat,Gerard van der Nissestraat,4543AE,4543AE,36,36.0,,,,,Zaamslag,Zaamslag,436060.70552908693,6677248.13626753
715200000016476,715200000016476,Gerard v.d. Nissestraat,Gerard van der Nissestraat,4543AD,4543AD,37,37.0,,,,,Zaamslag,Zaamslag,436153.28250921477,6677296.1615658095
715200000016477,715200000016477,Gerard v.d. Nissestraat,Gerard van der Nissestraat,4543AE,4543AE,38,38.0,,,,,Zaamslag,Zaamslag,436070.94018889545,6677244.083990573
715200000016478,715200000016478,Gerard v.d. Nissestraat,Gerard van der Nissestraat,4543AD,4543AD,39,39.0,,,,,Zaamslag,Zaamslag,436164.030463064,6677295.89338966
715200000016479,715200000016479,Gerard v.d. Nissestraat,Gerard van der Nissestraat,4543AE,4543AE,40,40.0,,,,,Zaamslag,Zaamslag,436067.1082472697,6677212.815085307
715200000016480,715200000016480,Gerard v.d. Nissestraat,Gerard van der Nissestraat,4543AD,4543AD,41,41.0,,,,,Zaamslag,Zaamslag,436162.3698705895,6677246.2583798515
715200000016481,715200000016481,Gerard v.d. Nissestraat,Gerard van der Nissestraat,4543AE,4543AE,42,42.0,,,,,Zaamslag,Zaamslag,436067.83946483716,6677203.127063893
715200000016482,715200000016482,Gerard v.d. Nissestraat,Gerard van der Nissestraat,4543AD,4543AD,43,43.0,,,,,Zaamslag,Zaamslag,436150.4215929466,6677246.899399014
715200000016483,715200000016483,Gerard v.d. Nissestraat,Gerard van der Nissestraat,4543AE,4543AE,44,44.0,,,,,Zaamslag,Zaamslag,436065.0539167457,6677192.264851442
715200000016484,715200000016484,Gerard v.d. Nissestraat,Gerard van der Nissestraat,4543AD,4543AD,45,45.0,,,,,Zaamslag,Zaamslag,436133.33488980035,6677247.278145504
715200000016485,715200000016485,Gerard v.d. Nissestraat,Gerard van der Nissestraat,4543AE,4543AE,46,46.0,,,,,Zaamslag,Zaamslag,436063.75255408086,6677179.860335776
715200000016486,715200000016486,Gerard v.d. Nissestraat,Gerard van der Nissestraat,4543AD,4543AD,47,47.0,,,,,Zaamslag,Zaamslag,436122.2080289099,6677247.412138667
715200000016487,715200000016487,Gerard v.d. Nissestraat,Gerard van der Nissestraat,4543AE,4543AE,48,48.0,,,,,Zaamslag,Zaamslag,436068.26208060206,6677170.091759834
715200000016488,715200000016488,Gerard v.d. Nissestraat,Gerard van der Nissestraat,4543AD,4543AD,49,49.0,,,,,Zaamslag,Zaamslag,436119.62532080244,6677201.164371156
715200000016489,715200000016489,Gerard v.d. Nissestraat,Gerard van der Nissestraat,4543AE,4543AE,50,50.0,,,,,Zaamslag,Zaamslag,436064.8919164857,6677158.204279678
715200000016490,715200000016490,Gerard v.d. Nissestraat,Gerard van der Nissestraat,4543AH,4543AH,51,51.0,,,,,Zaamslag,Zaamslag,436132.3443800044,6677200.705480496
715200000016491,715200000016491,Gerard v.d. Nissestraat,Gerard van der Nissestraat,4543AG,4543AG,52,52.0,,,,,Zaamslag,Zaamslag,436070.5565244344,6677139.745829115
715200000016492,715200000016492,Gerard v.d. Nissestraat,Gerard van der Nissestraat,4543AH,4543AH,53,53.0,,,,,Zaamslag,Zaamslag,436148.71589012677,6677200.072133413
715200000016493,715200000016493,Gerard v.d. Nissestraat,Gerard van der Nissestraat,4543AG,4543AG,54,54.0,,,,,Zaamslag,Zaamslag,436070.4850166681,6677131.303351924
715200000016494,715200000016494,Gerard v.d. Nissestraat,Gerard van der Nissestraat,4543AH,4543AH,55,55.0,,,,,Zaamslag,Zaamslag,436161.4936549605,6677200.109127933
715200000016495,715200000016495,Gerard v.d. Nissestraat,Gerard van der Nissestraat,4543AG,4543AG,56,56.0,,,,,Zaamslag,Zaamslag,436070.1934613478,6677121.890973362
715200000016496,715200000016496,Gerard v.d. Nissestraat,Gerard van der Nissestraat,4543AH,4543AH,57,57.0,,,,,Zaamslag,Zaamslag,436159.3098643525,6677150.765144761
715200000016497,715200000016497,Gerard v.d. Nissestraat,Gerard van der Nissestraat,4543AG,4543AG,58,58.0,,,,,Zaamslag,Zaamslag,436069.42486719287,6677112.13914349
715200000016498,715200000016498,Gerard v.d. Nissestraat,Gerard van der Nissestraat,4543AH,4543AH,59,59.0,,,,,Zaamslag,Zaamslag,436148.62703425257,6677151.06023971
715200000016499,715200000016499,Gerard v.d. Nissestraat,Gerard van der Nissestraat,4543AH,4543AH,61,61.0,,,,,Zaamslag,Zaamslag,436130.30675370945,6677151.407664487
715200000016500,715200000016500,Gerard v.d. Nissestraat,Gerard van der Nissestraat,4543AH,4543AH,63,63.0,,,,,Zaamslag,Zaamslag,436118.4394667774,6677151.680406093
715200000016501,715200000016501,Gerard v.d. Nissestraat,Gerard van der Nissestraat,4543AG,4543AG,64,64.0,,,,,Zaamslag,Zaamslag,436063.85170437576,6677088.375133879
715200000016502,715200000016502,Gerard v.d. Nissestraat,Gerard van der Nissestraat,4543AH,4543AH,65,65.0,,,,,Zaamslag,Zaamslag,436116.6282973336,6677103.436173528
715200000016503,715200000016503,Gerard v.d. Nissestraat,Gerard van der Nissestraat,4543AG,4543AG,66,66.0,,,,,Zaamslag,Zaamslag,436063.539649755,6677079.26819948
715200000016504,715200000016504,Gerard v.d. Nissestraat,Gerard van der Nissestraat,4543AH,4543AH,67,67.0,,,,,Zaamslag,Zaamslag,436126.9475273718,6677103.431586592
715200000016505,715200000016505,Gerard v.d. Nissestraat,Gerard van der Nissestraat,4543AG,4543AG,68,68.0,,,,,Zaamslag,Zaamslag,436063.7576424738,6677068.418784034
715200000016506,715200000016506,Gerard v.d. Nissestraat,Gerard van der Nissestraat,4543AH,4543AH,69,69.0,,,,,Zaamslag,Zaamslag,436146.4203518845,6677103.099435469
715200000016507,715200000016507,Gerard v.d. Nissestraat,Gerard van der Nissestraat,4543AH,4543AH,71,71.0,,,,,Zaamslag,Zaamslag,436158.84795750486,6677102.7531082565
715200000016508,715200000016508,Gerard v.d. Nissestraat,Gerard van der Nissestraat,4543AG,4543AG,72,72.0,,,,,Zaamslag,Zaamslag,436063.2068810046,6677047.905685624
715200000016509,715200000016509,Gerard v.d. Nissestraat,Gerard van der Nissestraat,4543AH,4543AH,73,73.0,,,,,Zaamslag,Zaamslag,436155.0112844362,6677053.734987891
715200000016510,715200000016510,Gerard v.d. Nissestraat,Gerard van der Nissestraat,4543AG,4543AG,74,74.0,,,,,Zaamslag,Zaamslag,436062.69529194274,6677037.523502498
715200000016511,715200000016511,Gerard v.d. Nissestraat,Gerard van der Nissestraat,4543AH,4543AH,75,75.0,,,,,Zaamslag,Zaamslag,436129.973629487,6677054.29583447
715200000016512,715200000016512,Gerard v.d. Nissestraat,Gerard van der Nissestraat,4543AG,4543AG,76,76.0,,,,,Zaamslag,Zaamslag,436062.2572908066,6677026.260620958
715200000016513,715200000016513,Gerard v.d. Nissestraat,Gerard van der Nissestraat,4543AH,4543AH,77,77.0,,,,,Zaamslag,Zaamslag,436118.4752151504,6677054.576018569
715200000016514,715200000016514,Gerard v.d. Nissestraat,Gerard van der Nissestraat,4543AG,4543AG,78,78.0,,,,,Zaamslag,Zaamslag,436061.82884750277,6677004.58771392
715200000016515,715200000016515,Gerard v.d. Nissestraat,Gerard van der Nissestraat,4543AG,4543AG,80,80.0,,,,,Zaamslag,Zaamslag,436061.71995289077,6676994.032797601
715200000016516,715200000016516,Gerard v.d. Nissestraat,Gerard van der Nissestraat,4543AH,4543AH,81,81.0,,,,,Zaamslag,Zaamslag,436120.05604094337,6677008.547898129
715200000016517,715200000016517,Gerard v.d. Nissestraat,Gerard van der Nissestraat,4543AG,4543AG,82,82.0,,,,,Zaamslag,Zaamslag,436061.6775245379,6676984.143684271
715200000016518,715200000016518,Gerard v.d. Nissestraat,Gerard van der Nissestraat,4543AG,4543AG,84,84.0,,,,,Zaamslag,Zaamslag,436060.0834934892,6676967.7100723935
715200000016519,715200000016519,Gerard v.d. Nissestraat,Gerard van der Nissestraat,4543AH,4543AH,85,85.0,,,,,Zaamslag,Zaamslag,436141.8021829903,6677008.713171432
715200000016520,715200000016520,Gerard v.d. Nissestraat,Gerard van der Nissestraat,4543AG,4543AG,86,86.0,,,,,Zaamslag,Zaamslag,436059.43062515045,6676949.5775553165
715200000016521,715200000016521,Gerard v.d. Nissestraat,Gerard van der Nissestraat,4543AH,4543AH,87,87.0,,,,,Zaamslag,Zaamslag,436152.0580119277,6677008.281386608
715200000016522,715200000016522,Gerard v.d. Nissestraat,Gerard van der Nissestraat,4543AH,4543AH,91,91.0,,,,,Zaamslag,Zaamslag,436152.2172845177,6676957.568908354
715200000016523,715200000016523,Gerard v.d. Nissestraat,Gerard van der Nissestraat,4543AG,4543AG,92,92.0,,,,,Zaamslag,Zaamslag,436057.8586300139,6676932.286285561
715200000016524,715200000016524,Gerard v.d. Nissestraat,Gerard van der Nissestraat,4543AH,4543AH,93,93.0,,,,,Zaamslag,Zaamslag,436130.24749039323,6676959.720700406
715200000016525,715200000016525,Gerard v.d. Nissestraat,Gerard van der Nissestraat,4543AG,4543AG,94,94.0,,,,,Zaamslag,Zaamslag,436057.79251105996,6676921.351272986
715200000016526,715200000016526,Gerard v.d. Nissestraat,Gerard van der Nissestraat,4543AH,4543AH,95,95.0,,,,,Zaamslag,Zaamslag,436115.3559909633,6676959.517689553
715200000016527,715200000016527,Gerard v.d. Nissestraat,Gerard van der Nissestraat,4543AG,4543AG,96,96.0,,,,,Zaamslag,Zaamslag,436057.50423596904,6676911.69744087
715200000016528,715200000016528,Gerard v.d. Nissestraat,Gerard van der Nissestraat,4543AG,4543AG,98,98.0,,,,,Zaamslag,Zaamslag,436057.2369164718,6676901.080204871
715200000016529,715200000016529,Gerard v.d. Nissestraat,Gerard van der Nissestraat,4543AH,4543AH,99,99.0,,,,,Zaamslag,Zaamslag,436116.77451758797,6676910.201446819
715200000016530,715200000016530,Gerard v.d. Nissestraat,Gerard van der Nissestraat,4543AG,4543AG,100,100.0,,,,,Zaamslag,Zaamslag,436055.50723344146,6676891.637439995
715200000016531,715200000016531,Gerard v.d. Nissestraat,Gerard van der Nissestraat,4543AH,4543AH,101,101.0,,,,,Zaamslag,Zaamslag,436136.3285643682,6676910.4137343
715200000016532,715200000016532,Gerard v.d. Nissestraat,Gerard van der Nissestraat,4543AG,4543AG,102,102.0,,,,,Zaamslag,Zaamslag,436055.17219538044,6676881.529599123
715200000016533,715200000016533,Gerard v.d. Nissestraat,Gerard van der Nissestraat,4543AH,4543AH,103,103.0,,,,,Zaamslag,Zaamslag,436150.93668521993,6676909.853683522
715200000016534,715200000016534,Gerard v.d. Nissestraat,Gerard van der Nissestraat,4543AH,4543AH,109,109.0,,,,,Zaamslag,Zaamslag,436147.75224599265,6676821.765080601
715200000016535,715200000016535,Gerard v.d. Nissestraat,Gerard van der Nissestraat,4543AH,4543AH,111,111.0,,,,,Zaamslag,Zaamslag,436102.2444664142,6676828.175830298
715200000016536,715200000016536,Gerard v.d. Nissestraat,Gerard van der Nissestraat,4543AH,4543AH,113,113.0,,,,,Zaamslag,Zaamslag,436069.90318901226,6676830.8208355615
715200000016537,715200000016537,Gerard v.d. Nissestraat,Gerard van der Nissestraat,4543AH,4543AH,115,115.0,,,,,Zaamslag,Zaamslag,436030.36556978384,6676830.572935435
715200000036374,715200000036374,Irisstraat,Irisstraat,4542EC,4542EE,30,30.0,b,b,,,Hoek,Hoek,420822.7334111324,6677034.657739411
715200000018583,715200000018583,Verl van Steenbergenlaan,Verlengde van Steenbergenlaan,4537BC,4537BC,26,26.0,,,,,Terneuzen,Terneuzen,426146.67341453244,6680383.564559957
715200000018934,715200000018934,Jacob van Lennepstraat,Jacob van Lennepstraat,4532EW,4532EV,1,1.0,,,L1,L1,Terneuzen,Terneuzen,427579.61882272037,6678910.907864228
715200000018942,715200000018942,Nieuwediepstraat,Nieuwediepstraat,4531BN,4531BN,2,4.0,,,,,Terneuzen,Terneuzen,425880.5988643157,6680785.004007053
715200000019134,715200000019134,Achterweg,Achterweg,4521CA,4521CB,23,23.0,,,,,Biervliet,Biervliet,409832.3143855344,6679687.441705436
715200000036373,715200000036373,Irisstraat,Irisstraat,4542EC,4542EE,30,30.0,a,a,,,Hoek,Hoek,420815.737711532,6677000.759516046
715200000022095,715200000022095,Jhr. Mr. Casembrootstr,Jhr. Mr. De Casembrootstraat,4576AT,4576AT,2,2.0,,,,,Koewacht,Koewacht,442400.0186097867,6661652.625134998
715200000022096,715200000022096,Jhr. Mr. Casembrootstr,Jhr. Mr. De Casembrootstraat,4576AT,4576AT,4,4.0,,,,,Koewacht,Koewacht,442409.3217010291,6661670.14307892
715200000022097,715200000022097,Jhr. Mr. Casembrootstr,Jhr. Mr. De Casembrootstraat,4576AT,4576AT,6,6.0,,,,,Koewacht,Koewacht,442417.4182693794,6661681.302885646
715200000022098,715200000022098,Jhr. Mr. Casembrootstr,Jhr. Mr. De Casembrootstraat,4576AT,4576AT,8,8.0,,,,,Koewacht,Koewacht,442424.8054253915,6661694.783719802
715200000022099,715200000022099,Jhr. Mr. Casembrootstr,Jhr. Mr. De Casembrootstraat,4576AT,4576AT,10,10.0,,,,,Koewacht,Koewacht,442431.59896697145,6661704.585469571
715200000023770,715200000023770,Petrus Paulus Rubensstr,Petrus Paulus Rubensstraat,4571MH,4571MH,1,1.0,,,,,Axel,Axel,434753.16479557107,6669517.104568077
715200000023771,715200000023771,Petrus Paulus Rubensstr,Petrus Paulus Rubensstraat,4571MH,4571MH,2,2.0,,,,,Axel,Axel,434808.99199172034,6669521.57112488
715200000023773,715200000023773,Petrus Paulus Rubensstr,Petrus Paulus Rubensstraat,4571MH,4571MH,4,4.0,,,,,Axel,Axel,434812.337645477,6669529.213411797
715200000023774,715200000023774,Petrus Paulus Rubensstr,Petrus Paulus Rubensstraat,4571MH,4571MH,5,5.0,,,,,Axel,Axel,434775.3656585206,6669528.102733224
715200000023775,715200000023775,Petrus Paulus Rubensstr,Petrus Paulus Rubensstraat,4571MH,4571MH,6,6.0,,,,,Axel,Axel,434813.63884065236,6669536.103872595
715200000023776,715200000023776,Petrus Paulus Rubensstr,Petrus Paulus Rubensstraat,4571MH,4571MH,7,7.0,,,,,Axel,Axel,434778.3395426313,6669535.745472599
715200000023777,715200000023777,Petrus Paulus Rubensstr,Petrus Paulus Rubensstraat,4571MH,4571MH,8,8.0,,,,,Axel,Axel,434815.7423390104,6669543.634517366
715200000023779,715200000023779,Petrus Paulus Rubensstr,Petrus Paulus Rubensstraat,4571MH,4571MH,10,10.0,,,,,Axel,Axel,434826.1050169563,6669551.33800935
715200000023780,715200000023780,Petrus Paulus Rubensstr,Petrus Paulus Rubensstraat,4571MH,4571MH,11,11.0,,,,,Axel,Axel,434782.2086669177,6669552.441128793
715200000023781,715200000023781,Petrus Paulus Rubensstr,Petrus Paulus Rubensstraat,4571MH,4571MH,12,12.0,,,,,Axel,Axel,434828.54534435883,6669559.096266333
715200000023782,715200000023782,Petrus Paulus Rubensstr,Petrus Paulus Rubensstraat,4571MH,4571MH,13,13.0,,,,,Axel,Axel,434786.58863313677,6669561.63534975
715200000023783,715200000023783,Petrus Paulus Rubensstr,Petrus Paulus Rubensstraat,4571MH,4571MH,14,14.0,,,,,Axel,Axel,434831.93235456327,6669568.323055243
715200000023784,715200000023784,Petrus Paulus Rubensstr,Petrus Paulus Rubensstraat,4571MH,4571MH,15,15.0,,,,,Axel,Axel,434792.79609434144,6669569.532675424
715200000023786,715200000023786,Petrus Paulus Rubensstr,Petrus Paulus Rubensstraat,4571MH,4571MH,17,17.0,,,,,Axel,Axel,434794.41018190567,6669577.910800245
715200000023788,715200000023788,Petrus Paulus Rubensstr,Petrus Paulus Rubensstraat,4571MH,4571MH,19,19.0,,,,,Axel,Axel,434797.4338956786,6669585.536996639
715200000023789,715200000023789,Petrus Paulus Rubensstr,Petrus Paulus Rubensstraat,4571MH,4571MH,20,20.0,,,,,Axel,Axel,434839.7769284356,6669592.768275888
715200000023790,715200000023790,Petrus Paulus Rubensstr,Petrus Paulus Rubensstraat,4571MH,4571MH,21,21.0,,,,,Axel,Axel,434800.8450589017,6669593.569392293
715200000023791,715200000023791,Petrus Paulus Rubensstr,Petrus Paulus Rubensstraat,4571MH,4571MH,22,22.0,,,,,Axel,Axel,434842.36976863316,6669601.978941429
715200000023792,715200000023792,Petrus Paulus Rubensstr,Petrus Paulus Rubensstraat,4571MH,4571MH,23,23.0,,,,,Axel,Axel,434802.27879699226,6669601.163247146
715200000023793,715200000023793,Petrus Paulus Rubensstr,Petrus Paulus Rubensstraat,4571MH,4571MH,24,24.0,,,,,Axel,Axel,434845.3838844129,6669610.003256354
715200000023794,715200000023794,Petrus Paulus Rubensstr,Petrus Paulus Rubensstraat,4571MH,4571MH,25,25.0,,,,,Axel,Axel,434806.5777803124,6669613.020862218
715200000023795,715200000023795,Petrus Paulus Rubensstr,Petrus Paulus Rubensstraat,4571MH,4571MH,26,26.0,,,,,Axel,Axel,434848.3818923162,6669618.823871137
715200000023796,715200000023796,Petrus Paulus Rubensstr,Petrus Paulus Rubensstraat,4571MH,4571MH,28,28.0,,,,,Axel,Axel,434851.14761879336,6669627.060698613
715200000037803,715200000037803,Vaartwijk,Vaartwijk,4571SC,4571SV,30,30.0,,,,,Axel,Axel,433789.15250053554,6672082.199328584
715200000027683,715200000027683,Nico Uyt den Bogaardstr,Nico Uyt den Bogaardstraat,4551EC,4551EC,2,2.0,,,,,Sas van Gent,Sas van Gent,422781.59164789994,6661290.427544581
715200000027684,715200000027684,Nico Uyt den Bogaardstr,Nico Uyt den Bogaardstraat,4551EC,4551EC,3,3.0,,,,,Sas van Gent,Sas van Gent,422816.7248482596,6661278.152611447
715200000027685,715200000027685,Nico Uyt den Bogaardstr,Nico Uyt den Bogaardstraat,4551EC,4551EC,4,4.0,,,,,Sas van Gent,Sas van Gent,422773.3028504511,6661276.298873422
715200000027686,715200000027686,Nico Uyt den Bogaardstr,Nico Uyt den Bogaardstraat,4551EC,4551EC,5,5.0,,,,,Sas van Gent,Sas van Gent,422811.8830037612,6661269.551744617
715200000027687,715200000027687,Nico Uyt den Bogaardstr,Nico Uyt den Bogaardstraat,4551EC,4551EC,6,6.0,,,,,Sas van Gent,Sas van Gent,422765.07292040053,6661259.9741934445
715200000027688,715200000027688,Nico Uyt den Bogaardstr,Nico Uyt den Bogaardstraat,4551EC,4551EC,7,7.0,,,,,Sas van Gent,Sas van Gent,422803.77970574785,6661240.63572694
715200000027689,715200000027689,Nico Uyt den Bogaardstr,Nico Uyt den Bogaardstraat,4551EC,4551EC,8,8.0,,,,,Sas van Gent,Sas van Gent,422756.8125166268,6661247.843727234
715200000027690,715200000027690,Nico Uyt den Bogaardstr,Nico Uyt den Bogaardstraat,4551EC,4551EC,9,9.0,,,,,Sas van Gent,Sas van Gent,422800.47207096196,6661232.873783881
715200000027691,715200000027691,Nico Uyt den Bogaardstr,Nico Uyt den Bogaardstraat,4551EC,4551EC,10,10.0,,,,,Sas van Gent,Sas van Gent,422750.4057639733,6661231.9695812855
715200000027692,715200000027692,Nico Uyt den Bogaardstr,Nico Uyt den Bogaardstraat,4551EC,4551EC,11,11.0,,,,,Sas van Gent,Sas van Gent,422792.00451389665,6661218.023812031
715200000027693,715200000027693,Nico Uyt den Bogaardstr,Nico Uyt den Bogaardstraat,4551EC,4551EC,12,12.0,,,,,Sas van Gent,Sas van Gent,422741.33634104516,6661215.70174601
715200000027694,715200000027694,Nico Uyt den Bogaardstr,Nico Uyt den Bogaardstraat,4551EC,4551EC,13,13.0,,,,,Sas van Gent,Sas van Gent,422788.1163766416,6661211.086585289
715200000027695,715200000027695,Nico Uyt den Bogaardstr,Nico Uyt den Bogaardstraat,4551EC,4551EC,15,15.0,,,,,Sas van Gent,Sas van Gent,422778.9878911512,6661197.096336623
715200000027696,715200000027696,Nico Uyt den Bogaardstr,Nico Uyt den Bogaardstraat,4551EC,4551EC,17,17.0,,,,,Sas van Gent,Sas van Gent,422774.88311008946,6661189.273878415
715200000028158,715200000028158,Burgemeester Wautersstr,Burgemeester Wautersstraat,4551GW,4551GW,1,1.0,,,,,Sas van Gent,Sas van Gent,421891.5576181699,6661518.631740933
715200000028159,715200000028159,Burgemeester Wautersstr,Burgemeester Wautersstraat,4551GW,4551GW,2,2.0,,,,,Sas van Gent,Sas van Gent,421931.9962567787,6661521.324542716
715200000028160,715200000028160,Burgemeester Wautersstr,Burgemeester Wautersstraat,4551GW,4551GW,3,3.0,,,,,Sas van Gent,Sas van Gent,421890.5780468052,6661528.681459766
715200000028161,715200000028161,Burgemeester Wautersstr,Burgemeester Wautersstraat,4551GW,4551GW,4,4.0,,,,,Sas van Gent,Sas van Gent,421931.39416920603,6661530.5850965725
715200000028162,715200000028162,Burgemeester Wautersstr,Burgemeester Wautersstraat,4551GW,4551GW,5,5.0,,,,,Sas van Gent,Sas van Gent,421890.53437650035,6661537.914316523
715200000028163,715200000028163,Burgemeester Wautersstr,Burgemeester Wautersstraat,4551GW,4551GW,6,6.0,,,,,Sas van Gent,Sas van Gent,421930.5332586204,6661540.677389028
715200000028164,715200000028164,Burgemeester Wautersstr,Burgemeester Wautersstraat,4551GW,4551GW,7,7.0,,,,,Sas van Gent,Sas van Gent,421889.7928641286,6661548.010831667
715200000028165,715200000028165,Burgemeester Wautersstr,Burgemeester Wautersstraat,4551GW,4551GW,8,8.0,,,,,Sas van Gent,Sas van Gent,421929.7198304956,6661550.492665456
715200000028166,715200000028166,Burgemeester Wautersstr,Burgemeester Wautersstraat,4551GW,4551GW,9,9.0,,,,,Sas van Gent,Sas van Gent,421888.50370115676,6661561.291553724
715200000028167,715200000028167,Burgemeester Wautersstr,Burgemeester Wautersstraat,4551GW,4551GW,10,10.0,,,,,Sas van Gent,Sas van Gent,421928.45397306717,6661564.53460585
715200000028168,715200000028168,Burgemeester Wautersstr,Burgemeester Wautersstraat,4551GW,4551GW,11,11.0,,,,,Sas van Gent,Sas van Gent,421887.76639122376,6661571.268331798
715200000028169,715200000028169,Burgemeester Wautersstr,Burgemeester Wautersstraat,4551GW,4551GW,12,12.0,,,,,Sas van Gent,Sas van Gent,421928.14639216,6661573.080921304
715200000028170,715200000028170,Burgemeester Wautersstr,Burgemeester Wautersstraat,4551GW,4551GW,13,13.0,,,,,Sas van Gent,Sas van Gent,421886.70275997,6661581.517632592
715200000028171,715200000028171,Burgemeester Wautersstr,Burgemeester Wautersstraat,4551GW,4551GW,14,14.0,,,,,Sas van Gent,Sas van Gent,421927.4856971145,6661581.301477885
715200000028172,715200000028172,Burgemeester Wautersstr,Burgemeester Wautersstraat,4551GW,4551GW,15,15.0,,,,,Sas van Gent,Sas van Gent,421886.72915602615,6661591.191566218
715200000028173,715200000028173,Burgemeester Wautersstr,Burgemeester Wautersstraat,4551GW,4551GW,16,16.0,,,,,Sas van Gent,Sas van Gent,421926.39175475715,6661591.188958084
715200000028174,715200000028174,Burgemeester Wautersstr,Burgemeester Wautersstraat,4551GW,4551GW,17,17.0,,,,,Sas van Gent,Sas van Gent,421885.7859122111,6661601.40198184
715200000028175,715200000028175,Burgemeester Wautersstr,Burgemeester Wautersstraat,4551GW,4551GW,18,18.0,,,,,Sas van Gent,Sas van Gent,421926.23638229765,6661601.817782983
715200000028176,715200000028176,Burgemeester Wautersstr,Burgemeester Wautersstraat,4551GW,4551GW,19,19.0,,,,,Sas van Gent,Sas van Gent,421885.3291370713,6661611.305056919
715200000028177,715200000028177,Burgemeester Wautersstr,Burgemeester Wautersstraat,4551GW,4551GW,20,20.0,,,,,Sas van Gent,Sas van Gent,421925.3656898394,6661612.43093353
715200000028447,715200000028447,Frederik Hendrikplnts,Frederik Hendrikplantsoen,4551HR,4551HR,1,1.0,,,,,Sas van Gent,Sas van Gent,421876.61449649575,6661936.082426821
715200000028448,715200000028448,Frederik Hendrikplnts,Frederik Hendrikplantsoen,4551HR,4551HR,2,2.0,,,,,Sas van Gent,Sas van Gent,421933.6991103112,6662002.939995932
715200000028449,715200000028449,Frederik Hendrikplnts,Frederik Hendrikplantsoen,4551HR,4551HR,3,3.0,,,,,Sas van Gent,Sas van Gent,421864.34854542627,6661939.167902187
715200000028450,715200000028450,Frederik Hendrikplnts,Frederik Hendrikplantsoen,4551HR,4551HR,4,4.0,,,,,Sas van Gent,Sas van Gent,421899.5121100065,6662007.6591773955
715200000028451,715200000028451,Frederik Hendrikplnts,Frederik Hendrikplantsoen,4551HR,4551HR,5,5.0,,,,,Sas van Gent,Sas van Gent,421844.44657566777,6661943.244494229
715200000028452,715200000028452,Frederik Hendrikplnts,Frederik Hendrikplantsoen,4551HR,4551HR,6,6.0,,,,,Sas van Gent,Sas van Gent,421874.71701366134,6662018.503972287
715200000028453,715200000028453,Frederik Hendrikplnts,Frederik Hendrikplantsoen,4551HR,4551HR,7,7.0,,,,,Sas van Gent,Sas van Gent,421834.2959208006,6661946.178166395
715200000028454,715200000028454,Frederik Hendrikplnts,Frederik Hendrikplantsoen,4551HR,4551HR,8,8.0,,,,,Sas van Gent,Sas van Gent,421845.2758488258,6662028.524379846
715200000028455,715200000028455,Frederik Hendrikplnts,Frederik Hendrikplantsoen,4551HR,4551HR,9,9.0,,,,,Sas van Gent,Sas van Gent,421814.55498341547,6661950.178313558
715200000028456,715200000028456,Frederik Hendrikplnts,Frederik Hendrikplantsoen,4551HR,4551HR,10,10.0,,,,,Sas van Gent,Sas van Gent,421812.58607718843,6662043.071416295
715200000028457,715200000028457,Frederik Hendrikplnts,Frederik Hendrikplantsoen,4551HR,4551HR,11,11.0,,,,,Sas van Gent,Sas van Gent,421791.99135395867,6661953.8751362935
715200000028458,715200000028458,Frederik Hendrikplnts,Frederik Hendrikplantsoen,4551HR,4551HR,13,13.0,,,,,Sas van Gent,Sas van Gent,421766.53256650514,6661962.2661342835
715200000028852,715200000028852,Burg Dusarduijnstr,Burgemeester Dusarduijnstraat,4551SV,4551SV,1,1.0,,,,,Sas van Gent,Sas van Gent,422090.79894130415,6663086.248445355
715200000028853,715200000028853,Burg Dusarduijnstr,Burgemeester Dusarduijnstraat,4551SV,4551SV,2,2.0,,,,,Sas van Gent,Sas van Gent,422043.5107298749,6662956.527436282
715200000028854,715200000028854,Burg Dusarduijnstr,Burgemeester Dusarduijnstraat,4551SV,4551SV,3,3.0,,,,,Sas van Gent,Sas van Gent,422071.6811847775,6663046.769467962
715200000028855,715200000028855,Burg Dusarduijnstr,Burgemeester Dusarduijnstraat,4551SV,4551SV,4,4.0,,,,,Sas van Gent,Sas van Gent,422067.9977509565,6662955.985207872
715200000028856,715200000028856,Burg Dusarduijnstr,Burgemeester Dusarduijnstraat,4551SV,4551SV,5,5.0,,,,,Sas van Gent,Sas van Gent,422072.09315089224,6663019.388469693
715200000028857,715200000028857,Burg Dusarduijnstr,Burgemeester Dusarduijnstraat,4551SV,4551SV,6,6.0,,,,,Sas van Gent,Sas van Gent,422092.9380850374,6662954.6120930705
715200000028858,715200000028858,Burg Dusarduijnstr,Burgemeester Dusarduijnstraat,4551SV,4551SV,7,7.0,,,,,Sas van Gent,Sas van Gent,422073.95833879034,6662992.6228195205
715200000028859,715200000028859,Burgemeester den Boerstr,Burgemeester den Boerstraat,4551SW,4551SW,1,1.0,,,,,Sas van Gent,Sas van Gent,422054.46858366526,6663294.958994059
715200000028860,715200000028860,Burgemeester den Boerstr,Burgemeester den Boerstraat,4551SW,4551SW,2,2.0,,,,,Sas van Gent,Sas van Gent,422049.1547007275,6663175.932089147
715200000028861,715200000028861,Burgemeester den Boerstr,Burgemeester den Boerstraat,4551SW,4551SW,3,3.0,,,,,Sas van Gent,Sas van Gent,422090.2147428754,6663286.386693419
715200000028862,715200000028862,Burgemeester den Boerstr,Burgemeester den Boerstraat,4551SW,4551SW,4,4.0,,,,,Sas van Gent,Sas van Gent,422058.35819869774,6663176.144992582
715200000028863,715200000028863,Burgemeester den Boerstr,Burgemeester den Boerstraat,4551SW,4551SW,5,5.0,,,,,Sas van Gent,Sas van Gent,422080.8615485109,6663255.224799674
715200000028864,715200000028864,Burgemeester den Boerstr,Burgemeester den Boerstraat,4551SW,4551SW,6,6.0,,,,,Sas van Gent,Sas van Gent,422082.0748138986,6663169.7276101
715200000028865,715200000028865,Burgemeester den Boerstr,Burgemeester den Boerstraat,4551SW,4551SW,7,7.0,,,,,Sas van Gent,Sas van Gent,422078.4282911641,6663227.090232917
715200000028866,715200000028866,Burgemeester den Boerstr,Burgemeester den Boerstraat,4551SW,4551SW,9,9.0,,,,,Sas van Gent,Sas van Gent,422127.31911694695,6663216.657602393
715200000028867,715200000028867,Burgemeester den Boerstr,Burgemeester den Boerstraat,4551SW,4551SW,10,10.0,,,,,Sas van Gent,Sas van Gent,422103.86528726626,6663174.953989686
715200000028868,715200000028868,Burgemeester den Boerstr,Burgemeester den Boerstraat,4551SW,4551SW,11,11.0,,,,,Sas van Gent,Sas van Gent,422134.5948830296,6663243.077589654
715200000028869,715200000028869,Burgemeester den Boerstr,Burgemeester den Boerstraat,4551SW,4551SW,12,12.0,,,,,Sas van Gent,Sas van Gent,422115.1216428279,6663174.164844406
715200000028870,715200000028870,Burgemeester den Boerstr,Burgemeester den Boerstraat,4551SW,4551SW,14,14.0,,,,,Sas van Gent,Sas van Gent,422131.06808679237,6663174.183336017
715200000028871,715200000028871,Burgemeester den Boerstr,Burgemeester den Boerstraat,4551SW,4551SW,16,16.0,,,,,Sas van Gent,Sas van Gent,422142.3263269052,6663173.234352562
715200000030114,715200000030114,Graaf van Vlaanderenstr,Graaf van Vlaanderenstraat,4553CV,4553CV,2,2.0,,,,,Philippine,Philippine,417899.96082305384,6671641.708171874
715200000030115,715200000030115,Graaf van Vlaanderenstr,Graaf van Vlaanderenstraat,4553CV,4553CV,3,3.0,,,,,Philippine,Philippine,417832.7256461116,6671676.27011989
715200000030116,715200000030116,Graaf van Vlaanderenstr,Graaf van Vlaanderenstraat,4553CV,4553CV,4,4.0,,,,,Philippine,Philippine,417877.06458616885,6671686.614543415
715200000030117,715200000030117,Graaf van Vlaanderenstr,Graaf van Vlaanderenstraat,4553CV,4553CV,5,5.0,,,,,Philippine,Philippine,417823.5625273126,6671696.476838907
715200000030118,715200000030118,Graaf van Vlaanderenstr,Graaf van Vlaanderenstraat,4553CV,4553CV,6,6.0,,,,,Philippine,Philippine,417873.6124529688,6671697.777741554
715200000030119,715200000030119,Graaf van Vlaanderenstr,Graaf van Vlaanderenstraat,4553CV,4553CV,7,7.0,,,,,Philippine,Philippine,417817.5290791649,6671706.24120401
715200000030120,715200000030120,Graaf van Vlaanderenstr,Graaf van Vlaanderenstraat,4553CV,4553CV,8,8.0,,,,,Philippine,Philippine,417865.1978911604,6671716.054036362
715200000030121,715200000030121,Graaf van Vlaanderenstr,Graaf van Vlaanderenstraat,4553CV,4553CV,9,9.0,,,,,Philippine,Philippine,417813.016567055,6671723.64979478
715200000030122,715200000030122,Graaf van Vlaanderenstr,Graaf van Vlaanderenstraat,4553CV,4553CV,10,10.0,,,,,Philippine,Philippine,417859.8778729248,6671727.175351055
715200000030123,715200000030123,Graaf van Vlaanderenstr,Graaf van Vlaanderenstraat,4553CV,4553CV,11,11.0,,,,,Philippine,Philippine,417808.0933788646,6671734.0775497025
715200000030124,715200000030124,Graaf van Vlaanderenstr,Graaf van Vlaanderenstraat,4553CV,4553CV,12,12.0,,,,,Philippine,Philippine,417851.6618513599,6671745.491356337
715200000030125,715200000030125,Graaf van Vlaanderenstr,Graaf van Vlaanderenstraat,4553CV,4553CV,14,14.0,,,,,Philippine,Philippine,417847.71311150736,6671754.948965823
715200000030126,715200000030126,Graaf van Vlaanderenstr,Graaf van Vlaanderenstraat,4553CV,4553CV,15,15.0,,,,,Philippine,Philippine,417789.44083517353,6671777.226526234
715200000030127,715200000030127,Graaf van Vlaanderenstr,Graaf van Vlaanderenstraat,4553CV,4553CV,16,16.0,,,,,Philippine,Philippine,417834.46343143686,6671797.572964946
715200000030128,715200000030128,Graaf van Vlaanderenstr,Graaf van Vlaanderenstraat,4553CV,4553CV,17,17.0,,,,,Philippine,Philippine,417782.16368541116,6671797.512594998
715200000030129,715200000030129,Graaf van Vlaanderenstr,Graaf van Vlaanderenstraat,4553CV,4553CV,18,18.0,,,,,Philippine,Philippine,417821.0024819115,6671820.706141223
715200000030130,715200000030130,Graaf van Vlaanderenstr,Graaf van Vlaanderenstraat,4553CV,4553CV,19,19.0,,,,,Philippine,Philippine,417778.8861830147,6671806.065235682
715200000030131,715200000030131,Graaf van Vlaanderenstr,Graaf van Vlaanderenstraat,4553CV,4553CV,20,20.0,,,,,Philippine,Philippine,417815.8988168801,6671833.067721958
715200000030132,715200000030132,Graaf van Vlaanderenstr,Graaf van Vlaanderenstraat,4553CV,4553CV,21,21.0,,,,,Philippine,Philippine,417773.0328359694,6671823.97995424
715200000030133,715200000030133,Graaf van Vlaanderenstr,Graaf van Vlaanderenstraat,4553CV,4553CV,22,22.0,,,,,Philippine,Philippine,417809.1775843387,6671850.900637869
715200000030134,715200000030134,Graaf van Vlaanderenstr,Graaf van Vlaanderenstraat,4553CV,4553CV,23,23.0,,,,,Philippine,Philippine,417770.1722299094,6671831.157874166
715200000030135,715200000030135,Graaf van Vlaanderenstr,Graaf van Vlaanderenstraat,4553CV,4553CV,24,24.0,,,,,Philippine,Philippine,417804.9283470358,6671861.303680126
715200000030136,715200000030136,Graaf van Vlaanderenstr,Graaf van Vlaanderenstraat,4553CV,4553CV,26,26.0,,,,,Philippine,Philippine,417795.82173401385,6671903.837166865
715200000030137,715200000030137,Hertog van Bourgondiestr,Hertog van Bourgondiestraat,4553CW,4553CW,1,1.0,,,,,Philippine,Philippine,417754.3633313785,6671863.727075218
715200000030138,715200000030138,Hertog van Bourgondiestr,Hertog van Bourgondiestraat,4553CW,4553CW,3,3.0,,,,,Philippine,Philippine,417745.8553304854,6671860.375768732
715200000030139,715200000030139,Hertog van Bourgondiestr,Hertog van Bourgondiestraat,4553CW,4553CW,5,5.0,,,,,Philippine,Philippine,417719.0772142355,6671850.311237904
715200000030140,715200000030140,Hertog van Bourgondiestr,Hertog van Bourgondiestraat,4553CW,4553CW,7,7.0,,,,,Philippine,Philippine,417709.96836023644,6671846.853596608
715200000030141,715200000030141,Hertog van Bourgondiestr,Hertog van Bourgondiestraat,4553CW,4553CW,9,9.0,,,,,Philippine,Philippine,417677.83089272154,6671833.733942509
715200000030142,715200000030142,Hertog van Bourgondiestr,Hertog van Bourgondiestraat,4553CW,4553CW,11,11.0,,,,,Philippine,Philippine,417656.99655087455,6671826.292547669
715200000030143,715200000030143,Hertog van Bourgondiestr,Hertog van Bourgondiestraat,4553CW,4553CW,13,13.0,,,,,Philippine,Philippine,417647.7099291268,6671822.365216602
715200000030144,715200000030144,Hertog van Bourgondiestr,Hertog van Bourgondiestraat,4553CW,4553CW,15,15.0,,,,,Philippine,Philippine,417628.48314632574,6671814.476640877
715200000030145,715200000030145,Hertog van Bourgondiestr,Hertog van Bourgondiestraat,4553CW,4553CW,17,17.0,,,,,Philippine,Philippine,417619.1209457613,6671809.79072797
715200000030164,715200000030164,Burgemeester van Hoekstr,Burgemeester van Hoekstraat,4553CZ,4553CZ,1,1.0,,,,,Philippine,Philippine,418639.4879811614,6671542.8554498
715200000030165,715200000030165,Burgemeester van Hoekstr,Burgemeester van Hoekstraat,4553CZ,4553CZ,2,2.0,,,,,Philippine,Philippine,418630.20445825864,6671567.068197186
715200000030166,715200000030166,Burgemeester van Hoekstr,Burgemeester van Hoekstraat,4553CZ,4553CZ,3,3.0,,,,,Philippine,Philippine,418630.1718063498,6671538.528707214
715200000030167,715200000030167,Burgemeester van Hoekstr,Burgemeester van Hoekstraat,4553CZ,4553CZ,4,4.0,,,,,Philippine,Philippine,418620.5196071299,6671564.034046902
715200000030168,715200000030168,Burgemeester van Hoekstr,Burgemeester van Hoekstraat,4553CZ,4553CZ,5,5.0,,,,,Philippine,Philippine,418617.4475382447,6671533.957785023
715200000030169,715200000030169,Burgemeester van Hoekstr,Burgemeester van Hoekstraat,4553CZ,4553CZ,6,6.0,,,,,Philippine,Philippine,418610.4773566484,6671558.987015107
715200000030170,715200000030170,Burgemeester van Hoekstr,Burgemeester van Hoekstraat,4553CZ,4553CZ,7,7.0,,,,,Philippine,Philippine,418607.3799451465,6671529.980641483
715200000030171,715200000030171,Burgemeester van Hoekstr,Burgemeester van Hoekstraat,4553CZ,4553CZ,8,8.0,,,,,Philippine,Philippine,418598.8082549758,6671554.9756565895
715200000030172,715200000030172,Burgemeester van Hoekstr,Burgemeester van Hoekstraat,4553CZ,4553CZ,9,9.0,,,,,Philippine,Philippine,418596.1707347713,6671524.307508642
715200000030173,715200000030173,Burgemeester van Hoekstr,Burgemeester van Hoekstraat,4553CZ,4553CZ,10,10.0,,,,,Philippine,Philippine,418584.26183713815,6671549.528713006
715200000030174,715200000030174,Burgemeester van Hoekstr,Burgemeester van Hoekstraat,4553CZ,4553CZ,11,11.0,,,,,Philippine,Philippine,418566.39235920575,6671504.849200299
715200000030175,715200000030175,Burgemeester van Hoekstr,Burgemeester van Hoekstraat,4553CZ,4553CZ,12,12.0,,,,,Philippine,Philippine,418563.2922557037,6671514.724251295
715200000030176,715200000030176,Burgemeester van Hoekstr,Burgemeester van Hoekstraat,4553CZ,4553CZ,13,13.0,,,,,Philippine,Philippine,418560.0724780693,6671522.230149738
715200000030177,715200000030177,Burgemeester van Hoekstr,Burgemeester van Hoekstraat,4553CZ,4553CZ,14,14.0,,,,,Philippine,Philippine,418556.82356661215,6671531.045852429
715200000030178,715200000030178,Burgemeester van Hoekstr,Burgemeester van Hoekstraat,4553CZ,4553CZ,15,15.0,,,,,Philippine,Philippine,418553.0296469535,6671538.247716406
715200000030179,715200000030179,Burgemeester van Hoekstr,Burgemeester van Hoekstraat,4553CZ,4553CZ,16,16.0,,,,,Philippine,Philippine,418549.4508243762,6671545.680002923
715200000031499,715200000031499,Nico Uyt den Bogaardstr,Nico Uyt den Bogaardstraat,4551EC,4551EC,1,1.0,,,,,Sas van Gent,Sas van Gent,422831.05063039984,6661310.81132623
715200000031500,715200000031500,Nico Uyt den Bogaardstr,Nico Uyt den Bogaardstraat,4551EC,4551EC,1,1.0,a,a,,,Sas van Gent,Sas van Gent,422824.3877388367,6661294.025436749
715200000032479,715200000032479,Gerard v.d. Nissestraat,Gerard van der Nissestraat,4543AD,4543AD,31,31.0,,,,,Zaamslag,Zaamslag,436105.1407260572,6677298.896188689
715200000031553,715200000031553,Graaf van Vlaanderenstr,Graaf van Vlaanderenstraat,4553CV,4553CV,1,1.0,,,,,Philippine,Philippine,417835.42429990467,6671668.835866095
715200000034320,715200000034320,Verl van Steenbergenlaan,Verlengde van Steenbergenlaan,4537BB,4537BB,29,29.0,,,,,Terneuzen,Terneuzen,426162.15193519334,6680426.532206658
715200000037484,715200000037484,Bosjesweg,Bosjesweg,,,1,1.0,g,,1,g1,Sluiskil,Sluiskil,427208.0250692266,6671119.980893232
715200000037215,715200000037215,Vlooswijkstraat,Nieuwediepstraat,4531CC,4531BN,19,2.0,,,,,Terneuzen,Terneuzen,425946.272718724,6680796.487074641
715200000036682,715200000036682,Verl van Steenbergenlaan,Verlengde van Steenbergenlaan,4537BB,4537BB,1,1.0,,,,,Terneuzen,Terneuzen,426305.4405572398,6680566.879114578
715200000038578,715200000038578,Kerkstraat,Kerkstraat,4571GJ,4571BC,9,9.0,,,,,Axel,Axel,434906.2494166109,6668361.027031484
715200000038646,715200000038646,Kennedylaan,Kennedylaan,4538AE,4538AE,19,17.0,,,,,Terneuzen,Terneuzen,425951.033119591,6680120.2754940605
715200000016453,715200000016453,Gerard v.d. Nissestraat,Gerard van der Nissestraat,4543AD,4543AD,13,13.0,,,,,Zaamslag,Zaamslag,435732.12476685294,6677316.547414982
715200000020498,715200000020498,Boslaan,Boslaan,4571SW,4571SW,5,61.0,,,,,Axel,Axel,435558.62368542724,6667570.913781377
715200000038937,715200000038937,Verl van Steenbergenlaan,Verlengde van Steenbergenlaan,4537BB,4537BB,13,13.0,,,,,Terneuzen,Terneuzen,426222.12384018727,6680484.023413763
715200000036523,715200000036523,Orteliusschans,Orteliusschans,4533JD,4533JD,1,4.0,,,,,Terneuzen,Terneuzen,430461.13116776187,6678826.080979159
715200000036544,715200000036544,Orteliusschans,Orteliusschans,4533JD,4533JD,2,3.0,,,,,Terneuzen,Terneuzen,430459.87046817376,6678813.345522051
715200000036547,715200000036547,Orteliusschans,Orteliusschans,4533JD,4533JD,5,8.0,,,,,Terneuzen,Terneuzen,430502.6826286554,6678780.540587593
715200000036550,715200000036550,Orteliusschans,Orteliusschans,4533JD,4533JD,8,5.0,,,,,Terneuzen,Terneuzen,430512.1595359014,6678818.649586525
715200000036546,715200000036546,Orteliusschans,Orteliusschans,4533JD,4533JD,4,1.0,,,,,Terneuzen,Terneuzen,430454.29131587205,6678789.827002591
715200000036545,715200000036545,Orteliusschans,Orteliusschans,4533JD,4533JD,3,2.0,,,,,Terneuzen,Terneuzen,430456.2594117344,6678801.802102486
715200000036549,715200000036549,Orteliusschans,Orteliusschans,4533JD,4533JD,7,6.0,,,,,Terneuzen,Terneuzen,430509.7300494633,6678806.429427373
715200000036548,715200000036548,Orteliusschans,Orteliusschans,4533JD,4533JD,6,7.0,,,,,Terneuzen,Terneuzen,430509.2867108242,6678794.018558406
715200000000846,715200000000846,Bachlaan,Bachlaan,,,164,164.0,,,G003,G3,Terneuzen,Terneuzen,428575.96982534876,6677261.007354515
715200000000844,715200000000844,Bachlaan,Bachlaan,,,164,164.0,,,G001,G1,Terneuzen,Terneuzen,428571.6746477298,6677269.566051974
715200000000845,715200000000845,Bachlaan,Bachlaan,,,164,164.0,,,G002,G2,Terneuzen,Terneuzen,428573.9674528569,6677265.329798696
715200000011365,715200000011365,Verl van Steenbergenlaan,Verlengde van Steenbergenlaan,4537BC,4537BC,14,14.0,,,,,Terneuzen,Terneuzen,426266.0706593916,6680395.420147334
