BAGNUMIDENTIFICATIE,B_NUMMERAANDUIDING,OPENBARERUIMTENAAM,B_OPENBARERUIMTE,POSTCODE,B_POSTCODE,HUISNUMMER,B_HUISNUMMER,HUISLETTER,B_HUISLETTER,HUISNUMMERTOEVOEGING,B_HUISNUMMERTOEVOEGING,WOONPLAATSNAAM,B_WOONPLAATSNAAM,x,y
716200000753904,716200000753904,Burg. v Berchemstr,Burgemeester van Berchemstraat,4691JL,4691JL,1,1,,,,,Tholen,Tholen,469278.7349707259,6716993.78767799
716200000753905,716200000753905,Burg. v Berchemstr,Burgemeester van Berchemstraat,4691JL,4691JL,2,2,,,,,Tholen,Tholen,469266.12623310083,6716947.523288125
716200000753906,716200000753906,Burg. v Berchemstr,Burgemeester van Berchemstraat,4691JL,4691JL,2,2,a,a,,,Tholen,Tholen,469357.81946997746,6716978.346356574
716200000753907,716200000753907,Burg. v Berchemstr,Burgemeester van Berchemstraat,4691JL,4691JL,3,3,,,,,Tholen,Tholen,469289.50224723114,6716997.790306825
716200000753908,716200000753908,Burg. v Berchemstr,Burgemeester van Berchemstraat,4691JL,4691JL,4,4,,,,,Tholen,Tholen,469367.6330433899,6716982.783983908
716200000753909,716200000753909,Burg. v Berchemstr,Burgemeester van Berchemstraat,4691JL,4691JL,5,5,,,,,Tholen,Tholen,469310.6886909195,6717003.489264726
716200000753910,716200000753910,Burg. v Berchemstr,Burgemeester van Berchemstraat,4691JL,4691JL,6,6,,,,,Tholen,Tholen,469377.34489847376,6716986.560337122
716200000753911,716200000753911,Burg. v Berchemstr,Burgemeester van Berchemstraat,4691JL,4691JL,7,7,,,,,Tholen,Tholen,469320.44867138186,6717007.266471488
716200000753912,716200000753912,Burg. v Berchemstr,Burgemeester van Berchemstraat,4691JL,4691JL,8,8,,,,,Tholen,Tholen,469387.1033435791,6716990.43396144
716200000753913,716200000753913,Burg. v Berchemstr,Burgemeester van Berchemstraat,4691JL,4691JL,9,9,,,,,Tholen,Tholen,469340.4489604831,6717015.890435112
716200000753914,716200000753914,Burg. v Berchemstr,Burgemeester van Berchemstraat,4691JL,4691JL,10,10,,,,,Tholen,Tholen,469396.97229128954,6716994.421974717
716200000753915,716200000753915,Burg. v Berchemstr,Burgemeester van Berchemstraat,4691JL,4691JL,11,11,,,,,Tholen,Tholen,469349.6713165817,6717020.173780939
716200000753916,716200000753916,Burg. v Berchemstr,Burgemeester van Berchemstraat,4691JL,4691JL,13,13,,,,,Tholen,Tholen,469369.95399002504,6717029.204447481
716200000753917,716200000753917,Burg. v Berchemstr,Burgemeester van Berchemstraat,4691JL,4691JL,15,15,,,,,Tholen,Tholen,469379.6265376044,6717032.433175596
716200000753918,716200000753918,Burg. v Berchemstr,Burgemeester van Berchemstraat,4691JL,4691JL,17,17,,,,,Tholen,Tholen,469399.29527654283,6717041.727396795
716200000753919,716200000753919,Burg. v Berchemstr,Burgemeester van Berchemstraat,4691JL,4691JL,19,19,,,,,Tholen,Tholen,469408.7601357105,6717045.901974122
716200000753920,716200000753920,Burg v d Hoevenstr,Burgemeester van der Hoevenstraat,4691JK,4691JK,1,1,,,,,Tholen,Tholen,469380.49218747555,6716759.123713571
716200000753921,716200000753921,Burg v d Hoevenstr,Burgemeester van der Hoevenstraat,4691JK,4691JK,2,2,,,,,Tholen,Tholen,469457.7246604557,6716767.993166615
716200000753922,716200000753922,Burg v d Hoevenstr,Burgemeester van der Hoevenstraat,4691JK,4691JK,3,3,,,,,Tholen,Tholen,469363.8669119164,6716792.254617674
716200000753923,716200000753923,Burg v d Hoevenstr,Burgemeester van der Hoevenstraat,4691JK,4691JK,4,4,,,,,Tholen,Tholen,469451.0080654578,6716776.588647518
716200000753924,716200000753924,Burg v d Hoevenstr,Burgemeester van der Hoevenstraat,4691JK,4691JK,5,5,,,,,Tholen,Tholen,469341.5677129097,6716819.9690327365
716200000753925,716200000753925,Burg v d Hoevenstr,Burgemeester van der Hoevenstraat,4691JK,4691JK,6,6,,,,,Tholen,Tholen,469444.4393716759,6716783.96382254
716200000753926,716200000753926,Burg v d Hoevenstr,Burgemeester van der Hoevenstraat,4691JK,4691JK,7,7,,,,,Tholen,Tholen,469324.99287615175,6716857.943461495
716200000753927,716200000753927,Burg v d Hoevenstr,Burgemeester van der Hoevenstraat,4691JK,4691JK,8,8,,,,,Tholen,Tholen,469360.73590948584,6716888.491744982
716200000753928,716200000753928,Burg v d Hoevenstr,Burgemeester van der Hoevenstraat,4691JK,4691JK,9,9,,,,,Tholen,Tholen,469312.1604635766,6716887.676815038
716200000753929,716200000753929,Burg v d Hoevenstr,Burgemeester van der Hoevenstraat,4691JK,4691JK,10,10,,,,,Tholen,Tholen,469355.9331591132,6716898.807377531
716200000753931,716200000753931,Burg v d Hoevenstr,Burgemeester van der Hoevenstraat,4691JK,4691JK,12,12,,,,,Tholen,Tholen,469352.2496899626,6716908.368816967
716200000753932,716200000753932,Burg v d Hoevenstr,Burgemeester van der Hoevenstraat,4691JK,4691JK,14,14,,,,,Tholen,Tholen,469348.2458813533,6716917.89292786
716200000753933,716200000753933,Burg v d Hoevenstr,Burgemeester van der Hoevenstraat,4691JK,4691JK,16,16,,,,,Tholen,Tholen,469343.450316677,6716927.758233238
716200000753934,716200000753934,Burg v d Hoevenstr,Burgemeester van der Hoevenstraat,4691JK,4691JK,18,18,,,,,Tholen,Tholen,469339.2407736406,6716937.102075682
716200000753935,716200000753935,Burg v d Hoevenstr,Burgemeester van der Hoevenstraat,4691JK,4691JK,20,20,,,,,Tholen,Tholen,469335.6082306913,6716946.487401421
716200000753936,716200000753936,Burg v d Hoevenstr,Burgemeester van der Hoevenstraat,4691JK,4691JK,22,22,,,,,Tholen,Tholen,469331.9345698693,6716956.435167009
716200000753937,716200000753937,Burg v d Hoevenstr,Burgemeester van der Hoevenstraat,4691JK,4691JK,24,24,,,,,Tholen,Tholen,469327.5992378853,6716965.616125464
716200000753963,716200000753963,Burg v Lichtenbergstr,Burgemeester van Lichtenbergstraat,,,16,16,,,G12,G12,Tholen,Tholen,469539.4565140961,6716880.734846379
716200000753961,716200000753961,Burg v Lichtenbergstr,Burgemeester van Lichtenbergstraat,,,16,16,,,G10,G10,Tholen,Tholen,469531.75549264776,6716874.642211383
716200000753964,716200000753964,Burg v Lichtenbergstr,Burgemeester van Lichtenbergstraat,,,16,16,,,G13,G13,Tholen,Tholen,469543.29111560644,6716883.7728627175
716200000753959,716200000753959,Burg v Lichtenbergstr,Burgemeester van Lichtenbergstraat,,,16,16,,,G08,G08,Tholen,Tholen,469524.2288875618,6716868.681085595
716200000753958,716200000753958,Burg v Lichtenbergstr,Burgemeester van Lichtenbergstraat,,,16,16,,,G07,G07,Tholen,Tholen,469520.52109326614,6716865.741635356
716200000753956,716200000753956,Burg v Lichtenbergstr,Burgemeester van Lichtenbergstraat,,,16,16,,,G05,G05,Tholen,Tholen,469512.93110828596,6716859.731220936
716200000753955,716200000753955,Burg v Lichtenbergstr,Burgemeester van Lichtenbergstraat,,,16,16,,,G04,G04,Tholen,Tholen,469509.0015637189,6716856.611230107
716200000753966,716200000753966,Burg v Lichtenbergstr,Burgemeester van Lichtenbergstraat,,,16,16,,,G15,G15,Tholen,Tholen,469551.02398149815,6716889.882093887
716200000753960,716200000753960,Burg v Lichtenbergstr,Burgemeester van Lichtenbergstraat,,,16,16,,,G09,G09,Tholen,Tholen,469527.98429633415,6716871.6534777135
716200000753962,716200000753962,Burg v Lichtenbergstr,Burgemeester van Lichtenbergstraat,,,16,16,,,G11,G11,Tholen,Tholen,469535.62191545416,6716877.696829369
716200000753957,716200000753957,Burg v Lichtenbergstr,Burgemeester van Lichtenbergstraat,,,16,16,,,G06,G06,Tholen,Tholen,469516.6865087855,6716862.703615009
716200000753965,716200000753965,Burg v Lichtenbergstr,Burgemeester van Lichtenbergstraat,,,16,16,,,G14,G14,Tholen,Tholen,469547.12571998563,6716886.810878373
716200000753953,716200000753953,Burg v Lichtenbergstr,Burgemeester van Lichtenbergstraat,,,16,16,,,G02,G02,Tholen,Tholen,469501.696750158,6716850.830635216
716200000753954,716200000753954,Burg v Lichtenbergstr,Burgemeester van Lichtenbergstraat,,,16,16,,,G03,G03,Tholen,Tholen,469505.356919238,6716853.7371460805
716200000753938,716200000753938,Burg v Lichtenbergstr,Burgemeester van Lichtenbergstraat,4691JJ,4691JJ,1,1,,,,,Tholen,Tholen,469367.4645899867,6716854.123115733
716200000753939,716200000753939,Burg v Lichtenbergstr,Burgemeester van Lichtenbergstraat,4691JJ,4691JJ,2,2,,,,,Tholen,Tholen,469410.6772509771,6716810.061986618
716200000753940,716200000753940,Burg v Lichtenbergstr,Burgemeester van Lichtenbergstraat,4691JJ,4691JJ,3,3,,,,,Tholen,Tholen,469376.8857891485,6716859.0048139
716200000753941,716200000753941,Burg v Lichtenbergstr,Burgemeester van Lichtenbergstraat,4691JJ,4691JJ,4,4,,,,,Tholen,Tholen,469419.89729276224,6716817.482288812
716200000753942,716200000753942,Burg v Lichtenbergstr,Burgemeester van Lichtenbergstraat,4691JJ,4691JJ,5,5,,,,,Tholen,Tholen,469386.8707341037,6716862.753322928
716200000753943,716200000753943,Burg v Lichtenbergstr,Burgemeester van Lichtenbergstraat,4691JJ,4691JJ,6,6,,,,,Tholen,Tholen,469427.59328055265,6716823.88058236
716200000753944,716200000753944,Burg v Lichtenbergstr,Burgemeester van Lichtenbergstraat,4691JJ,4691JJ,7,7,,,,,Tholen,Tholen,469396.2057526155,6716867.006175462
716200000753945,716200000753945,Burg v Lichtenbergstr,Burgemeester van Lichtenbergstraat,4691JJ,4691JJ,8,8,,,,,Tholen,Tholen,469436.2650175952,6716830.471554232
716200000753946,716200000753946,Burg v Lichtenbergstr,Burgemeester van Lichtenbergstraat,4691JJ,4691JJ,9,9,,,,,Tholen,Tholen,469405.5744115817,6716871.163031878
716200000753947,716200000753947,Burg v Lichtenbergstr,Burgemeester van Lichtenbergstraat,4691JJ,4691JJ,10,10,,,,,Tholen,Tholen,469452.2539650624,6716843.068592695
716200000753948,716200000753948,Burg v Lichtenbergstr,Burgemeester van Lichtenbergstraat,4691JJ,4691JJ,11,11,,,,,Tholen,Tholen,469415.8215380641,6716875.575349895
716200000753949,716200000753949,Burg v Lichtenbergstr,Burgemeester van Lichtenbergstraat,4691JJ,4691JJ,12,12,,,,,Tholen,Tholen,469460.5342903646,6716850.05545604
716200000753950,716200000753950,Burg v Lichtenbergstr,Burgemeester van Lichtenbergstraat,4691JJ,4691JJ,14,14,,,,,Tholen,Tholen,469468.6627077729,6716856.508961436
716200000753951,716200000753951,Burg v Lichtenbergstr,Burgemeester van Lichtenbergstraat,4691JJ,4691JJ,16,16,,,,,Tholen,Tholen,469476.9052365054,6716862.851683107
716200000754002,716200000754002,Burg v Vrijberghestr,Burgemeester van Vrijberghestraat,,,17,17,,,G01,G01,Tholen,Tholen,469390.71753018256,6716900.075624407
716200000754003,716200000754003,Burg v Vrijberghestr,Burgemeester van Vrijberghestraat,,,17,17,,,G02,G02,Tholen,Tholen,469388.37727982725,6716905.926235913
716200000754004,716200000754004,Burg v Vrijberghestr,Burgemeester van Vrijberghestraat,,,17,17,,,G03,G03,Tholen,Tholen,469386.5086338831,6716910.384766572
716200000754007,716200000754007,Burg v Vrijberghestr,Burgemeester van Vrijberghestraat,,,17,17,,,G06,G06,Tholen,Tholen,469380.87137228,6716923.711601158
716200000754008,716200000754008,Burg v Vrijberghestr,Burgemeester van Vrijberghestraat,,,17,17,,,G07,G07,Tholen,Tholen,469379.00297584664,6716928.154055571
716200000754009,716200000754009,Burg v Vrijberghestr,Burgemeester van Vrijberghestraat,,,17,17,,,G08,G08,Tholen,Tholen,469377.13483511884,6716932.580427782
716200000754010,716200000754010,Burg v Vrijberghestr,Burgemeester van Vrijberghestraat,,,17,17,,,G09,G09,Tholen,Tholen,469375.25013446796,6716937.038711882
716200000754011,716200000754011,Burg v Vrijberghestr,Burgemeester van Vrijberghestraat,,,17,17,,,G10,G10,Tholen,Tholen,469373.34938937426,6716941.496739537
716200000754012,716200000754012,Burg v Vrijberghestr,Burgemeester van Vrijberghestraat,,,17,17,,,G11,G11,Tholen,Tholen,469371.4644267929,6716945.9711118005
716200000754013,716200000754013,Burg v Vrijberghestr,Burgemeester van Vrijberghestraat,,,17,17,,,G12,G12,Tholen,Tholen,469369.57997767255,6716950.413317653
716200000753985,716200000753985,Burg v Vrijberghestr,Burgemeester van Vrijberghestraat,4691JE,4691JE,1,1,,,,,Tholen,Tholen,469446.7197782488,6716885.034029104
716200000753986,716200000753986,Burg v Vrijberghestr,Burgemeester van Vrijberghestraat,4691JG,4691JG,2,2,,,,,Tholen,Tholen,469485.0440869021,6716897.717165813
716200000753987,716200000753987,Burg v Vrijberghestr,Burgemeester van Vrijberghestraat,4691JE,4691JE,3,3,,,,,Tholen,Tholen,469443.4043638309,6716894.665771574
716200000753988,716200000753988,Burg v Vrijberghestr,Burgemeester van Vrijberghestraat,4691JG,4691JG,4,4,,,,,Tholen,Tholen,469496.4953110671,6716903.097983798
716200000753989,716200000753989,Burg v Vrijberghestr,Burgemeester van Vrijberghestraat,4691JE,4691JE,5,5,,,,,Tholen,Tholen,469439.36832636554,6716904.205479695
716200000753990,716200000753990,Burg v Vrijberghestr,Burgemeester van Vrijberghestraat,4691JG,4691JG,6,6,,,,,Tholen,Tholen,469506.99765949533,6716907.610839866
716200000753991,716200000753991,Burg v Vrijberghestr,Burgemeester van Vrijberghestraat,4691JE,4691JE,7,7,,,,,Tholen,Tholen,469435.6187222756,6716913.894603808
716200000753992,716200000753992,Burg v Vrijberghestr,Burgemeester van Vrijberghestraat,4691JG,4691JG,8,8,,,,,Tholen,Tholen,469516.84666190256,6716911.839670245
716200000753993,716200000753993,Burg v Vrijberghestr,Burgemeester van Vrijberghestraat,4691JE,4691JE,9,9,,,,,Tholen,Tholen,469431.36271106364,6716923.141198999
716200000753994,716200000753994,Burg v Vrijberghestr,Burgemeester van Vrijberghestraat,4691JG,4691JG,10,10,,,,,Tholen,Tholen,469525.9927854649,6716920.883670576
716200000753995,716200000753995,Burg v Vrijberghestr,Burgemeester van Vrijberghestraat,4691JE,4691JE,11,11,,,,,Tholen,Tholen,469426.67155288876,6716933.506978414
716200000753996,716200000753996,Burg v Vrijberghestr,Burgemeester van Vrijberghestraat,4691JG,4691JG,12,12,,,,,Tholen,Tholen,469536.429716802,6716925.475886764
716200000753997,716200000753997,Burg v Vrijberghestr,Burgemeester van Vrijberghestraat,4691JE,4691JE,13,13,,,,,Tholen,Tholen,469422.9061353102,6716943.179788691
716200000753998,716200000753998,Burg v Vrijberghestr,Burgemeester van Vrijberghestraat,4691JG,4691JG,14,14,,,,,Tholen,Tholen,469547.18227631185,6716929.397460349
716200000753999,716200000753999,Burg v Vrijberghestr,Burgemeester van Vrijberghestraat,4691JE,4691JE,15,15,,,,,Tholen,Tholen,469418.7300484563,6716952.443786122
716200000754000,716200000754000,Burg v Vrijberghestr,Burgemeester van Vrijberghestraat,4691JG,4691JG,16,16,,,,,Tholen,Tholen,469469.4154121649,6716934.758263607
716200000754001,716200000754001,Burg v Vrijberghestr,Burgemeester van Vrijberghestraat,4691JE,4691JE,17,17,,,,,Tholen,Tholen,469415.0851552891,6716961.603727927
716200000754014,716200000754014,Burg v Vrijberghestr,Burgemeester van Vrijberghestraat,4691JG,4691JG,18,18,,,,,Tholen,Tholen,469480.32793378603,6716939.712159573
716200000754015,716200000754015,Burg v Vrijberghestr,Burgemeester van Vrijberghestraat,4691JG,4691JG,20,20,,,,,Tholen,Tholen,469490.5371794839,6716944.493840859
716200000754016,716200000754016,Burg v Vrijberghestr,Burgemeester van Vrijberghestraat,4691JG,4691JG,22,22,,,,,Tholen,Tholen,469499.19681161875,6716952.85436591
716200000754017,716200000754017,Burg v Vrijberghestr,Burgemeester van Vrijberghestraat,4691JG,4691JG,24,24,,,,,Tholen,Tholen,469510.5384008201,6716958.072551094
716200000754018,716200000754018,Burg v Vrijberghestr,Burgemeester van Vrijberghestraat,4691JG,4691JG,26,26,,,,,Tholen,Tholen,469521.07445765275,6716962.489430506
716200000754019,716200000754019,Burg v Vrijberghestr,Burgemeester van Vrijberghestraat,4691JG,4691JG,28,28,,,,,Tholen,Tholen,469531.73543812527,6716966.11997721
716200000754020,716200000754020,Burg v Vrijberghestr,Burgemeester van Vrijberghestraat,4691JG,4691JG,30,30,,,,,Tholen,Tholen,469453.447642477,6716971.922748558
716200000754021,716200000754021,Burg v Vrijberghestr,Burgemeester van Vrijberghestraat,4691JG,4691JG,32,32,,,,,Tholen,Tholen,469464.4088465183,6716976.845295024
716200000754022,716200000754022,Burg v Vrijberghestr,Burgemeester van Vrijberghestraat,4691JG,4691JG,34,34,,,,,Tholen,Tholen,469475.1656330802,6716981.507124147
716200000754023,716200000754023,Burg v Vrijberghestr,Burgemeester van Vrijberghestraat,4691JG,4691JG,36,36,,,,,Tholen,Tholen,469485.45720071864,6716986.161453422
716200000754024,716200000754024,Burg v Vrijberghestr,Burgemeester van Vrijberghestraat,4691JG,4691JG,38,38,,,,,Tholen,Tholen,469494.24701426766,6716994.411502187
716200000754025,716200000754025,Burg v Vrijberghestr,Burgemeester van Vrijberghestraat,4691JG,4691JG,40,40,,,,,Tholen,Tholen,469504.9544263291,6716999.152948883
716200000754026,716200000754026,Burg v Vrijberghestr,Burgemeester van Vrijberghestraat,4691JG,4691JG,42,42,,,,,Tholen,Tholen,469516.0652306842,6717003.756079228
716200000755383,716200000755383,Edisonweg,Linie,4691RB,,1,1,,,G02,G02,Tholen,Tholen,470196.51298417646,6716521.6769307405
716200000757361,716200000757361,Jonkheer v Vredenburchln,Jonkheer van Vredenburchlaan,4691LE,4691LE,19,19,,,,,Tholen,Tholen,469299.1492010507,6715213.463800295
716200000757362,716200000757362,Jonkheer v Vredenburchln,Jonkheer van Vredenburchlaan,4691LE,4691LE,21,21,,,,,Tholen,Tholen,469272.8354382807,6715227.660868874
716200000757363,716200000757363,Jonkheer v Vredenburchln,Jonkheer van Vredenburchlaan,4691LE,4691LE,23,23,,,,,Tholen,Tholen,469263.7430774147,6715231.406850711
716200000757364,716200000757364,Jonkheer v Vredenburchln,Jonkheer van Vredenburchlaan,4691LE,4691LE,25,25,,,,,Tholen,Tholen,469240.03825874056,6715242.975794831
716200000757365,716200000757365,Jonkheer v Vredenburchln,Jonkheer van Vredenburchlaan,4691LE,4691LE,27,27,,,,,Tholen,Tholen,469231.9061430573,6715246.865912391
716200000757366,716200000757366,Jonkheer v Vredenburchln,Jonkheer van Vredenburchlaan,4691LE,4691LE,29,29,,,,,Tholen,Tholen,469210.4976132786,6715257.297614985
716200000757367,716200000757367,Jonkheer v Vredenburchln,Jonkheer van Vredenburchlaan,4691LE,4691LE,31,31,,,,,Tholen,Tholen,469203.3585998891,6715261.284153659
716200000757368,716200000757368,Jonkheer v Vredenburchln,Jonkheer van Vredenburchlaan,4691LE,4691LE,33,33,,,,,Tholen,Tholen,469182.09512162104,6715271.669884758
716200000757369,716200000757369,Jonkheer v Vredenburchln,Jonkheer van Vredenburchlaan,4691LE,4691LE,35,35,,,,,Tholen,Tholen,469174.6940367653,6715275.98996417
716200000757370,716200000757370,Jonkheer v Vredenburchln,Jonkheer van Vredenburchlaan,4691LE,4691LE,37,37,,,,,Tholen,Tholen,469153.96364572254,6715286.142964808
716200000757371,716200000757371,Jonkheer v Vredenburchln,Jonkheer van Vredenburchlaan,4691LE,4691LE,39,39,,,,,Tholen,Tholen,469146.2427834142,6715290.393525873
716200000757372,716200000757372,Jonkheer v Vredenburchln,Jonkheer van Vredenburchlaan,4691LG,4691LG,47,47,,,,,Tholen,Tholen,469053.94267206296,6715344.526049446
716200000757373,716200000757373,Jonkheer v Vredenburchln,Jonkheer van Vredenburchlaan,4691LG,4691LG,49,49,,,,,Tholen,Tholen,469045.9327817239,6715350.782531822
716200000757374,716200000757374,Jonkheer v Vredenburchln,Jonkheer van Vredenburchlaan,4691LG,4691LG,51,51,,,,,Tholen,Tholen,469029.5146063903,6715365.122771607
716200000757375,716200000757375,Jonkheer v Vredenburchln,Jonkheer van Vredenburchlaan,4691LG,4691LG,53,53,,,,,Tholen,Tholen,469021.2741843417,6715371.7454835
716200000757376,716200000757376,Jonkheer v Vredenburchln,Jonkheer van Vredenburchlaan,4691LG,4691LG,55,55,,,,,Tholen,Tholen,469003.6754936536,6715386.661796431
716200000757377,716200000757377,Jonkheer v Vredenburchln,Jonkheer van Vredenburchlaan,4691LG,4691LG,57,57,,,,,Tholen,Tholen,468995.53929198167,6715393.784828244
716200000757378,716200000757378,Jonkheer v Vredenburchln,Jonkheer van Vredenburchlaan,4691LG,4691LG,59,59,,,,,Tholen,Tholen,468961.8967439666,6715427.679968688
716200000757379,716200000757379,Jonkheer v Vredenburchln,Jonkheer van Vredenburchlaan,4691LG,4691LG,61,61,,,,,Tholen,Tholen,468938.03190188145,6715448.140962193
716200000757380,716200000757380,Jonkheer v Vredenburchln,Jonkheer van Vredenburchlaan,4691LG,4691LG,63,63,,,,,Tholen,Tholen,468896.339414335,6715484.753080082
716200000757381,716200000757381,Jonkheer v Vredenburchln,Jonkheer van Vredenburchlaan,4691LG,4691LG,67,67,,,,,Tholen,Tholen,468885.2989344389,6715540.761385832
716200000757382,716200000757382,Jonkheer v Vredenburchln,Jonkheer van Vredenburchlaan,4691LG,4691LG,69,69,,,,,Tholen,Tholen,468884.6283945355,6715550.5305953175
716200000757383,716200000757383,Jonkheer v Vredenburchln,Jonkheer van Vredenburchlaan,4691LG,4691LG,71,71,,,,,Tholen,Tholen,468884.1552432431,6715559.99738092
716200000757384,716200000757384,Jonkheer v Vredenburchln,Jonkheer van Vredenburchlaan,4691LG,4691LG,73,73,,,,,Tholen,Tholen,468887.13811689755,6715570.050885208
716200000757385,716200000757385,Jonkheer v Vredenburchln,Jonkheer van Vredenburchlaan,4691LG,4691LG,75,75,,,,,Tholen,Tholen,468890.1939510803,6715579.558667285
716200000757386,716200000757386,Jonkheer v Vredenburchln,Jonkheer van Vredenburchlaan,4691LG,4691LG,77,77,,,,,Tholen,Tholen,468892.0843276833,6715588.70981614
716200000757387,716200000757387,Jonkheer v Vredenburchln,Jonkheer van Vredenburchlaan,4691LG,4691LG,79,79,,,,,Tholen,Tholen,468895.7263978667,6715597.68018186
716200000757388,716200000757388,Jonkheer v Vredenburchln,Jonkheer van Vredenburchlaan,4691LG,4691LG,81,81,,,,,Tholen,Tholen,468898.42653347197,6715607.359184893
716200000757389,716200000757389,Jonkheer v Vredenburchln,Jonkheer van Vredenburchlaan,4691LG,4691LG,83,83,,,,,Tholen,Tholen,468900.54277514335,6715616.433585643
716200000757390,716200000757390,Jonkheer v Vredenburchln,Jonkheer van Vredenburchlaan,4691LG,4691LG,85,85,,,,,Tholen,Tholen,468904.2029757942,6715625.275584716
716200000757391,716200000757391,Jonkheer v Vredenburchln,Jonkheer van Vredenburchlaan,4691LG,4691LG,87,87,,,,,Tholen,Tholen,468907.48625211377,6715634.61015742
716200000758260,716200000758260,Kon Wilhelminastraat,Koningin Wilhelminastraat,,,1,1,,,G01,G01,Tholen,Tholen,470142.4455573415,6716694.509872065
716200000758261,716200000758261,Kon Wilhelminastraat,Koningin Wilhelminastraat,,,1,1,,,G02,G02,Tholen,Tholen,470146.4290311465,6716697.276422381
716200000758262,716200000758262,Kon Wilhelminastraat,Koningin Wilhelminastraat,,,1,1,,,G03,G03,Tholen,Tholen,470150.41225144913,6716700.059055434
716200000758263,716200000758263,Kon Wilhelminastraat,Koningin Wilhelminastraat,,,1,1,,,G04,G04,Tholen,Tholen,470154.3639030473,6716702.809006216
716200000758264,716200000758264,Kon Wilhelminastraat,Koningin Wilhelminastraat,,,1,1,,,G05,G05,Tholen,Tholen,470158.34738498746,6716705.575553513
716200000758265,716200000758265,Kon Wilhelminastraat,Koningin Wilhelminastraat,,,1,1,,,G06,G06,Tholen,Tholen,470162.314827704,6716708.341842934
716200000758266,716200000758266,Kon Wilhelminastraat,Koningin Wilhelminastraat,,,1,1,,,G07,G07,Tholen,Tholen,470166.29831506993,6716711.108388208
716200000758259,716200000758259,Koningin Wilhelminastr,Koningin Wilhelminastraat,4691GE,4691GE,1,1,,,,,Tholen,Tholen,470157.8353375137,6716723.61795998
716200000758267,716200000758267,Koningin Wilhelminastr,Koningin Wilhelminastraat,4691GE,4691GE,3,3,,,,,Tholen,Tholen,470151.6743244606,6716732.64114955
716200000758268,716200000758268,Koningin Wilhelminastr,Koningin Wilhelminastraat,4691GG,4691GG,4,4,,,,,Tholen,Tholen,470197.83287054044,6716740.0727451295
716200000758269,716200000758269,Koningin Wilhelminastr,Koningin Wilhelminastraat,4691GE,4691GE,5,5,,,,,Tholen,Tholen,470028.0453290008,6716899.311885659
716200000758270,716200000758270,Koningin Wilhelminastr,Koningin Wilhelminastraat,4691GG,4691GG,6,6,,,,,Tholen,Tholen,470191.0988255548,6716747.799773688
716200000758271,716200000758271,Koningin Wilhelminastr,Koningin Wilhelminastraat,4691GE,4691GE,7,7,,,,,Tholen,Tholen,470021.79599175544,6716907.81893305
716200000758272,716200000758272,Koningin Wilhelminastr,Koningin Wilhelminastraat,4691GG,4691GG,8,8,,,,,Tholen,Tholen,470176.7619614474,6716762.3872642815
716200000758273,716200000758273,Koningin Wilhelminastr,Koningin Wilhelminastraat,4691GE,4691GE,9,9,,,,,Tholen,Tholen,470015.3339870466,6716916.579988044
716200000758274,716200000758274,Koningin Wilhelminastr,Koningin Wilhelminastraat,4691GG,4691GG,10,10,,,,,Tholen,Tholen,470171.35911285545,6716770.1516985325
716200000758275,716200000758275,Koningin Wilhelminastr,Koningin Wilhelminastraat,4691GE,4691GE,11,11,,,,,Tholen,Tholen,470009.51340632146,6716925.367418413
716200000758276,716200000758276,Koningin Wilhelminastr,Koningin Wilhelminastraat,4691GG,4691GG,12,12,,,,,Tholen,Tholen,470166.27478975,6716778.066028828
716200000758277,716200000758277,Koningin Wilhelminastr,Koningin Wilhelminastraat,4691GE,4691GE,13,13,,,,,Tholen,Tholen,470001.2713409004,6716937.076284581
716200000758278,716200000758278,Koningin Wilhelminastr,Koningin Wilhelminastraat,4691GG,4691GG,14,14,,,,,Tholen,Tholen,470161.0465902962,6716785.945883882
716200000758279,716200000758279,Koningin Wilhelminastr,Koningin Wilhelminastraat,4691GE,4691GE,15,15,,,,,Tholen,Tholen,469995.2623259973,6716945.6032925965
716200000758280,716200000758280,Koningin Wilhelminastr,Koningin Wilhelminastraat,4691GG,4691GG,16,16,,,,,Tholen,Tholen,470157.7540437804,6716823.410520834
716200000758281,716200000758281,Koningin Wilhelminastr,Koningin Wilhelminastraat,4691GE,4691GE,17,17,,,,,Tholen,Tholen,469989.3617471834,6716954.37336918
716200000758282,716200000758282,Koningin Wilhelminastr,Koningin Wilhelminastraat,4691GG,4691GG,18,18,,,,,Tholen,Tholen,470152.3322756727,6716831.351667303
716200000758283,716200000758283,Koningin Wilhelminastr,Koningin Wilhelminastraat,4691GE,4691GE,19,19,,,,,Tholen,Tholen,469983.347062661,6716963.254240053
716200000758284,716200000758284,Kon Wilhelminastraat,Koningin Wilhelminastraat,4691GG,4691GG,20,20,,,,,Tholen,Tholen,470141.19507920503,6716847.534944732
716200000758285,716200000758285,Koningin Wilhelminastr,Koningin Wilhelminastraat,4691GE,4691GE,21,21,,,,,Tholen,Tholen,469974.79446964804,6716975.312100097
716200000758286,716200000758286,Kon Wilhelminastraat,Koningin Wilhelminastraat,4691GG,4691GG,22,22,,,,,Tholen,Tholen,470135.6775379172,6716855.442393724
716200000758287,716200000758287,Koningin Wilhelminastr,Koningin Wilhelminastraat,4691GE,4691GE,23,23,,,,,Tholen,Tholen,469968.8994920672,6716983.728338735
716200000758288,716200000758288,Koningin Wilhelminastr,Koningin Wilhelminastraat,4691GG,4691GG,24,24,,,,,Tholen,Tholen,470124.9601929659,6716871.455451166
716200000758289,716200000758289,Koningin Wilhelminastr,Koningin Wilhelminastraat,4691GE,4691GE,25,25,,,,,Tholen,Tholen,469962.8857898046,6716992.5448887935
716200000758290,716200000758290,Koningin Wilhelminastr,Koningin Wilhelminastraat,4691GG,4691GG,26,26,,,,,Tholen,Tholen,470119.58930664905,6716879.22046773
716200000758291,716200000758291,Koningin Wilhelminastr,Koningin Wilhelminastraat,4691GE,4691GE,27,27,,,,,Tholen,Tholen,469956.6650615455,6717001.261593129
716200000758292,716200000758292,Koningin Wilhelminastr,Koningin Wilhelminastraat,4691GG,4691GG,28,28,,,,,Tholen,Tholen,470107.9292471734,6716894.977126445
716200000758293,716200000758293,Koningin Wilhelminastr,Koningin Wilhelminastraat,4691GG,4691GG,30,30,,,,,Tholen,Tholen,470102.4631003662,6716902.6762753595
716200000758294,716200000758294,Koningin Wilhelminastr,Koningin Wilhelminastraat,4691GG,4691GG,32,32,,,,,Tholen,Tholen,470054.18937098223,6716944.327649602
716200000758295,716200000758295,Koningin Wilhelminastr,Koningin Wilhelminastraat,4691GG,4691GG,34,34,,,,,Tholen,Tholen,470047.76678042434,6716953.636405328
716200000758296,716200000758296,Koningin Wilhelminastr,Koningin Wilhelminastraat,4691GG,4691GG,36,36,,,,,Tholen,Tholen,470040.1506236742,6716963.328246653
716200000758297,716200000758297,Koningin Wilhelminastr,Koningin Wilhelminastraat,4691GG,4691GG,38,38,,,,,Tholen,Tholen,470034.05540454993,6716973.237530927
716200000758298,716200000758298,Koningin Wilhelminastr,Koningin Wilhelminastraat,4691GG,4691GG,40,40,,,,,Tholen,Tholen,470021.03327157354,6716981.813070727
716200000758299,716200000758299,Koningin Wilhelminastr,Koningin Wilhelminastraat,4691GG,4691GG,42,42,,,,,Tholen,Tholen,470014.4314414226,6716990.282371897
716200000758300,716200000758300,Koningin Wilhelminastr,Koningin Wilhelminastraat,4691GG,4691GG,44,44,,,,,Tholen,Tholen,470008.41829650063,6716999.066794419
716200000758301,716200000758301,Koningin Wilhelminastr,Koningin Wilhelminastraat,4691GG,4691GG,46,46,,,,,Tholen,Tholen,470002.31119213405,6717007.70491953
716200000758302,716200000758302,Koningin Wilhelminastr,Koningin Wilhelminastraat,4691GG,4691GG,48,48,,,,,Tholen,Tholen,469996.44343019003,6717016.427329007
716200000758303,716200000758303,Koningin Wilhelminastr,Koningin Wilhelminastraat,4691GG,4691GG,50,50,,,,,Tholen,Tholen,469990.6212178295,6717025.311358975
716200000759267,716200000759267,Maria van Vlaanderenstr,Maria van Vlaanderenstraat,4691JC,4691JC,1,1,,,,,Tholen,Tholen,469652.94144107436,6717185.474639893
716200000759268,716200000759268,Maria van Vlaanderenstr,Maria van Vlaanderenstraat,4691JC,4691JC,2,2,,,,,Tholen,Tholen,469656.5311311659,6717241.972125815
716200000759269,716200000759269,Maria van Vlaanderenstr,Maria van Vlaanderenstraat,4691JC,4691JC,3,3,,,,,Tholen,Tholen,469643.37952144636,6717181.330897443
716200000759270,716200000759270,Maria van Vlaanderenstr,Maria van Vlaanderenstraat,4691JC,4691JC,4,4,,,,,Tholen,Tholen,469646.7822870442,6717237.471398393
716200000759271,716200000759271,Maria van Vlaanderenstr,Maria van Vlaanderenstraat,4691JC,4691JC,5,5,,,,,Tholen,Tholen,469633.7855259247,6717177.18662999
716200000759272,716200000759272,Maria van Vlaanderenstr,Maria van Vlaanderenstraat,4691JC,4691JC,6,6,,,,,Tholen,Tholen,469631.9926338442,6717222.0617848225
716200000759273,716200000759273,Maria van Vlaanderenstr,Maria van Vlaanderenstraat,4691JC,4691JC,7,7,,,,,Tholen,Tholen,469619.864151117,6717167.695649047
716200000759274,716200000759274,Maria van Vlaanderenstr,Maria van Vlaanderenstraat,4691JC,4691JC,8,8,,,,,Tholen,Tholen,469621.6158377705,6717217.695741451
716200000759275,716200000759275,Maria van Vlaanderenstr,Maria van Vlaanderenstraat,4691JC,4691JC,9,9,,,,,Tholen,Tholen,469610.30201209435,6717163.567961347
716200000759276,716200000759276,Maria van Vlaanderenstr,Maria van Vlaanderenstraat,4691JC,4691JC,10,10,,,,,Tholen,Tholen,469604.5695656863,6717209.94030607
716200000759277,716200000759277,Maria van Vlaanderenstr,Maria van Vlaanderenstraat,4691JC,4691JC,11,11,,,,,Tholen,Tholen,469600.7398828251,6717159.440264476
716200000759278,716200000759278,Maria van Vlaanderenstr,Maria van Vlaanderenstraat,4691JC,4691JC,12,12,,,,,Tholen,Tholen,469592.4425801836,6717205.642619218
716200000759279,716200000759279,Maria van Vlaanderenstr,Maria van Vlaanderenstraat,4691JC,4691JC,13,13,,,,,Tholen,Tholen,469591.1938061064,6717155.312816452
716200000759280,716200000759280,Maria van Vlaanderenstr,Maria van Vlaanderenstraat,4691JC,4691JC,14,14,,,,,Tholen,Tholen,469579.05413894594,6717200.954583043
716200000759281,716200000759281,Maria van Vlaanderenstr,Maria van Vlaanderenstraat,4691JC,4691JC,16,16,,,,,Tholen,Tholen,469564.67860824737,6717193.7729670815
716200000759282,716200000759282,Maria van Vlaanderenstr,Maria van Vlaanderenstraat,4691JC,4691JC,18,18,,,,,Tholen,Tholen,469548.8106024657,6717186.59949829
716200000759283,716200000759283,Maria van Vlaanderenstr,Maria van Vlaanderenstraat,4691JC,4691JC,20,20,,,,,Tholen,Tholen,469539.1167881462,6717182.67875297
716200000759284,716200000759284,Maria van Vlaanderenstr,Maria van Vlaanderenstraat,4691JC,4691JC,22,22,,,,,Tholen,Tholen,469510.1009132209,6717174.843180369
716200000754289,716200000754289,Burgemeester v Doornstr,Burgemeester van Doornstraat,,,2,2,,,G06,G06,Poortvliet,Poortvliet,460903.19010150706,6718002.523951612
716200000754282,716200000754282,Burgemeester v Doornstr,Burgemeester van Doornstraat,4693EL,4693EL,1,1,,,,,Poortvliet,Poortvliet,460840.0804360716,6717976.5487249615
716200000754283,716200000754283,Burgemeester v Doornstr,Burgemeester van Doornstraat,4693EM,4693EM,2,2,,,,,Poortvliet,Poortvliet,460854.7721630842,6718068.244176467
716200000754299,716200000754299,Burgemeester v Doornstr,Burgemeester van Doornstraat,4693EL,4693EL,3,3,,,,,Poortvliet,Poortvliet,460827.81363384955,6717999.428163723
716200000754300,716200000754300,Burgemeester v Doornstr,Burgemeester van Doornstraat,4693EM,4693EM,4,4,,,,,Poortvliet,Poortvliet,460852.43090755405,6718080.352523843
716200000754301,716200000754301,Burgemeester v Doornstr,Burgemeester van Doornstraat,4693EL,4693EL,5,5,,,,,Poortvliet,Poortvliet,460816.75935955823,6718018.965516677
716200000754302,716200000754302,Burgemeester v Doornstr,Burgemeester van Doornstraat,4693EM,4693EM,6,6,,,,,Poortvliet,Poortvliet,460849.89288039645,6718091.765606428
716200000754303,716200000754303,Burgemeester v Doornstr,Burgemeester van Doornstraat,4693EL,4693EL,7,7,,,,,Poortvliet,Poortvliet,460806.4943436248,6718060.882559635
716200000754304,716200000754304,Burgemeester v Doornstr,Burgemeester van Doornstraat,4693EM,4693EM,8,8,,,,,Poortvliet,Poortvliet,460847.642980979,6718102.282563504
716200000754305,716200000754305,Burgemeester v Doornstr,Burgemeester van Doornstraat,4693EL,4693EL,9,9,,,,,Poortvliet,Poortvliet,460802.78701207024,6718070.28026919
716200000754306,716200000754306,Burgemeester v Doornstr,Burgemeester van Doornstraat,4693EM,4693EM,10,10,,,,,Poortvliet,Poortvliet,460844.92680456035,6718113.789162542
716200000754307,716200000754307,Burgemeester v Doornstr,Burgemeester van Doornstraat,4693EL,4693EL,11,11,,,,,Poortvliet,Poortvliet,460798.37015312543,6718079.874985087
716200000754308,716200000754308,Burgemeester v Doornstr,Burgemeester van Doornstraat,4693EM,4693EM,12,12,,,,,Poortvliet,Poortvliet,460817.0843153221,6718122.096807367
716200000754309,716200000754309,Burgemeester v Doornstr,Burgemeester van Doornstraat,4693EL,4693EL,13,13,,,,,Poortvliet,Poortvliet,460794.03037559625,6718088.714765855
716200000754310,716200000754310,Burgemeester v Doornstr,Burgemeester van Doornstraat,4693EM,4693EM,14,14,,,,,Poortvliet,Poortvliet,460814.1249509782,6718133.744067396
716200000754311,716200000754311,Burgemeester v Doornstr,Burgemeester van Doornstraat,4693EL,4693EL,15,15,,,,,Poortvliet,Poortvliet,460790.0875736661,6718097.802733023
716200000754312,716200000754312,Burgemeester v Doornstr,Burgemeester van Doornstraat,4693EM,4693EM,16,16,,,,,Poortvliet,Poortvliet,460811.67267874256,6718145.770140358
716200000754313,716200000754313,Burgemeester v Doornstr,Burgemeester van Doornstraat,4693EL,4693EL,17,17,,,,,Poortvliet,Poortvliet,460779.77175057586,6718110.739613809
716200000754314,716200000754314,Burgemeester v Doornstr,Burgemeester van Doornstraat,4693EM,4693EM,18,18,,,,,Poortvliet,Poortvliet,460792.1155794705,6718190.472928065
716200000754315,716200000754315,Burgemeester v Doornstr,Burgemeester van Doornstraat,4693EL,4693EL,19,19,,,,,Poortvliet,Poortvliet,460774.95455871953,6718120.279217464
716200000754316,716200000754316,Burgemeester v Doornstr,Burgemeester van Doornstraat,4693EM,4693EM,20,20,,,,,Poortvliet,Poortvliet,460782.0075917671,6718185.60078084
716200000754317,716200000754317,Burgemeester v Doornstr,Burgemeester van Doornstraat,4693EL,4693EL,21,21,,,,,Poortvliet,Poortvliet,460770.7884068152,6718131.165553977
716200000754318,716200000754318,Burgemeester v Doornstr,Burgemeester van Doornstraat,4693EM,4693EM,22,22,,,,,Poortvliet,Poortvliet,460771.55498765584,6718181.17325281
716200000754319,716200000754319,Burgemeester v Doornstr,Burgemeester van Doornstraat,4693EL,4693EL,23,23,,,,,Poortvliet,Poortvliet,460766.04279038636,6718140.271951281
716200000754320,716200000754320,Burgemeester v Doornstr,Burgemeester van Doornstraat,4693EM,4693EM,24,24,,,,,Poortvliet,Poortvliet,460761.337736289,6718176.1222078
716200000754321,716200000754321,Burgemeester v Doornstr,Burgemeester van Doornstraat,4693EM,4693EM,26,26,,,,,Poortvliet,Poortvliet,460750.4316870427,6718170.994957755
716200000753967,716200000753967,Burg v Oeverenstr,Burgemeester van Oeverenstraat,4693EB,4693EB,1,1,,,,,Poortvliet,Poortvliet,461126.98157555924,6717951.2503751125
716200000753968,716200000753968,Burg v Oeverenstr,Burgemeester van Oeverenstraat,4693EC,4693EC,2,2,,,,,Poortvliet,Poortvliet,461144.146661795,6717982.743978066
716200000753969,716200000753969,Burg v Oeverenstr,Burgemeester van Oeverenstraat,4693EB,4693EB,3,3,,,,,Poortvliet,Poortvliet,461112.58640616684,6717971.937569879
716200000753970,716200000753970,Burg v Oeverenstr,Burgemeester van Oeverenstraat,4693EC,4693EC,4,4,,,,,Poortvliet,Poortvliet,461117.51083398744,6718009.754391887
716200000753971,716200000753971,Burg v Oeverenstr,Burgemeester van Oeverenstraat,4693EC,4693EC,6,6,,,,,Poortvliet,Poortvliet,461111.4078128046,6718017.550344632
716200000753972,716200000753972,Burg v Oeverenstr,Burgemeester van Oeverenstraat,4693EB,4693EB,7,7,,,,,Poortvliet,Poortvliet,461076.71020269336,6717996.842540436
716200000753973,716200000753973,Burg v Oeverenstr,Burgemeester van Oeverenstraat,4693EC,4693EC,8,8,,,,,Poortvliet,Poortvliet,461098.9329742958,6718035.728254239
716200000753974,716200000753974,Burg v Oeverenstr,Burgemeester van Oeverenstraat,4693EB,4693EB,9,9,,,,,Poortvliet,Poortvliet,461067.3148522367,6718033.014220211
716200000753975,716200000753975,Burg v Oeverenstr,Burgemeester van Oeverenstraat,4693EC,4693EC,10,10,,,,,Poortvliet,Poortvliet,461093.3076849992,6718045.624195691
716200000753976,716200000753976,Burg v Oeverenstr,Burgemeester van Oeverenstraat,4693EB,4693EB,11,11,,,,,Poortvliet,Poortvliet,461063.6005648466,6718040.014379851
716200000753977,716200000753977,Burg v Oeverenstr,Burgemeester van Oeverenstraat,4693EC,4693EC,12,12,,,,,Poortvliet,Poortvliet,461090.4919269725,6718062.052852308
716200000753978,716200000753978,Burg v Oeverenstr,Burgemeester van Oeverenstraat,4693EB,4693EB,13,13,,,,,Poortvliet,Poortvliet,461060.1704041223,6718047.292955432
716200000753979,716200000753979,Burg v Oeverenstr,Burgemeester van Oeverenstraat,4693EC,4693EC,14,14,,,,,Poortvliet,Poortvliet,461088.5950388977,6718070.70935486
716200000753980,716200000753980,Burg v Oeverenstr,Burgemeester van Oeverenstraat,4693EB,4693EB,15,15,,,,,Poortvliet,Poortvliet,461055.04517148103,6718060.801780027
716200000753981,716200000753981,Burg v Oeverenstr,Burgemeester van Oeverenstraat,4693EC,4693EC,16,16,,,,,Poortvliet,Poortvliet,461082.65598527686,6718089.594705479
716200000753982,716200000753982,Burg v Oeverenstr,Burgemeester van Oeverenstraat,4693EB,4693EB,17,17,,,,,Poortvliet,Poortvliet,461052.7745660153,6718069.725411031
716200000753983,716200000753983,Burg v Oeverenstr,Burgemeester van Oeverenstraat,4693EB,4693EB,19,19,,,,,Poortvliet,Poortvliet,461050.24724748003,6718078.644651251
716200000753984,716200000753984,Burg v Oeverenstr,Burgemeester van Oeverenstraat,4693EB,4693EB,21,21,,,,,Poortvliet,Poortvliet,461047.8463575406,6718087.678703011
716200000754165,716200000754165,Burgemeester Bouwensestr,Burgemeester Bouwensestraat,4694EH,4694EH,1,1,,,,,Scherpenisse,Scherpenisse,456584.06360269367,6718380.790035796
716200000754166,716200000754166,Burgemeester Bouwensestr,Burgemeester Bouwensestraat,4694EH,4694EH,3,3,,,,,Scherpenisse,Scherpenisse,456621.3199178168,6718377.764143517
716200000754167,716200000754167,Burgemeester Bouwensestr,Burgemeester Bouwensestraat,4694EJ,4694EJ,4,4,,,,,Scherpenisse,Scherpenisse,456535.1382142132,6718319.147018048
716200000754168,716200000754168,Burgemeester Bouwensestr,Burgemeester Bouwensestraat,4694EH,4694EH,5,5,,,,,Scherpenisse,Scherpenisse,456589.9397981961,6718317.751285421
716200000754169,716200000754169,Burgemeester Bouwensestr,Burgemeester Bouwensestraat,4694EJ,4694EJ,6,6,,,,,Scherpenisse,Scherpenisse,456520.0354395774,6718314.599414385
716200000754170,716200000754170,Burgemeester Bouwensestr,Burgemeester Bouwensestraat,4694EH,4694EH,7,7,,,,,Scherpenisse,Scherpenisse,456591.54565002426,6718309.49265263
716200000754171,716200000754171,Burgemeester Bouwensestr,Burgemeester Bouwensestraat,4694EJ,4694EJ,8,8,,,,,Scherpenisse,Scherpenisse,456505.7490710216,6718309.261669737
716200000754172,716200000754172,Burgemeester Bouwensestr,Burgemeester Bouwensestraat,4694EH,4694EH,9,9,,,,,Scherpenisse,Scherpenisse,456592.5499254564,6718301.6739424225
716200000754173,716200000754173,Burgemeester Bouwensestr,Burgemeester Bouwensestraat,4694EJ,4694EJ,10,10,,,,,Scherpenisse,Scherpenisse,456491.096247782,6718303.772593639
716200000754174,716200000754174,Burgemeester Bouwensestr,Burgemeester Bouwensestraat,4694EH,4694EH,11,11,,,,,Scherpenisse,Scherpenisse,456593.66311302886,6718294.050262014
716200000754175,716200000754175,Burgemeester Bouwensestr,Burgemeester Bouwensestraat,4694EJ,4694EJ,12,12,,,,,Scherpenisse,Scherpenisse,456476.6548560235,6718298.1263247365
716200000754176,716200000754176,Burgemeester Bouwensestr,Burgemeester Bouwensestraat,4694EH,4694EH,13,13,,,,,Scherpenisse,Scherpenisse,456594.88332301524,6718285.817012857
716200000754177,716200000754177,Burgemeester Bouwensestr,Burgemeester Bouwensestraat,4694EJ,4694EJ,14,14,,,,,Scherpenisse,Scherpenisse,456461.07932050317,6718293.087512209
716200000754178,716200000754178,Burgemeester Bouwensestr,Burgemeester Bouwensestraat,4694EH,4694EH,15,15,,,,,Scherpenisse,Scherpenisse,456595.68750732066,6718277.512047049
716200000754180,716200000754180,Burgemeester Bouwensestr,Burgemeester Bouwensestraat,4694EH,4694EH,17,17,,,,,Scherpenisse,Scherpenisse,456593.799850612,6718328.230685395
716200000754183,716200000754183,Burgemeester Bouwensestr,Burgemeester Bouwensestraat,4694EH,4694EH,19,19,,,,,Scherpenisse,Scherpenisse,456597.5453767113,6718318.770858779
716200000754184,716200000754184,Burgemeester Bouwensestr,Burgemeester Bouwensestraat,4694EJ,4694EJ,20,20,,,,,Scherpenisse,Scherpenisse,456497.9208545926,6718250.711746816
716200000754185,716200000754185,Burgemeester Bouwensestr,Burgemeester Bouwensestraat,4694EH,4694EH,21,21,,,,,Scherpenisse,Scherpenisse,456598.8556256402,6718310.893186383
716200000754186,716200000754186,Burgemeester Bouwensestr,Burgemeester Bouwensestraat,4694EJ,4694EJ,22,22,,,,,Scherpenisse,Scherpenisse,456500.98994002305,6718242.302098431
716200000754187,716200000754187,Burgemeester Bouwensestr,Burgemeester Bouwensestraat,4694EH,4694EH,23,23,,,,,Scherpenisse,Scherpenisse,456600.0142028253,6718302.51400733
716200000754188,716200000754188,Burgemeester Bouwensestr,Burgemeester Bouwensestraat,4694EJ,4694EJ,24,24,,,,,Scherpenisse,Scherpenisse,456503.635350482,6718234.255055136
716200000754189,716200000754189,Burgemeester Bouwensestr,Burgemeester Bouwensestraat,4694EH,4694EH,25,25,,,,,Scherpenisse,Scherpenisse,456601.1952415714,6718294.682338481
716200000754190,716200000754190,Burgemeester Bouwensestr,Burgemeester Bouwensestraat,4694EJ,4694EJ,26,26,,,,,Scherpenisse,Scherpenisse,456506.44969719707,6718225.728274182
716200000754191,716200000754191,Burgemeester Bouwensestr,Burgemeester Bouwensestraat,4694EH,4694EH,27,27,,,,,Scherpenisse,Scherpenisse,456602.4235621383,6718286.899787262
716200000754193,716200000754193,Burgemeester Bouwensestr,Burgemeester Bouwensestraat,4694EH,4694EH,29,29,,,,,Scherpenisse,Scherpenisse,456603.0912651511,6718278.1418497
716200000754195,716200000754195,Burgemeester Bouwensestr,Burgemeester Bouwensestraat,4694EH,4694EH,31,31,,,,,Scherpenisse,Scherpenisse,456601.7792741018,6718269.702909008
716200000754196,716200000754196,Burgemeester Bouwensestr,Burgemeester Bouwensestraat,4694EH,4694EH,33,33,,,,,Scherpenisse,Scherpenisse,456628.3283072378,6718188.332785646
716200000754197,716200000754197,Burgemeester Bouwensestr,Burgemeester Bouwensestraat,4694EH,4694EH,35,35,,,,,Scherpenisse,Scherpenisse,456631.4375303132,6718179.457222479
716200000754198,716200000754198,Burgemeester Bouwensestr,Burgemeester Bouwensestraat,4694EJ,4694EJ,36,36,,,,,Scherpenisse,Scherpenisse,456566.6273837762,6718236.174448559
716200000754199,716200000754199,Burgemeester Bouwensestr,Burgemeester Bouwensestraat,4694EH,4694EH,37,37,,,,,Scherpenisse,Scherpenisse,456634.6686787168,6718170.036728101
716200000754200,716200000754200,Burgemeester Bouwensestr,Burgemeester Bouwensestraat,4694EJ,4694EJ,38,38,,,,,Scherpenisse,Scherpenisse,456570.03332396323,6718227.770750205
716200000754201,716200000754201,Burgemeester Bouwensestr,Burgemeester Bouwensestraat,4694EH,4694EH,39,39,,,,,Scherpenisse,Scherpenisse,456637.7545726153,6718160.661947631
716200000754202,716200000754202,Burgemeester Bouwensestr,Burgemeester Bouwensestraat,4694EJ,4694EJ,40,40,,,,,Scherpenisse,Scherpenisse,456572.66686418204,6718219.482122113
716200000754203,716200000754203,Burgemeester Bouwensestr,Burgemeester Bouwensestraat,4694EH,4694EH,41,41,,,,,Scherpenisse,Scherpenisse,456640.4151031307,6718151.746294006
716200000754204,716200000754204,Burgemeester Bouwensestr,Burgemeester Bouwensestraat,4694EJ,4694EJ,42,42,,,,,Scherpenisse,Scherpenisse,456575.2921880897,6718211.659999414
716200000754205,716200000754205,Burgemeester Bouwensestr,Burgemeester Bouwensestraat,4694EH,4694EH,43,43,,,,,Scherpenisse,Scherpenisse,456644.13878862065,6718142.608085611
716200000754206,716200000754206,Burgemeester Bouwensestr,Burgemeester Bouwensestraat,4694EJ,4694EJ,44,44,,,,,Scherpenisse,Scherpenisse,456578.10815061897,6718203.036699948
716200000754207,716200000754207,Burgemeester Bouwensestr,Burgemeester Bouwensestraat,4694EJ,4694EJ,54,54,,,,,Scherpenisse,Scherpenisse,456592.1758728918,6718153.306696217
716200000754208,716200000754208,Burgemeester Bouwensestr,Burgemeester Bouwensestraat,4694EJ,4694EJ,56,56,,,,,Scherpenisse,Scherpenisse,456579.79078690417,6718148.469459535
716200000754209,716200000754209,Burgemeester Bouwensestr,Burgemeester Bouwensestraat,4694EJ,4694EJ,58,58,,,,,Scherpenisse,Scherpenisse,456558.59690626245,6718138.037579759
716200000754210,716200000754210,Burgemeester Bouwensestr,Burgemeester Bouwensestraat,4694EJ,4694EJ,60,60,,,,,Scherpenisse,Scherpenisse,456550.6682640081,6718135.3227187125
716200000754211,716200000754211,Burgemeester Bouwensestr,Burgemeester Bouwensestraat,4694EJ,4694EJ,62,62,,,,,Scherpenisse,Scherpenisse,456541.4898821123,6718132.489188062
716200000761832,716200000761832,President Rooseveltstr,President Rooseveltstraat,,,13,13,,,G01,G01,Sint-Maartensdijk,Sint-Maartensdijk,453407.1620921838,6718562.519219593
716200000761839,716200000761839,President Rooseveltstr,President Rooseveltstraat,,,14,14,,,G01,G01,Sint-Maartensdijk,Sint-Maartensdijk,453445.75754495943,6718588.674573644
716200000761833,716200000761833,President Rooseveltstr,President Rooseveltstraat,,,13,13,,,G02,G02,Sint-Maartensdijk,Sint-Maartensdijk,453404.7205963786,6718566.192297153
716200000761840,716200000761840,President Rooseveltstr,President Rooseveltstraat,,,14,14,,,G02,G02,Sint-Maartensdijk,Sint-Maartensdijk,453443.34872714034,6718592.316081384
716200000761834,716200000761834,President Rooseveltstr,President Rooseveltstraat,,,13,13,,,G03,G03,Sint-Maartensdijk,Sint-Maartensdijk,453402.4441779386,6718569.610890364
716200000761841,716200000761841,President Rooseveltstr,President Rooseveltstraat,,,14,14,,,G03,G03,Sint-Maartensdijk,Sint-Maartensdijk,453441.05569387483,6718595.766579831
716200000761835,716200000761835,President Rooseveltstr,President Rooseveltstraat,,,13,13,,,G04,G04,Sint-Maartensdijk,Sint-Maartensdijk,453400.16717871575,6718573.061657748
716200000761842,716200000761842,President Rooseveltstr,President Rooseveltstraat,,,14,14,,,G04,G04,Sint-Maartensdijk,Sint-Maartensdijk,453438.77899294876,6718599.20128243
716200000761836,716200000761836,President Rooseveltstr,President Rooseveltstraat,,,13,13,,,G05,G05,Sint-Maartensdijk,Sint-Maartensdijk,453397.8744221059,6718576.496049051
716200000761843,716200000761843,President Rooseveltstr,President Rooseveltstraat,,,14,14,,,G05,G05,Sint-Maartensdijk,Sint-Maartensdijk,453436.4859557932,6718602.651782463
716200000761837,716200000761837,President Rooseveltstr,President Rooseveltstraat,,,13,13,,,G06,G06,Sint-Maartensdijk,Sint-Maartensdijk,453395.5974190065,6718579.94681803
716200000761844,716200000761844,President Rooseveltstr,President Rooseveltstraat,,,14,14,,,G06,G06,Sint-Maartensdijk,Sint-Maartensdijk,453434.20925099973,6718606.086486635
716200000761831,716200000761831,President Rooseveltstr,President Rooseveltstraat,4695GP,4695GP,13,13,,,,,Sint-Maartensdijk,Sint-Maartensdijk,453391.07541834476,6718590.421353391
716200000761838,716200000761838,President Rooseveltstr,President Rooseveltstraat,4695GR,4695GR,14,14,,,,,Sint-Maartensdijk,Sint-Maartensdijk,453425.7998364092,6718613.175827293
716200000761845,716200000761845,President Rooseveltstr,President Rooseveltstraat,4695GP,4695GP,15,15,,,,,Sint-Maartensdijk,Sint-Maartensdijk,453385.1741611196,6718599.052557722
716200000761846,716200000761846,President Rooseveltstr,President Rooseveltstraat,4695GR,4695GR,16,16,,,,,Sint-Maartensdijk,Sint-Maartensdijk,453419.1933272196,6718622.647204828
716200000761847,716200000761847,President Rooseveltstr,President Rooseveltstraat,4695GP,4695GP,17,17,,,,,Sint-Maartensdijk,Sint-Maartensdijk,453379.4657201785,6718607.671162799
716200000761848,716200000761848,President Rooseveltstr,President Rooseveltstraat,4695GR,4695GR,18,18,,,,,Sint-Maartensdijk,Sint-Maartensdijk,453413.26143320394,6718631.197449355
716200000761849,716200000761849,President Rooseveltstr,President Rooseveltstraat,4695GP,4695GP,19,19,,,,,Sint-Maartensdijk,Sint-Maartensdijk,453373.6047568036,6718616.737590592
716200000761850,716200000761850,President Rooseveltstr,President Rooseveltstraat,4695GR,4695GR,20,20,,,,,Sint-Maartensdijk,Sint-Maartensdijk,453408.3601698829,6718639.55714079
716200000761851,716200000761851,President Rooseveltstr,President Rooseveltstraat,4695GP,4695GP,21,21,,,,,Sint-Maartensdijk,Sint-Maartensdijk,453366.2359191461,6718628.431933461
716200000761852,716200000761852,President Rooseveltstr,President Rooseveltstraat,4695GR,4695GR,22,22,,,,,Sint-Maartensdijk,Sint-Maartensdijk,453400.4557969092,6718651.579795791
716200000761853,716200000761853,President Rooseveltstr,President Rooseveltstraat,4695GP,4695GP,23,23,,,,,Sint-Maartensdijk,Sint-Maartensdijk,453360.04753485514,6718636.961413749
716200000761854,716200000761854,President Rooseveltstr,President Rooseveltstraat,4695GR,4695GR,24,24,,,,,Sint-Maartensdijk,Sint-Maartensdijk,453394.1900998419,6718659.947006807
716200000761855,716200000761855,President Rooseveltstr,President Rooseveltstraat,4695GP,4695GP,25,25,,,,,Sint-Maartensdijk,Sint-Maartensdijk,453354.29003689997,6718645.627430427
716200000761856,716200000761856,President Rooseveltstr,President Rooseveltstraat,4695GR,4695GR,26,26,,,,,Sint-Maartensdijk,Sint-Maartensdijk,453388.6234257843,6718668.713076163
716200000761857,716200000761857,President Rooseveltstr,President Rooseveltstraat,4695GP,4695GP,27,27,,,,,Sint-Maartensdijk,Sint-Maartensdijk,453348.22680231335,6718654.336197138
716200000761858,716200000761858,President Rooseveltstr,President Rooseveltstraat,4695GR,4695GR,28,28,,,,,Sint-Maartensdijk,Sint-Maartensdijk,453382.96104812506,6718677.445235871
716200000761859,716200000761859,President Rooseveltstr,President Rooseveltstraat,4695GP,4695GP,29,29,,,,,Sint-Maartensdijk,Sint-Maartensdijk,453340.7567011275,6718666.302305372
716200000761860,716200000761860,President Rooseveltstr,President Rooseveltstraat,4695GR,4695GR,30,30,,,,,Sint-Maartensdijk,Sint-Maartensdijk,453378.51101214386,6718691.944232653
716200000761861,716200000761861,President Rooseveltstr,President Rooseveltstraat,4695GP,4695GP,31,31,,,,,Sint-Maartensdijk,Sint-Maartensdijk,453334.6528300587,6718674.591953544
716200000761862,716200000761862,President Rooseveltstr,President Rooseveltstraat,4695GR,4695GR,32,32,,,,,Sint-Maartensdijk,Sint-Maartensdijk,453373.0875473502,6718700.777285323
716200000761863,716200000761863,President Rooseveltstr,President Rooseveltstraat,4695GP,4695GP,33,33,,,,,Sint-Maartensdijk,Sint-Maartensdijk,453328.3909304567,6718683.635077307
716200000761864,716200000761864,President Rooseveltstr,President Rooseveltstraat,4695GR,4695GR,34,34,,,,,Sint-Maartensdijk,Sint-Maartensdijk,453367.48815312266,6718709.574977084
716200000761865,716200000761865,President Rooseveltstr,President Rooseveltstraat,4695GP,4695GP,35,35,,,,,Sint-Maartensdijk,Sint-Maartensdijk,453322.9244942904,6718692.17765136
716200000761866,716200000761866,President Rooseveltstr,President Rooseveltstraat,4695GS,4695GS,36,36,,,,,Sint-Maartensdijk,Sint-Maartensdijk,453348.91424066527,6718719.5862451745
716200000761867,716200000761867,President Rooseveltstr,President Rooseveltstraat,4695GS,4695GS,38,38,,,,,Sint-Maartensdijk,Sint-Maartensdijk,453342.8793907119,6718729.389873389
716200000761868,716200000761868,President Rooseveltstr,President Rooseveltstraat,4695GS,4695GS,40,40,,,,,Sint-Maartensdijk,Sint-Maartensdijk,453336.1392868244,6718738.247397113
716200000761869,716200000761869,President Rooseveltstr,President Rooseveltstraat,4695GS,4695GS,42,42,,,,,Sint-Maartensdijk,Sint-Maartensdijk,453330.3299093855,6718748.00684156
716200000761870,716200000761870,President Rooseveltstr,President Rooseveltstraat,4695GS,4695GS,44,44,,,,,Sint-Maartensdijk,Sint-Maartensdijk,453324.0562466315,6718756.808446664
716200000761871,716200000761871,President Rooseveltstr,President Rooseveltstraat,4695GS,4695GS,46,46,,,,,Sint-Maartensdijk,Sint-Maartensdijk,453317.5305968504,6718766.233096801
716200000761872,716200000761872,President Rooseveltstr,President Rooseveltstraat,4695GS,4695GS,48,48,,,,,Sint-Maartensdijk,Sint-Maartensdijk,453311.4626651074,6718791.243430342
716200000761873,716200000761873,President Rooseveltstr,President Rooseveltstraat,4695GS,4695GS,50,50,,,,,Sint-Maartensdijk,Sint-Maartensdijk,453316.30946017476,6718801.968201648
716200000761874,716200000761874,President Rooseveltstr,President Rooseveltstraat,4695GS,4695GS,52,52,,,,,Sint-Maartensdijk,Sint-Maartensdijk,453352.3504892222,6718725.747369028
716200000761875,716200000761875,President Rooseveltstr,President Rooseveltstraat,4695GS,4695GS,54,54,,,,,Sint-Maartensdijk,Sint-Maartensdijk,453346.20998196886,6718735.1789737325
716200000761876,716200000761876,President Rooseveltstr,President Rooseveltstraat,4695GS,4695GS,56,56,,,,,Sint-Maartensdijk,Sint-Maartensdijk,453340.22788567777,6718744.726096958
716200000761877,716200000761877,President Rooseveltstr,President Rooseveltstraat,4695GS,4695GS,58,58,,,,,Sint-Maartensdijk,Sint-Maartensdijk,453333.34955877054,6718754.128272124
716200000761878,716200000761878,President Rooseveltstr,President Rooseveltstraat,4695GS,4695GS,60,60,,,,,Sint-Maartensdijk,Sint-Maartensdijk,453327.5591076419,6718763.7271530805
716200000761879,716200000761879,President Rooseveltstr,President Rooseveltstraat,4695GS,4695GS,62,62,,,,,Sint-Maartensdijk,Sint-Maartensdijk,453321.44327599724,6718772.676460186
716200000761880,716200000761880,President Rooseveltstr,President Rooseveltstraat,4695GS,4695GS,64,64,,,,,Sint-Maartensdijk,Sint-Maartensdijk,453319.57041289046,6718792.90283501
716200000761881,716200000761881,President Rooseveltstr,President Rooseveltstraat,4695GS,4695GS,66,66,,,,,Sint-Maartensdijk,Sint-Maartensdijk,453324.0843220111,6718803.396286314
716200000753880,716200000753880,Burg Sluijmersstr,Burgemeester Sluijmersstraat,4696CJ,4696CJ,1,1,,,,,Stavenisse,Stavenisse,446657.7626129921,6725398.536521734
716200000753881,716200000753881,Burg Sluijmersstr,Burgemeester Sluijmersstraat,4696CJ,4696CJ,2,2,,,,,Stavenisse,Stavenisse,446602.56584441627,6725367.068429365
716200000753882,716200000753882,Burg Sluijmersstr,Burgemeester Sluijmersstraat,4696CJ,4696CJ,3,3,,,,,Stavenisse,Stavenisse,446655.07463693153,6725388.580744751
716200000753883,716200000753883,Burg Sluijmersstr,Burgemeester Sluijmersstraat,4696CJ,4696CJ,4,4,,,,,Stavenisse,Stavenisse,446599.263195999,6725357.342616589
716200000753884,716200000753884,Burg Sluijmersstr,Burgemeester Sluijmersstraat,4696CJ,4696CJ,5,5,,,,,Stavenisse,Stavenisse,446651.9218949549,6725378.5678665675
716200000753885,716200000753885,Burg Sluijmersstr,Burgemeester Sluijmersstraat,4696CJ,4696CJ,6,6,,,,,Stavenisse,Stavenisse,446596.0281225894,6725347.44093331
716200000753886,716200000753886,Burg Sluijmersstr,Burgemeester Sluijmersstraat,4696CJ,4696CJ,7,7,,,,,Stavenisse,Stavenisse,446648.6379688259,6725368.697465996
716200000753887,716200000753887,Burg Sluijmersstr,Burgemeester Sluijmersstraat,4696CJ,4696CJ,8,8,,,,,Stavenisse,Stavenisse,446592.8545727824,6725336.8317864565
716200000753888,716200000753888,Burg Sluijmersstr,Burgemeester Sluijmersstraat,4696CJ,4696CJ,9,9,,,,,Stavenisse,Stavenisse,446643.323217849,6725354.069737911
716200000753889,716200000753889,Burg Sluijmersstr,Burgemeester Sluijmersstraat,4696CJ,4696CJ,10,10,,,,,Stavenisse,Stavenisse,446589.08567647374,6725326.275801962
716200000753890,716200000753890,Burg Sluijmersstr,Burgemeester Sluijmersstraat,4696CJ,4696CJ,11,11,,,,,Stavenisse,Stavenisse,446639.902057578,6725344.663823673
716200000753891,716200000753891,Burg Sluijmersstr,Burgemeester Sluijmersstraat,4696CJ,4696CJ,12,12,,,,,Stavenisse,Stavenisse,446585.7442734568,6725316.903616663
716200000753892,716200000753892,Burg Sluijmersstr,Burgemeester Sluijmersstraat,4696CJ,4696CJ,13,13,,,,,Stavenisse,Stavenisse,446636.7281483314,6725334.070796997
716200000753893,716200000753893,Burg Sluijmersstr,Burgemeester Sluijmersstraat,4696CJ,4696CJ,14,14,,,,,Stavenisse,Stavenisse,446581.2643591378,6725303.161434514
716200000753894,716200000753894,Burg Sluijmersstr,Burgemeester Sluijmersstraat,4696CJ,4696CJ,15,15,,,,,Stavenisse,Stavenisse,446633.50030490244,6725324.636350983
716200000753895,716200000753895,Burg Sluijmersstr,Burgemeester Sluijmersstraat,4696CJ,4696CJ,16,16,,,,,Stavenisse,Stavenisse,446577.90450538555,6725293.06418235
716200000753896,716200000753896,Burg Sluijmersstr,Burgemeester Sluijmersstraat,4696CJ,4696CJ,17,17,,,,,Stavenisse,Stavenisse,446630.29338649363,6725314.091038909
716200000753897,716200000753897,Burg Sluijmersstr,Burgemeester Sluijmersstraat,4696CJ,4696CJ,18,18,,,,,Stavenisse,Stavenisse,446574.5425370799,6725283.079638395
716200000753898,716200000753898,Burg Sluijmersstr,Burgemeester Sluijmersstraat,4696CJ,4696CJ,19,19,,,,,Stavenisse,Stavenisse,446626.56988727604,6725304.534493682
716200000753899,716200000753899,Burg Sluijmersstr,Burgemeester Sluijmersstraat,4696CJ,4696CJ,20,20,,,,,Stavenisse,Stavenisse,446571.1408796981,6725273.496986267
716200000753900,716200000753900,Burg Sluijmersstr,Burgemeester Sluijmersstraat,4696CJ,4696CJ,21,21,,,,,Stavenisse,Stavenisse,446621.807246481,6725289.5952090435
716200000753901,716200000753901,Burg Sluijmersstr,Burgemeester Sluijmersstraat,4696CJ,4696CJ,23,23,,,,,Stavenisse,Stavenisse,446618.6806353361,6725279.9050391475
716200000753902,716200000753902,Burg Sluijmersstr,Burgemeester Sluijmersstraat,4696CJ,4696CJ,25,25,,,,,Stavenisse,Stavenisse,446615.00171122147,6725269.689054736
716200000753903,716200000753903,Burg Sluijmersstr,Burgemeester Sluijmersstraat,4696CJ,4696CJ,27,27,,,,,Stavenisse,Stavenisse,446612.2944253767,6725260.763791646
716200000764001,716200000764001,van der Lek de Clercqpl,Van der Lek de Clercqplein,4696BZ,4696BZ,1,1,,,,,Stavenisse,Stavenisse,446559.95084575185,6725622.777715897
716200000764003,716200000764003,van der Lek de Clercqpl,Van der Lek de Clercqplein,4696BZ,4696BZ,3,3,,,,,Stavenisse,Stavenisse,446550.5669006484,6725624.613257716
716200000764005,716200000764005,van der Lek de Clercqpl,Van der Lek de Clercqplein,4696BZ,4696BZ,5,5,,,,,Stavenisse,Stavenisse,446541.5031920833,6725627.356790341
716200000764006,716200000764006,van der Lek de Clercqpl,Van der Lek de Clercqplein,4696BZ,4696BZ,7,7,,,,,Stavenisse,Stavenisse,446532.2952544682,6725630.081476058
716200000764007,716200000764007,van der Lek de Clercqpl,Van der Lek de Clercqplein,4696BZ,4696BZ,9,9,,,,,Stavenisse,Stavenisse,446522.95336123445,6725633.947142189
716200000764008,716200000764008,van der Lek de Clercqpl,Van der Lek de Clercqplein,4696BZ,4696BZ,11,11,,,,,Stavenisse,Stavenisse,446486.2999187118,6725657.540701272
716200000764009,716200000764009,van der Lek de Clercqpl,Van der Lek de Clercqplein,4696BZ,4696BZ,13,13,,,,,Stavenisse,Stavenisse,446488.82572062185,6725665.867076704
716200000764010,716200000764010,van der Lek de Clercqpl,Van der Lek de Clercqplein,4696BZ,4696BZ,15,15,,,,,Stavenisse,Stavenisse,446492.20020422334,6725674.338387086
716200000764011,716200000764011,van der Lek de Clercqpl,Van der Lek de Clercqplein,4696BZ,4696BZ,17,17,,,,,Stavenisse,Stavenisse,446494.7360070965,6725682.987089413
716200000764012,716200000764012,van der Lek de Clercqpl,Van der Lek de Clercqplein,4696BZ,4696BZ,19,19,,,,,Stavenisse,Stavenisse,446497.1245804489,6725690.924341015
716200000752858,716200000752858,Anna van Bourgondiestr,Anna van Bourgondiestraat,4697CV,4697CV,1,1,,,,,Sint-Annaland,Sint-Annaland,456373.41102038464,6727747.846314596
716200000752859,716200000752859,Anna van Bourgondiestr,Anna van Bourgondiestraat,4697CV,4697CV,3,3,,,,,Sint-Annaland,Sint-Annaland,456385.0968314086,6727726.643348482
716200000752860,716200000752860,Anna van Bourgondiestr,Anna van Bourgondiestraat,4697CW,4697CW,4,4,,,,,Sint-Annaland,Sint-Annaland,456245.5479392867,6727858.510459365
716200000752861,716200000752861,Anna van Bourgondiestr,Anna van Bourgondiestraat,4697CW,4697CW,6,6,,,,,Sint-Annaland,Sint-Annaland,456252.09517493454,6727846.254012434
716200000752876,716200000752876,Anna van Bourgondiestr,Anna van Bourgondiestraat,,,19,19,,,G07,G07,Sint-Annaland,Sint-Annaland,456498.45341943926,6727568.166330245
716200000752862,716200000752862,Anna van Bourgondiestr,Anna van Bourgondiestraat,4697CW,4697CW,8,8,,,,,Sint-Annaland,Sint-Annaland,456268.7428456755,6727822.529137473
716200000752872,716200000752872,Anna van Bourgondiestr,Anna van Bourgondiestraat,,,19,19,,,G03,G03,Sint-Annaland,Sint-Annaland,456486.4587614235,6727579.568927561
716200000752863,716200000752863,Anna van Bourgondiestr,Anna van Bourgondiestraat,4697CW,4697CW,10,10,,,,,Sint-Annaland,Sint-Annaland,456275.4405696287,6727811.757521688
716200000752873,716200000752873,Anna van Bourgondiestr,Anna van Bourgondiestraat,,,19,19,,,G04,G04,Sint-Annaland,Sint-Annaland,456489.46567328065,6727576.706342228
716200000752874,716200000752874,Anna van Bourgondiestr,Anna van Bourgondiestraat,,,19,19,,,G05,G05,Sint-Annaland,Sint-Annaland,456492.45595277403,6727573.875681445
716200000752864,716200000752864,Anna van Bourgondiestr,Anna van Bourgondiestraat,4697CW,4697CW,14,14,,,,,Sint-Annaland,Sint-Annaland,456304.58479413146,6727771.886545788
716200000752875,716200000752875,Anna van Bourgondiestr,Anna van Bourgondiestraat,,,19,19,,,G06,G06,Sint-Annaland,Sint-Annaland,456495.44651390455,6727571.028915958
716200000752865,716200000752865,Anna van Bourgondiestr,Anna van Bourgondiestraat,4697CW,4697CW,16,16,,,,,Sint-Annaland,Sint-Annaland,456316.8014957538,6727752.481231714
716200000752871,716200000752871,Anna van Bourgondiestr,Anna van Bourgondiestraat,,,19,19,,,G02,G02,Sint-Annaland,Sint-Annaland,456483.45241493674,6727582.399303589
716200000752866,716200000752866,Anna van Bourgondiestr,Anna van Bourgondiestraat,4697CW,4697CW,18,18,,,,,Sint-Annaland,Sint-Annaland,456328.3203240345,6727733.4663205715
716200000752877,716200000752877,Anna van Bourgondiestr,Anna van Bourgondiestraat,,,19,19,,,G08,G08,Sint-Annaland,Sint-Annaland,456501.75087140943,6727565.228341655
716200000752867,716200000752867,Anna van Bourgondiestr,Anna van Bourgondiestraat,,,18,18,,,G01,G01,Sint-Annaland,Sint-Annaland,456316.8617127366,6727707.1651379755
716200000752878,716200000752878,Anna van Bourgondiestr,Anna van Bourgondiestraat,4697CV,4697CV,21,21,,,,,Sint-Annaland,Sint-Annaland,456505.87491186964,6727554.588509715
716200000752868,716200000752868,Anna van Bourgondiestr,Anna van Bourgondiestraat,,,18,18,,,G02,G02,Sint-Annaland,Sint-Annaland,456319.6950078428,6727703.220131157
716200000752879,716200000752879,Anna van Bourgondiestr,Anna van Bourgondiestraat,4697CV,4697CV,23,23,,,,,Sint-Annaland,Sint-Annaland,456513.6326629599,6727547.460472842
716200000752869,716200000752869,Anna van Bourgondiestr,Anna van Bourgondiestraat,,,18,18,,,G03,G03,Sint-Annaland,Sint-Annaland,456322.3837328759,6727699.272561966
716200000752880,716200000752880,Anna van Bourgondiestr,Anna van Bourgondiestraat,4697CV,4697CV,25,25,,,,,Sint-Annaland,Sint-Annaland,456521.13368043234,6727540.311779696
716200000752881,716200000752881,Anna van Bourgondiestr,Anna van Bourgondiestraat,4697CV,4697CV,27,27,,,,,Sint-Annaland,Sint-Annaland,456529.23240903893,6727532.980354297
716200000752882,716200000752882,Anna van Bourgondiestr,Anna van Bourgondiestraat,4697CW,4697CW,28,28,,,,,Sint-Annaland,Sint-Annaland,456352.78487197345,6727695.606866734
716200000752883,716200000752883,Anna van Bourgondiestr,Anna van Bourgondiestraat,4697CV,4697CV,29,29,,,,,Sint-Annaland,Sint-Annaland,456532.83092893957,6727516.596270472
716200000752884,716200000752884,Anna van Bourgondiestr,Anna van Bourgondiestraat,4697CW,4697CW,30,30,,,,,Sint-Annaland,Sint-Annaland,456366.38020474516,6727676.371088546
716200000752885,716200000752885,Anna van Bourgondiestr,Anna van Bourgondiestraat,4697CV,4697CV,31,31,,,,,Sint-Annaland,Sint-Annaland,456540.68442885665,6727509.502155635
716200000752886,716200000752886,Anna van Bourgondiestr,Anna van Bourgondiestraat,4697CW,4697CW,32,32,,,,,Sint-Annaland,Sint-Annaland,456380.3908382546,6727657.271572211
716200000752887,716200000752887,Anna van Bourgondiestr,Anna van Bourgondiestraat,4697CV,4697CV,33,33,,,,,Sint-Annaland,Sint-Annaland,456548.2510561491,6727502.274085536
716200000752888,716200000752888,Anna van Bourgondiestr,Anna van Bourgondiestraat,4697CW,4697CW,34,34,,,,,Sint-Annaland,Sint-Annaland,456393.9543135633,6727630.721464522
716200000752889,716200000752889,Anna van Bourgondiestr,Anna van Bourgondiestraat,4697CV,4697CV,35,35,,,,,Sint-Annaland,Sint-Annaland,456556.0024810015,6727495.500350326
716200000752890,716200000752890,Anna van Bourgondiestr,Anna van Bourgondiestraat,4697CW,4697CW,36,36,,,,,Sint-Annaland,Sint-Annaland,456419.34981947456,6727595.617428916
716200000752891,716200000752891,Anna van Bourgondiestr,Anna van Bourgondiestraat,4697CV,4697CV,37,37,,,,,Sint-Annaland,Sint-Annaland,456566.3220085424,6727477.930435414
716200000752892,716200000752892,Anna van Bourgondiestr,Anna van Bourgondiestraat,4697CW,4697CW,38,38,,,,,Sint-Annaland,Sint-Annaland,456442.3413052791,6727562.887314102
716200000752893,716200000752893,Anna van Bourgondiestr,Anna van Bourgondiestraat,,,38,38,,,G01,G01,Sint-Annaland,Sint-Annaland,456427.3289945494,6727510.297624328
716200000752894,716200000752894,Anna van Bourgondiestr,Anna van Bourgondiestraat,,,38,38,,,G02,G02,Sint-Annaland,Sint-Annaland,456431.78568212176,6727508.137368516
716200000752895,716200000752895,Anna van Bourgondiestr,Anna van Bourgondiestraat,,,38,38,,,G03,G03,Sint-Annaland,Sint-Annaland,456436.27335731674,6727506.042097667
716200000752896,716200000752896,Anna van Bourgondiestr,Anna van Bourgondiestraat,4697CX,4697CX,46,46,,,,,Sint-Annaland,Sint-Annaland,456454.42677124485,6727512.598053629
716200000752897,716200000752897,Anna van Bourgondiestr,Anna van Bourgondiestraat,4697CX,4697CX,48,48,,,,,Sint-Annaland,Sint-Annaland,456474.6159410132,6727503.0161232725
716200000752898,716200000752898,Anna van Bourgondiestr,Anna van Bourgondiestraat,4697CX,4697CX,50,50,,,,,Sint-Annaland,Sint-Annaland,456494.75517317984,6727493.529926578
716200000752899,716200000752899,Anna van Bourgondiestr,Anna van Bourgondiestraat,4697CX,4697CX,52,52,,,,,Sint-Annaland,Sint-Annaland,456510.06771662633,6727471.634532248
716200000752900,716200000752900,Anna van Bourgondiestr,Anna van Bourgondiestraat,4697CX,4697CX,54,54,,,,,Sint-Annaland,Sint-Annaland,456525.1620036194,6727450.266912776
716200000752901,716200000752901,Anna van Bourgondiestr,Anna van Bourgondiestraat,4697CX,4697CX,56,56,,,,,Sint-Annaland,Sint-Annaland,456539.8799663425,6727429.279283077
716200000752902,716200000752902,Anna van Bourgondiestr,Anna van Bourgondiestraat,4697CX,4697CX,58,58,,,,,Sint-Annaland,Sint-Annaland,456556.222896138,6727409.077581391
716200000752903,716200000752903,Anna van Bourgondiestr,Anna van Bourgondiestraat,4697CX,4697CX,60,60,,,,,Sint-Annaland,Sint-Annaland,456574.93027435715,6727396.940145192
716200000752904,716200000752904,Anna van Bourgondiestr,Anna van Bourgondiestraat,4697CX,4697CX,62,62,,,,,Sint-Annaland,Sint-Annaland,456593.2697640768,6727385.61774409
716200000754136,716200000754136,Burgemeester Baasstr,Burgemeester Baasstraat,4697GV,,57,57,,,G10,G10,Sint-Annaland,Sint-Annaland,456062.105399195,6728289.869364585
716200000754146,716200000754146,Burgemeester Baasstr,Burgemeester Baasstraat,4697GV,,57,57,,,G20,G20,Sint-Annaland,Sint-Annaland,456018.88125753833,6728250.660660031
716200000754145,716200000754145,Burgemeester Baasstr,Burgemeester Baasstraat,4697GV,,57,57,,,G19,G19,Sint-Annaland,Sint-Annaland,456025.15752549126,6728255.589349669
716200000754148,716200000754148,Burgemeester Baasstr,Burgemeester Baasstraat,4697GV,,57,57,,,G22,G22,Sint-Annaland,Sint-Annaland,456011.08163439686,6728244.641578086
716200000754147,716200000754147,Burgemeester Baasstr,Burgemeester Baasstraat,4697GV,,57,57,,,G21,G21,Sint-Annaland,Sint-Annaland,456015.0449891847,6728247.69252589
716200000754143,716200000754143,Burgemeester Baasstr,Burgemeester Baasstraat,4697GV,,57,57,,,G17,G17,Sint-Annaland,Sint-Annaland,456032.74947453185,6728261.54029231
716200000754137,716200000754137,Burgemeester Baasstr,Burgemeester Baasstraat,4697GV,,57,57,,,G11,G11,Sint-Annaland,Sint-Annaland,456065.8534157602,6728285.102637299
716200000754144,716200000754144,Burgemeester Baasstr,Burgemeester Baasstraat,4697GV,,57,57,,,G18,G18,Sint-Annaland,Sint-Annaland,456028.9616730214,6728258.556911094
716200000754135,716200000754135,Burgemeester Baasstr,Burgemeester Baasstraat,4697GV,,57,57,,,G09,G09,Sint-Annaland,Sint-Annaland,456058.42248888285,6728294.58891642
716200000754074,716200000754074,Burgemeester Baasstr,Burgemeester Baasstraat,4697GV,4697GV,1,1,,,,,Sint-Annaland,Sint-Annaland,456143.8189981697,6728342.553636924
716200000754075,716200000754075,Burgemeester Baasstr,Burgemeester Baasstraat,4697HA,4697HA,2,2,,,,,Sint-Annaland,Sint-Annaland,456165.96696826606,6728398.72368042
716200000754076,716200000754076,Burgemeester Baasstr,Burgemeester Baasstraat,4697GV,4697GV,3,3,,,,,Sint-Annaland,Sint-Annaland,456138.0582447684,6728350.281370193
716200000754077,716200000754077,Burgemeester Baasstr,Burgemeester Baasstraat,4697HA,4697HA,4,4,,,,,Sint-Annaland,Sint-Annaland,456151.04939606466,6728417.212363567
716200000754078,716200000754078,Burgemeester Baasstr,Burgemeester Baasstraat,4697GV,4697GV,5,5,,,,,Sint-Annaland,Sint-Annaland,456132.5601991419,6728357.691548104
716200000754079,716200000754079,Burgemeester Baasstr,Burgemeester Baasstraat,4697HA,4697HA,6,6,,,,,Sint-Annaland,Sint-Annaland,456158.191214559,6728423.187534872
716200000754080,716200000754080,Burgemeester Baasstr,Burgemeester Baasstraat,4697GV,4697GV,7,7,,,,,Sint-Annaland,Sint-Annaland,456126.20504359255,6728365.408734161
716200000754081,716200000754081,Burgemeester Baasstr,Burgemeester Baasstraat,4697HA,4697HA,8,8,,,,,Sint-Annaland,Sint-Annaland,456142.6771708939,6728428.132179156
716200000754082,716200000754082,Burgemeester Baasstr,Burgemeester Baasstraat,4697GV,4697GV,9,9,,,,,Sint-Annaland,Sint-Annaland,456120.3185873303,6728372.973133137
716200000754083,716200000754083,Burgemeester Baasstr,Burgemeester Baasstraat,4697HA,4697HA,10,10,,,,,Sint-Annaland,Sint-Annaland,456149.874581723,6728433.6894589765
716200000754084,716200000754084,Burgemeester Baasstr,Burgemeester Baasstraat,4697GV,4697GV,11,11,,,,,Sint-Annaland,Sint-Annaland,456114.3725465108,6728381.180924671
716200000754085,716200000754085,Burgemeester Baasstr,Burgemeester Baasstraat,4697HA,4697HA,12,12,,,,,Sint-Annaland,Sint-Annaland,456051.91386355006,6728379.185502789
716200000754086,716200000754086,Burgemeester Baasstr,Burgemeester Baasstraat,4697GV,4697GV,13,13,,,,,Sint-Annaland,Sint-Annaland,456092.918124509,6728357.632071056
716200000754087,716200000754087,Burgemeester Baasstr,Burgemeester Baasstraat,4697HA,4697HA,14,14,,,,,Sint-Annaland,Sint-Annaland,456045.4895183078,6728387.175308247
716200000754088,716200000754088,Burgemeester Baasstr,Burgemeester Baasstraat,4697GV,4697GV,15,15,,,,,Sint-Annaland,Sint-Annaland,456085.3888761509,6728351.762785829
716200000754089,716200000754089,Burgemeester Baasstr,Burgemeester Baasstraat,4697HA,4697HA,16,16,,,,,Sint-Annaland,Sint-Annaland,456039.57779783674,6728395.254780026
716200000754090,716200000754090,Burgemeester Baasstr,Burgemeester Baasstraat,4697GV,4697GV,17,17,,,,,Sint-Annaland,Sint-Annaland,456077.6453956819,6728346.195804024
716200000754091,716200000754091,Burgemeester Baasstr,Burgemeester Baasstraat,4697HA,4697HA,18,18,,,,,Sint-Annaland,Sint-Annaland,456033.3901238331,6728403.490465201
716200000754092,716200000754092,Burgemeester Baasstr,Burgemeester Baasstraat,4697GV,4697GV,19,19,,,,,Sint-Annaland,Sint-Annaland,456069.9555260738,6728340.323659528
716200000754093,716200000754093,Burgemeester Baasstr,Burgemeester Baasstraat,4697HA,4697HA,20,20,,,,,Sint-Annaland,Sint-Annaland,456023.4536898415,6728413.802344187
716200000754094,716200000754094,Burgemeester Baasstr,Burgemeester Baasstraat,4697GV,4697GV,21,21,,,,,Sint-Annaland,Sint-Annaland,456062.3998740742,6728334.1316738855
716200000754095,716200000754095,Burgemeester Baasstr,Burgemeester Baasstraat,4697HA,4697HA,22,22,,,,,Sint-Annaland,Sint-Annaland,456016.7527770801,6728421.9805826
716200000754096,716200000754096,Burgemeester Baasstr,Burgemeester Baasstraat,4697GV,4697GV,23,23,,,,,Sint-Annaland,Sint-Annaland,456054.72609119164,6728328.2598090535
716200000754097,716200000754097,Burgemeester Baasstr,Burgemeester Baasstraat,4697HA,4697HA,24,24,,,,,Sint-Annaland,Sint-Annaland,456010.7503102499,6728429.736230064
716200000754098,716200000754098,Burgemeester Baasstr,Burgemeester Baasstraat,4697GV,4697GV,25,25,,,,,Sint-Annaland,Sint-Annaland,456047.0416633665,6728322.081641408
716200000754099,716200000754099,Burgemeester Baasstr,Burgemeester Baasstraat,4697HA,4697HA,26,26,,,,,Sint-Annaland,Sint-Annaland,456004.3772099905,6728437.549739508
716200000754100,716200000754100,Burgemeester Baasstr,Burgemeester Baasstraat,4697GV,4697GV,27,27,,,,,Sint-Annaland,Sint-Annaland,456023.22326076723,6728313.200158762
716200000754101,716200000754101,Burgemeester Baasstr,Burgemeester Baasstraat,4697HA,4697HA,28,28,,,,,Sint-Annaland,Sint-Annaland,455970.36516706925,6728402.612135538
716200000754102,716200000754102,Burgemeester Baasstr,Burgemeester Baasstraat,4697GV,4697GV,29,29,,,,,Sint-Annaland,Sint-Annaland,456017.2662267203,6728321.117624762
716200000754103,716200000754103,Burgemeester Baasstr,Burgemeester Baasstraat,4697HA,4697HA,30,30,,,,,Sint-Annaland,Sint-Annaland,455958.97019899904,6728394.531194045
716200000754104,716200000754104,Burgemeester Baasstr,Burgemeester Baasstraat,4697GV,4697GV,31,31,,,,,Sint-Annaland,Sint-Annaland,456011.24520870124,6728329.017846133
716200000754105,716200000754105,Burgemeester Baasstr,Burgemeester Baasstraat,4697HA,4697HA,32,32,,,,,Sint-Annaland,Sint-Annaland,455947.0964556281,6728386.264509519
716200000754106,716200000754106,Burgemeester Baasstr,Burgemeester Baasstraat,4697GV,4697GV,33,33,,,,,Sint-Annaland,Sint-Annaland,456005.2000227283,6728336.466530286
716200000754107,716200000754107,Burgemeester Baasstr,Burgemeester Baasstraat,4697HA,4697HA,34,34,,,,,Sint-Annaland,Sint-Annaland,455935.43060667196,6728377.147618624
716200000754108,716200000754108,Burgemeester Baasstr,Burgemeester Baasstraat,4697GV,4697GV,35,35,,,,,Sint-Annaland,Sint-Annaland,455999.08942953113,6728343.97849898
716200000754109,716200000754109,Burgemeester Baasstr,Burgemeester Baasstraat,4697HA,4697HA,36,36,,,,,Sint-Annaland,Sint-Annaland,455924.8119890048,6728366.969892321
716200000754110,716200000754110,Burgemeester Baasstr,Burgemeester Baasstraat,4697GV,4697GV,37,37,,,,,Sint-Annaland,Sint-Annaland,455993.5424995927,6728351.419931699
716200000754111,716200000754111,Burgemeester Baasstr,Burgemeester Baasstraat,4697HA,4697HA,38,38,,,,,Sint-Annaland,Sint-Annaland,455913.7652935831,6728358.282889692
716200000754112,716200000754112,Burgemeester Baasstr,Burgemeester Baasstraat,4697GV,4697GV,39,39,,,,,Sint-Annaland,Sint-Annaland,455987.2939726003,6728359.46112225
716200000754113,716200000754113,Burgemeester Baasstr,Burgemeester Baasstraat,4697HA,4697HA,40,40,,,,,Sint-Annaland,Sint-Annaland,455900.9226623904,6728350.288944883
716200000754114,716200000754114,Burgemeester Baasstr,Burgemeester Baasstraat,4697GW,4697GW,41,41,,,,,Sint-Annaland,Sint-Annaland,455964.32418479654,6728338.027830525
716200000754115,716200000754115,Burgemeester Baasstr,Burgemeester Baasstraat,4697HA,4697HA,42,42,,,,,Sint-Annaland,Sint-Annaland,455889.69008275913,6728341.211953998
716200000754116,716200000754116,Burgemeester Baasstr,Burgemeester Baasstraat,4697GW,4697GW,43,43,,,,,Sint-Annaland,Sint-Annaland,455957.7933112842,6728332.047296746
716200000754117,716200000754117,Burgemeester Baasstr,Burgemeester Baasstraat,4697HA,4697HA,44,44,,,,,Sint-Annaland,Sint-Annaland,455879.9648987225,6728331.404545768
716200000754118,716200000754118,Burgemeester Baasstr,Burgemeester Baasstraat,4697GW,4697GW,45,45,,,,,Sint-Annaland,Sint-Annaland,455949.7489892212,6728326.233190425
716200000754119,716200000754119,Burgemeester Baasstr,Burgemeester Baasstraat,4697HA,4697HA,46,46,,,,,Sint-Annaland,Sint-Annaland,455868.4432122153,6728322.322403745
716200000754120,716200000754120,Burgemeester Baasstr,Burgemeester Baasstraat,4697GW,4697GW,47,47,,,,,Sint-Annaland,Sint-Annaland,455962.5402161788,6728304.42063031
716200000754121,716200000754121,Burgemeester Baasstr,Burgemeester Baasstraat,4697HA,4697HA,48,48,,,,,Sint-Annaland,Sint-Annaland,455833.70128265116,6728305.077747438
716200000754122,716200000754122,Burgemeester Baasstr,Burgemeester Baasstraat,4697GW,4697GW,49,49,,,,,Sint-Annaland,Sint-Annaland,455968.5561366459,6728296.81037659
716200000754123,716200000754123,Burgemeester Baasstr,Burgemeester Baasstraat,4697GW,4697GW,51,51,,,,,Sint-Annaland,Sint-Annaland,455974.29126548854,6728289.630132258
716200000754124,716200000754124,Burgemeester Baasstr,Burgemeester Baasstraat,4697GW,4697GW,53,53,,,,,Sint-Annaland,Sint-Annaland,455980.3759770262,6728281.763330469
716200000754125,716200000754125,Burgemeester Baasstr,Burgemeester Baasstraat,4697GW,4697GW,55,55,,,,,Sint-Annaland,Sint-Annaland,455986.43777836533,6728274.282788299
716200000754126,716200000754126,Burgemeester Baasstr,Burgemeester Baasstraat,4697GW,4697GW,57,57,,,,,Sint-Annaland,Sint-Annaland,455992.9080060084,6728266.422843718
716200000754149,716200000754149,Burgemeester Baasstr,Burgemeester Baasstraat,4697GW,4697GW,59,59,,,,,Sint-Annaland,Sint-Annaland,456004.18236345705,6728231.3241401175
716200000754150,716200000754150,Burgemeester Baasstr,Burgemeester Baasstraat,4697GW,4697GW,61,61,,,,,Sint-Annaland,Sint-Annaland,455996.14522572444,6728225.107506257
716200000754151,716200000754151,Burgemeester Baasstr,Burgemeester Baasstraat,4697GW,4697GW,63,63,,,,,Sint-Annaland,Sint-Annaland,455988.7886032024,6728219.482954868
716200000754152,716200000754152,Burgemeester Baasstr,Burgemeester Baasstraat,4697GW,4697GW,65,65,,,,,Sint-Annaland,Sint-Annaland,455981.25614077895,6728213.806942705
716200000754153,716200000754153,Burgemeester Baasstr,Burgemeester Baasstraat,4697GX,4697GX,67,67,,,,,Sint-Annaland,Sint-Annaland,455955.7218990354,6728207.472614548
716200000754154,716200000754154,Burgemeester Baasstr,Burgemeester Baasstraat,4697GX,4697GX,69,69,,,,,Sint-Annaland,Sint-Annaland,455949.2014968991,6728215.44435665
716200000754155,716200000754155,Burgemeester Baasstr,Burgemeester Baasstraat,4697GX,4697GX,71,71,,,,,Sint-Annaland,Sint-Annaland,455942.5663548241,6728223.542948702
716200000754156,716200000754156,Burgemeester Baasstr,Burgemeester Baasstraat,4697GX,4697GX,73,73,,,,,Sint-Annaland,Sint-Annaland,455936.928880967,6728231.562615301
716200000754157,716200000754157,Burgemeester Baasstr,Burgemeester Baasstraat,4697GX,4697GX,75,75,,,,,Sint-Annaland,Sint-Annaland,455917.4490184432,6728234.5190023165
716200000754158,716200000754158,Burgemeester Baasstr,Burgemeester Baasstraat,4697GX,4697GX,77,77,,,,,Sint-Annaland,Sint-Annaland,455910.9478643948,6728243.216074626
716200000754159,716200000754159,Burgemeester Baasstr,Burgemeester Baasstraat,4697GX,4697GX,79,79,,,,,Sint-Annaland,Sint-Annaland,455903.73303749546,6728252.28712276
716200000754160,716200000754160,Burgemeester Baasstr,Burgemeester Baasstraat,4697GX,4697GX,81,81,,,,,Sint-Annaland,Sint-Annaland,455897.1475447729,6728261.208256933
716200000754161,716200000754161,Burgemeester Baasstr,Burgemeester Baasstraat,4697GX,4697GX,83,83,,,,,Sint-Annaland,Sint-Annaland,455877.7716763111,6728263.731413375
716200000754162,716200000754162,Burgemeester Baasstr,Burgemeester Baasstraat,4697GX,4697GX,85,85,,,,,Sint-Annaland,Sint-Annaland,455870.7983264098,6728272.7745285025
716200000754163,716200000754163,Burgemeester Baasstr,Burgemeester Baasstraat,4697GX,4697GX,87,87,,,,,Sint-Annaland,Sint-Annaland,455864.1297911141,6728280.936964597
716200000754164,716200000754164,Burgemeester Baasstr,Burgemeester Baasstraat,4697GX,4697GX,89,89,,,,,Sint-Annaland,Sint-Annaland,455857.0163938823,6728289.719819815
716200000754027,716200000754027,Burg Versluijsstr,Burgemeester Versluijsstraat,4698AR,4698AR,1,1,,,,,Oud-Vossemeer,Oud-Vossemeer,467265.76115641743,6722574.368331407
716200000754028,716200000754028,Burg Versluijsstr,Burgemeester Versluijsstraat,4698AS,4698AS,2,2,,,,,Oud-Vossemeer,Oud-Vossemeer,467224.8668697122,6722574.085024722
716200000754029,716200000754029,Burg Versluijsstr,Burgemeester Versluijsstraat,4698AR,4698AR,3,3,,,,,Oud-Vossemeer,Oud-Vossemeer,467264.1586174156,6722564.312117394
716200000754030,716200000754030,Burg Versluijsstr,Burgemeester Versluijsstraat,4698AS,4698AS,4,4,,,,,Oud-Vossemeer,Oud-Vossemeer,467222.96330113854,6722563.7823798135
716200000754031,716200000754031,Burg Versluijsstr,Burgemeester Versluijsstraat,4698AR,4698AR,5,5,,,,,Oud-Vossemeer,Oud-Vossemeer,467262.8884229732,6722553.5690810075
716200000754032,716200000754032,Burg Versluijsstr,Burgemeester Versluijsstraat,4698AS,4698AS,6,6,,,,,Oud-Vossemeer,Oud-Vossemeer,467221.61347465456,6722553.987900108
716200000754033,716200000754033,Burg Versluijsstr,Burgemeester Versluijsstraat,4698AR,4698AR,7,7,,,,,Oud-Vossemeer,Oud-Vossemeer,467261.54562879447,6722543.340051357
716200000754034,716200000754034,Burg Versluijsstr,Burgemeester Versluijsstraat,4698AS,4698AS,8,8,,,,,Oud-Vossemeer,Oud-Vossemeer,467220.1507535122,6722544.223781595
716200000754035,716200000754035,Burg Versluijsstr,Burgemeester Versluijsstraat,4698AR,4698AR,9,9,,,,,Oud-Vossemeer,Oud-Vossemeer,467260.04046953685,6722533.221071477
716200000754036,716200000754036,Burg Versluijsstr,Burgemeester Versluijsstraat,4698AS,4698AS,10,10,,,,,Oud-Vossemeer,Oud-Vossemeer,467218.18319148687,6722532.9219616195
716200000754037,716200000754037,Burg Versluijsstr,Burgemeester Versluijsstraat,4698AR,4698AR,11,11,,,,,Oud-Vossemeer,Oud-Vossemeer,467258.69447583624,6722522.20314448
716200000754038,716200000754038,Burg Versluijsstr,Burgemeester Versluijsstraat,4698AS,4698AS,12,12,,,,,Oud-Vossemeer,Oud-Vossemeer,467216.32145121135,6722522.024374701
716200000754039,716200000754039,Burg Versluijsstr,Burgemeester Versluijsstraat,4698AR,4698AR,13,13,,,,,Oud-Vossemeer,Oud-Vossemeer,467256.30589233147,6722508.157579597
716200000754041,716200000754041,Burg Versluijsstr,Burgemeester Versluijsstraat,4698AR,4698AR,15,15,,,,,Oud-Vossemeer,Oud-Vossemeer,467254.3615401307,6722498.385635771
716200000754043,716200000754043,Burg Versluijsstr,Burgemeester Versluijsstraat,4698AR,4698AR,17,17,,,,,Oud-Vossemeer,Oud-Vossemeer,467252.988756545,6722488.027387944
716200000754044,716200000754044,Burg Versluijsstr,Burgemeester Versluijsstraat,4698AS,4698AS,18,18,,,,,Oud-Vossemeer,Oud-Vossemeer,467171.05951594113,6722415.365701472
716200000754045,716200000754045,Burg Versluijsstr,Burgemeester Versluijsstraat,4698AR,4698AR,19,19,,,,,Oud-Vossemeer,Oud-Vossemeer,467251.7157041422,6722477.4614952495
716200000754046,716200000754046,Burg Versluijsstr,Burgemeester Versluijsstraat,4698AS,4698AS,20,20,,,,,Oud-Vossemeer,Oud-Vossemeer,467132.2673620528,6722304.918247162
716200000754060,716200000754060,Burg Versluijsstr,Burgemeester Versluijsstraat,4698AR,4698AR,21,21,,,,,Oud-Vossemeer,Oud-Vossemeer,467242.48441479146,6722447.784267662
716200000754061,716200000754061,Burg Versluijsstr,Burgemeester Versluijsstraat,4698AS,4698AS,22,22,,,,,Oud-Vossemeer,Oud-Vossemeer,467236.76576719666,6722406.5249656215
716200000754062,716200000754062,Burg Versluijsstr,Burgemeester Versluijsstraat,4698AR,4698AR,23,23,,,,,Oud-Vossemeer,Oud-Vossemeer,467252.99910528,6722445.992347868
716200000754063,716200000754063,Burg Versluijsstr,Burgemeester Versluijsstraat,4698AS,4698AS,24,24,,,,,Oud-Vossemeer,Oud-Vossemeer,467246.105910164,6722404.874820086
716200000754064,716200000754064,Burg Versluijsstr,Burgemeester Versluijsstraat,4698AR,4698AR,25,25,,,,,Oud-Vossemeer,Oud-Vossemeer,467263.9651142388,6722444.095110063
716200000754065,716200000754065,Burg Versluijsstr,Burgemeester Versluijsstraat,4698AS,4698AS,26,26,,,,,Oud-Vossemeer,Oud-Vossemeer,467256.6829212872,6722403.196620162
716200000754066,716200000754066,Burg Versluijsstr,Burgemeester Versluijsstraat,4698AR,4698AR,27,27,,,,,Oud-Vossemeer,Oud-Vossemeer,467274.384262996,6722442.253301313
716200000754067,716200000754067,Burg Versluijsstr,Burgemeester Versluijsstraat,4698AS,4698AS,28,28,,,,,Oud-Vossemeer,Oud-Vossemeer,467266.558836996,6722401.184944516
716200000754068,716200000754068,Burg Versluijsstr,Burgemeester Versluijsstraat,4698AR,4698AR,29,29,,,,,Oud-Vossemeer,Oud-Vossemeer,467287.47346932447,6722440.133206936
716200000754069,716200000754069,Burg Versluijsstr,Burgemeester Versluijsstraat,4698AS,4698AS,30,30,,,,,Oud-Vossemeer,Oud-Vossemeer,467280.42029758834,6722397.982775855
716200000754070,716200000754070,Burg Versluijsstr,Burgemeester Versluijsstraat,4698AR,4698AR,31,31,,,,,Oud-Vossemeer,Oud-Vossemeer,467297.6310399495,6722438.5768728955
716200000754071,716200000754071,Burg Versluijsstr,Burgemeester Versluijsstraat,4698AS,4698AS,32,32,,,,,Oud-Vossemeer,Oud-Vossemeer,467290.28912412864,6722396.40563325
716200000754072,716200000754072,Burg Versluijsstr,Burgemeester Versluijsstraat,4698AR,4698AR,33,33,,,,,Oud-Vossemeer,Oud-Vossemeer,467307.30465424113,6722437.157497765
716200000754073,716200000754073,Burg Versluijsstr,Burgemeester Versluijsstraat,4698AS,4698AS,34,34,,,,,Oud-Vossemeer,Oud-Vossemeer,467299.9500436437,6722394.776778253
716200000761801,716200000761801,Pr Willem-Alexanderstr,Pr. Willem-Alexanderstraat,4698CC,,32,32,,,G02,G02,Oud-Vossemeer,Oud-Vossemeer,467692.11509019777,6722552.198057248
716200000761802,716200000761802,Pr Willem-Alexanderstr,Pr. Willem-Alexanderstraat,4698CC,,32,32,,,G03,G03,Oud-Vossemeer,Oud-Vossemeer,467696.8486305256,6722551.422041823
716200000761803,716200000761803,Pr Willem-Alexanderstr,Pr. Willem-Alexanderstraat,4698CC,,32,32,,,G04,G04,Oud-Vossemeer,Oud-Vossemeer,467701.614276696,6722550.646547677
716200000761770,716200000761770,Pr Willem-Alexanderstr,Pr. Willem-Alexanderstraat,4698CB,4698CB,1,1,,,,,Oud-Vossemeer,Oud-Vossemeer,467620.1583351691,6722702.600903809
716200000761771,716200000761771,Pr Willem-Alexanderstr,Pr. Willem-Alexanderstraat,4698CC,4698CC,2,2,,,,,Oud-Vossemeer,Oud-Vossemeer,467601.5914495429,6722657.379558082
716200000761772,716200000761772,Pr Willem-Alexanderstr,Pr. Willem-Alexanderstraat,4698CB,4698CB,3,3,,,,,Oud-Vossemeer,Oud-Vossemeer,467632.38437489123,6722700.256787933
716200000761773,716200000761773,Pr Willem-Alexanderstr,Pr. Willem-Alexanderstraat,4698CC,4698CC,4,4,,,,,Oud-Vossemeer,Oud-Vossemeer,467613.1371623255,6722655.394665406
716200000761774,716200000761774,Pr Willem-Alexanderstr,Pr. Willem-Alexanderstraat,4698CB,4698CB,5,5,,,,,Oud-Vossemeer,Oud-Vossemeer,467644.3959587565,6722698.263346817
716200000761776,716200000761776,Pr Willem-Alexanderstr,Pr. Willem-Alexanderstraat,4698CC,4698CC,6,6,,,,,Oud-Vossemeer,Oud-Vossemeer,467624.04710627225,6722653.995061577
716200000761777,716200000761777,Pr Willem-Alexanderstr,Pr. Willem-Alexanderstraat,4698CB,4698CB,7,7,,,,,Oud-Vossemeer,Oud-Vossemeer,467669.64928665705,6722685.7636495335
716200000761778,716200000761778,Pr Willem-Alexanderstr,Pr. Willem-Alexanderstraat,4698CC,4698CC,8,8,,,,,Oud-Vossemeer,Oud-Vossemeer,467612.15794921055,6722625.7231927095
716200000761779,716200000761779,Pr Willem-Alexanderstr,Pr. Willem-Alexanderstraat,4698CB,4698CB,9,9,,,,,Oud-Vossemeer,Oud-Vossemeer,467667.6569095535,6722674.960435489
716200000761780,716200000761780,Pr Willem-Alexanderstr,Pr. Willem-Alexanderstraat,4698CC,4698CC,10,10,,,,,Oud-Vossemeer,Oud-Vossemeer,467610.71174301894,6722614.912862843
716200000761781,716200000761781,Pr Willem-Alexanderstr,Pr. Willem-Alexanderstraat,4698CB,4698CB,11,11,,,,,Oud-Vossemeer,Oud-Vossemeer,467665.9992013384,6722663.325516369
716200000761782,716200000761782,Pr Willem-Alexanderstr,Pr. Willem-Alexanderstraat,4698CC,4698CC,12,12,,,,,Oud-Vossemeer,Oud-Vossemeer,467608.75663888844,6722604.786516211
716200000761783,716200000761783,Pr Willem-Alexanderstr,Pr. Willem-Alexanderstraat,4698CB,4698CB,13,13,,,,,Oud-Vossemeer,Oud-Vossemeer,467664.83366921317,6722652.036740167
716200000761784,716200000761784,Pr Willem-Alexanderstr,Pr. Willem-Alexanderstraat,4698CC,4698CC,14,14,,,,,Oud-Vossemeer,Oud-Vossemeer,467607.46767808317,6722595.170145827
716200000761785,716200000761785,Pr Willem-Alexanderstr,Pr. Willem-Alexanderstraat,4698CB,4698CB,15,15,,,,,Oud-Vossemeer,Oud-Vossemeer,467662.77672210435,6722640.266538718
716200000761786,716200000761786,Pr Willem-Alexanderstr,Pr. Willem-Alexanderstraat,4698CB,4698CB,17,17,,,,,Oud-Vossemeer,Oud-Vossemeer,467661.0330095147,6722628.984454711
716200000761787,716200000761787,Pr Willem-Alexanderstr,Pr. Willem-Alexanderstraat,4698CC,4698CC,18,18,,,,,Oud-Vossemeer,Oud-Vossemeer,467603.0711240999,6722559.389684085
716200000761788,716200000761788,Pr Willem-Alexanderstr,Pr. Willem-Alexanderstraat,4698CB,4698CB,19,19,,,,,Oud-Vossemeer,Oud-Vossemeer,467660.4015725839,6722599.640753624
716200000761789,716200000761789,Pr Willem-Alexanderstr,Pr. Willem-Alexanderstraat,4698CC,4698CC,20,20,,,,,Oud-Vossemeer,Oud-Vossemeer,467613.67514218285,6722558.033414087
716200000761790,716200000761790,Pr Willem-Alexanderstr,Pr. Willem-Alexanderstraat,4698CB,4698CB,21,21,,,,,Oud-Vossemeer,Oud-Vossemeer,467671.81170475826,6722598.088266104
716200000761791,716200000761791,Pr Willem-Alexanderstr,Pr. Willem-Alexanderstraat,4698CC,4698CC,22,22,,,,,Oud-Vossemeer,Oud-Vossemeer,467623.7383098153,6722556.362409264
716200000761792,716200000761792,Pr Willem-Alexanderstr,Pr. Willem-Alexanderstraat,4698CB,4698CB,23,23,,,,,Oud-Vossemeer,Oud-Vossemeer,467683.8055066526,6722596.19110006
716200000761793,716200000761793,Pr Willem-Alexanderstr,Pr. Willem-Alexanderstraat,4698CC,4698CC,24,24,,,,,Oud-Vossemeer,Oud-Vossemeer,467634.12175647967,6722554.744920176
716200000761794,716200000761794,Pr Willem-Alexanderstr,Pr. Willem-Alexanderstraat,4698CB,4698CB,25,25,,,,,Oud-Vossemeer,Oud-Vossemeer,467695.5761226289,6722594.193677096
716200000761795,716200000761795,Pr Willem-Alexanderstr,Pr. Willem-Alexanderstraat,4698CC,4698CC,26,26,,,,,Oud-Vossemeer,Oud-Vossemeer,467644.8283578118,6722553.003898734
716200000761796,716200000761796,Pr Willem-Alexanderstr,Pr. Willem-Alexanderstraat,4698CB,4698CB,27,27,,,,,Oud-Vossemeer,Oud-Vossemeer,467706.8777860148,6722592.397878332
716200000761797,716200000761797,Pr Willem-Alexanderstr,Pr. Willem-Alexanderstraat,4698CC,4698CC,28,28,,,,,Oud-Vossemeer,Oud-Vossemeer,467655.0962857715,6722551.57769064
716200000761798,716200000761798,Pr Willem-Alexanderstr,Pr. Willem-Alexanderstraat,4698CC,4698CC,30,30,,,,,Oud-Vossemeer,Oud-Vossemeer,467665.0475863664,6722549.87261076
716200000761799,716200000761799,Pr Willem-Alexanderstr,Pr. Willem-Alexanderstraat,4698CC,4698CC,32,32,,,,,Oud-Vossemeer,Oud-Vossemeer,467675.9478606144,6722548.070313167
716200000762998,716200000762998,Secretaris Rijstenbilstr,Secretaris Rijstenbilstraat,4698CA,4698CA,2,2,,,,,Oud-Vossemeer,Oud-Vossemeer,467524.17031411314,6722465.159100293
716200000762999,716200000762999,Secretaris Rijstenbilstr,Secretaris Rijstenbilstraat,4698CA,4698CA,3,3,,,,,Oud-Vossemeer,Oud-Vossemeer,467582.19422774157,6722516.031079158
716200000763000,716200000763000,Secretaris Rijstenbilstr,Secretaris Rijstenbilstraat,4698CA,4698CA,4,4,,,,,Oud-Vossemeer,Oud-Vossemeer,467535.24735165143,6722463.343801311
716200000763001,716200000763001,Secretaris Rijstenbilstr,Secretaris Rijstenbilstraat,4698CA,4698CA,5,5,,,,,Oud-Vossemeer,Oud-Vossemeer,467592.2371119702,6722514.617381092
716200000763002,716200000763002,Secretaris Rijstenbilstr,Secretaris Rijstenbilstraat,4698CA,4698CA,6,6,,,,,Oud-Vossemeer,Oud-Vossemeer,467545.64674963895,6722461.726706035
716200000763003,716200000763003,Secretaris Rijstenbilstr,Secretaris Rijstenbilstraat,4698CA,4698CA,7,7,,,,,Oud-Vossemeer,Oud-Vossemeer,467609.8900923291,6722511.299436706
716200000763004,716200000763004,Secretaris Rijstenbilstr,Secretaris Rijstenbilstraat,4698CA,4698CA,8,8,,,,,Oud-Vossemeer,Oud-Vossemeer,467556.4140587756,6722460.196104857
716200000763005,716200000763005,Secretaris Rijstenbilstr,Secretaris Rijstenbilstraat,4698CA,4698CA,9,9,,,,,Oud-Vossemeer,Oud-Vossemeer,467619.90164390166,6722509.836895486
716200000763006,716200000763006,Secretaris Rijstenbilstr,Secretaris Rijstenbilstraat,4698CA,4698CA,10,10,,,,,Oud-Vossemeer,Oud-Vossemeer,467579.7476387985,6722462.042320356
716200000763007,716200000763007,Secretaris Rijstenbilstr,Secretaris Rijstenbilstraat,4698CA,4698CA,11,11,,,,,Oud-Vossemeer,Oud-Vossemeer,467639.002273498,6722506.365436722
716200000763008,716200000763008,Secretaris Rijstenbilstr,Secretaris Rijstenbilstraat,4698CA,4698CA,12,12,,,,,Oud-Vossemeer,Oud-Vossemeer,467590.6855121556,6722460.884742577
716200000763009,716200000763009,Secretaris Rijstenbilstr,Secretaris Rijstenbilstraat,4698CA,4698CA,13,13,,,,,Oud-Vossemeer,Oud-Vossemeer,467648.56379944645,6722504.927711898
716200000763010,716200000763010,Secretaris Rijstenbilstr,Secretaris Rijstenbilstraat,4698CA,4698CA,14,14,,,,,Oud-Vossemeer,Oud-Vossemeer,467601.8125195199,6722458.957474999
716200000763011,716200000763011,Secretaris Rijstenbilstr,Secretaris Rijstenbilstraat,4698CA,4698CA,15,15,,,,,Oud-Vossemeer,Oud-Vossemeer,467658.6445159483,6722503.16036579
716200000763012,716200000763012,Secretaris Rijstenbilstr,Secretaris Rijstenbilstraat,4698CA,4698CA,16,16,,,,,Oud-Vossemeer,Oud-Vossemeer,467612.6826708386,6722457.025998002
716200000763013,716200000763013,Secretaris Rijstenbilstr,Secretaris Rijstenbilstraat,4698CA,4698CA,17,17,,,,,Oud-Vossemeer,Oud-Vossemeer,467668.60632099526,6722501.793549835
716200000763014,716200000763014,Secretaris Rijstenbilstr,Secretaris Rijstenbilstraat,4698CA,4698CA,18,18,,,,,Oud-Vossemeer,Oud-Vossemeer,467623.0133883377,6722455.681370316
716200000763015,716200000763015,Secretaris Rijstenbilstr,Secretaris Rijstenbilstraat,4698CA,4698CA,20,20,,,,,Oud-Vossemeer,Oud-Vossemeer,467646.4733056386,6722457.658249246
716200000763016,716200000763016,Secretaris Rijstenbilstr,Secretaris Rijstenbilstraat,4698CA,4698CA,22,22,,,,,Oud-Vossemeer,Oud-Vossemeer,467657.0953282989,6722456.173440769
716200000763017,716200000763017,Secretaris Rijstenbilstr,Secretaris Rijstenbilstraat,4698CA,4698CA,24,24,,,,,Oud-Vossemeer,Oud-Vossemeer,467668.0726079643,6722454.565623888
716200000763018,716200000763018,Secretaris Rijstenbilstr,Secretaris Rijstenbilstraat,4698CA,4698CA,26,26,,,,,Oud-Vossemeer,Oud-Vossemeer,467678.6745384588,6722452.339894776
716200000763019,716200000763019,Secretaris Rijstenbilstr,Secretaris Rijstenbilstraat,4698CA,4698CA,28,28,,,,,Oud-Vossemeer,Oud-Vossemeer,467706.4909303536,6722443.134344723
716200000762418,716200000762418,Campweg,Campweg,4675RB,4675PW,2,2,,,,,Sint Philipsland,Sint Philipsland,466040.69105199754,6730918.777001396
716200000754179,716200000754179,Burgemeester Bouwensestr,Burgemeester Bouwensestraat,4694EJ,4694EJ,16,16,,,,,Scherpenisse,Scherpenisse,456552.25626832806,6718266.654386191
716200000754181,716200000754181,Burgemeester Bouwensestr,Burgemeester Bouwensestraat,4694EJ,4694EJ,18,18,,,,,Scherpenisse,Scherpenisse,456543.3232184961,6718263.551604084
716200000754182,716200000754182,Burgemeester Bouwensestr,Burgemeester Bouwensestraat,4694EJ,4694EJ,18,18,a,a,,,Scherpenisse,Scherpenisse,456534.74626788753,6718260.278111822
716200000754192,716200000754192,Burgemeester Bouwensestr,Burgemeester Bouwensestraat,4694EJ,4694EJ,28,28,,,,,Scherpenisse,Scherpenisse,456520.1941145877,6718199.855627596
716200000754194,716200000754194,Burgemeester Bouwensestr,Burgemeester Bouwensestraat,4694EJ,4694EJ,30,30,,,,,Scherpenisse,Scherpenisse,456523.7251427413,6718190.73010002
716200000764002,716200000764002,van der Lek de Clercqpl,Van der Lek de Clercqplein,4696BZ,4696BZ,2,2,,,,,Stavenisse,Stavenisse,446630.43658202846,6725656.259818102
716200000754005,716200000754005,Burg v Vrijberghestr,Burgemeester van Vrijberghestraat,,,17,17,,,G04,G04,Tholen,Tholen,469384.62445904844,6716914.81087252
716200000754006,716200000754006,Burg v Vrijberghestr,Burgemeester van Vrijberghestraat,,,17,17,,,G05,G05,Tholen,Tholen,469382.75606673013,6716919.25332298
716200000761804,716200000761804,Pr Willem-Alexanderstr,Pr. Willem-Alexanderstraat,4698CC,,32,32,,,G05,G05,Oud-Vossemeer,Oud-Vossemeer,467706.4441354312,6722549.872098707
716200000753930,716200000753930,Burg v d Hoevenstr,Burgemeester van der Hoevenstraat,4691JK,4691JK,11,11,,,,,Tholen,Tholen,469297.5380264475,6716918.958057938
716200000752870,716200000752870,Anna van Bourgondiestr,Anna van Bourgondiestraat,,,19,19,,,G01,G01,Sint-Annaland,Sint-Annaland,456480.4621291743,6727585.229963964
716200000754127,716200000754127,Burgemeester Baasstr,Burgemeester Baasstraat,4697GV,,57,57,,,G01,G01,Sint-Annaland,Sint-Annaland,456016.08645971416,6728289.680120293
716200000754128,716200000754128,Burgemeester Baasstr,Burgemeester Baasstraat,4697GV,,57,57,,,G02,G02,Sint-Annaland,Sint-Annaland,456019.92189409997,6728292.696587194
716200000754129,716200000754129,Burgemeester Baasstr,Burgemeester Baasstraat,4697GV,,57,57,,,G03,G03,Sint-Annaland,Sint-Annaland,456023.5194998998,6728295.531606325
716200000754130,716200000754130,Burgemeester Baasstr,Burgemeester Baasstraat,4697GV,,57,57,,,G04,G04,Sint-Annaland,Sint-Annaland,456027.1328877375,6728298.383016252
716200000754131,716200000754131,Burgemeester Baasstr,Burgemeester Baasstraat,4697GV,,57,57,,,G05,G05,Sint-Annaland,Sint-Annaland,456030.7462781135,6728301.234425576
716200000754132,716200000754132,Burgemeester Baasstr,Burgemeester Baasstraat,4697GV,,57,57,,,G06,G06,Sint-Annaland,Sint-Annaland,456034.34389147797,6728304.06944289
716200000754133,716200000754133,Burgemeester Baasstr,Burgemeester Baasstraat,4697GV,,57,57,,,G07,G07,Sint-Annaland,Sint-Annaland,456037.9570022587,6728306.936956996
716200000754134,716200000754134,Burgemeester Baasstr,Burgemeester Baasstraat,4697GV,,57,57,,,G08,G08,Sint-Annaland,Sint-Annaland,456041.5233461698,6728309.723084334
716200000754138,716200000754138,Burgemeester Baasstr,Burgemeester Baasstraat,4697GV,,57,57,,,G12,G12,Sint-Annaland,Sint-Annaland,456051.43718986784,6728276.130503771
716200000754139,716200000754139,Burgemeester Baasstr,Burgemeester Baasstraat,4697GV,,57,57,,,G13,G13,Sint-Annaland,Sint-Annaland,456047.74433642626,6728273.229367806
716200000754140,716200000754140,Burgemeester Baasstr,Burgemeester Baasstraat,4697GV,,57,57,,,G14,G14,Sint-Annaland,Sint-Annaland,456044.0351368274,6728270.34405173
716200000754141,716200000754141,Burgemeester Baasstr,Burgemeester Baasstraat,4697GV,,57,57,,,G15,G15,Sint-Annaland,Sint-Annaland,456040.326224519,6728267.442629087
716200000754142,716200000754142,Burgemeester Baasstr,Burgemeester Baasstraat,4697GV,,57,57,,,G16,G16,Sint-Annaland,Sint-Annaland,456036.47444557375,6728264.442001711
716200000754047,716200000754047,Burg Versluijsstr,Burgemeester Versluijsstraat,,,20,20,,,G01,G01,Oud-Vossemeer,Oud-Vossemeer,467264.672753078,6722333.618424295
716200000754048,716200000754048,Burg Versluijsstr,Burgemeester Versluijsstraat,,,20,20,,,G02,G02,Oud-Vossemeer,Oud-Vossemeer,467259.8374765468,6722334.730578561
716200000754049,716200000754049,Burg Versluijsstr,Burgemeester Versluijsstraat,,,20,20,,,G03,G03,Oud-Vossemeer,Oud-Vossemeer,467254.9540399364,6722335.8419414805
716200000754050,716200000754050,Burg Versluijsstr,Burgemeester Versluijsstraat,,,20,20,,,G04,G04,Oud-Vossemeer,Oud-Vossemeer,467250.0866549303,6722336.95356448
716200000754051,716200000754051,Burg Versluijsstr,Burgemeester Versluijsstraat,,,20,20,,,G05,G05,Oud-Vossemeer,Oud-Vossemeer,467245.23558373586,6722338.049352842
716200000754052,716200000754052,Burg Versluijsstr,Burgemeester Versluijsstraat,,,20,20,,,G06,G06,Oud-Vossemeer,Oud-Vossemeer,467240.3842490367,6722339.161233171
716200000754053,716200000754053,Burg Versluijsstr,Burgemeester Versluijsstraat,,,20,20,,,G07,G07,Oud-Vossemeer,Oud-Vossemeer,467235.51686009293,6722340.272847824
716200000754054,716200000754054,Burg Versluijsstr,Burgemeester Versluijsstraat,,,20,20,,,G08,G08,Oud-Vossemeer,Oud-Vossemeer,467230.6494698322,6722341.384459695
716200000754055,716200000754055,Burg Versluijsstr,Burgemeester Versluijsstraat,,,20,20,,,G09,G09,Oud-Vossemeer,Oud-Vossemeer,467225.7981311897,6722342.49633171
716200000754056,716200000754056,Burg Versluijsstr,Burgemeester Versluijsstraat,,,20,20,,,G10,G10,Oud-Vossemeer,Oud-Vossemeer,467220.9146853595,6722343.607675088
716200000754057,716200000754057,Burg Versluijsstr,Burgemeester Versluijsstraat,,,20,20,,,G11,G11,Oud-Vossemeer,Oud-Vossemeer,467216.0472911476,6722344.719278605
716200000754058,716200000754058,Burg Versluijsstr,Burgemeester Versluijsstraat,,,20,20,,,G12,G12,Oud-Vossemeer,Oud-Vossemeer,467211.1959485598,6722345.831142288
716200000754059,716200000754059,Burg Versluijsstr,Burgemeester Versluijsstraat,,,20,20,,,G13,G13,Oud-Vossemeer,Oud-Vossemeer,467205.3938090782,6722347.152814818
716200000763955,716200000763955,Tweede Bosdreef,Tweede Bosdreef,4697AA,4697PM,1,1,,,,,Sint-Annaland,Sint-Annaland,454281.1358103592,6726957.790262603
716200000765027,716200000765027,Weth.C.J. Moerlandstraat,Wethouder C.J. Moerlandstraat,4696CP,4696CP,8,8,,,,,Stavenisse,Stavenisse,447027.9151396778,6725397.061516921
716200000765029,716200000765029,Weth.C.J. Moerlandstraat,Wethouder C.J. Moerlandstraat,4696CP,4696CP,10,10,,,,,Stavenisse,Stavenisse,447018.10476880684,6725401.949548994
716200000754291,716200000754291,Burgemeester v Doornstr,Burgemeester van Doornstraat,,,2,2,,,G08,G08,Poortvliet,Poortvliet,460914.9126480961,6717990.834108805
716200000754292,716200000754292,Burgemeester v Doornstr,Burgemeester van Doornstraat,,,2,2,,,G09,G09,Poortvliet,Poortvliet,460919.80072112393,6717992.173035607
716200000754296,716200000754296,Burgemeester v Doornstr,Burgemeester van Doornstraat,,,2,2,,,G13,G13,Poortvliet,Poortvliet,460942.1847657798,6718005.574329665
716200000754294,716200000754294,Burgemeester v Doornstr,Burgemeester van Doornstraat,,,2,2,,,G11,G11,Poortvliet,Poortvliet,460929.4012106902,6717994.799595835
716200000754298,716200000754298,Burgemeester v Doornstr,Burgemeester van Doornstraat,,,2,2,,,G15,G15,Poortvliet,Poortvliet,460939.6593914401,6718015.31412314
716200000765026,716200000765026,Weth.C.J. Moerlandstraat,Wethouder C.J. Moerlandstraat,4696CP,4696CP,7,7,,,,,Stavenisse,Stavenisse,447000.93601697084,6725359.010215663
716200000765028,716200000765028,Weth.C.J. Moerlandstraat,Wethouder C.J. Moerlandstraat,4696CP,4696CP,9,9,,,,,Stavenisse,Stavenisse,446992.28275798366,6725363.871725471
716200000765030,716200000765030,Weth.C.J. Moerlandstraat,Wethouder C.J. Moerlandstraat,4696CP,4696CP,11,11,,,,,Stavenisse,Stavenisse,446984.251157683,6725367.279369712
716200000765032,716200000765032,Weth.C.J. Moerlandstraat,Wethouder C.J. Moerlandstraat,4696CP,4696CP,13,13,,,,,Stavenisse,Stavenisse,446975.6193824866,6725371.851373737
716200000765034,716200000765034,Weth.C.J. Moerlandstraat,Wethouder C.J. Moerlandstraat,4696CP,4696CP,15,15,,,,,Stavenisse,Stavenisse,446968.46006793284,6725375.855277016
716200000765037,716200000765037,Weth.C.J. Moerlandstraat,Wethouder C.J. Moerlandstraat,4696CP,4696CP,20,20,,,,,Stavenisse,Stavenisse,446904.7981919368,6725344.309998549
716200000755384,716200000755384,Edisonweg,Linie,4691RB,,1,1,,,G04,G04,Tholen,Tholen,470202.5661754256,6716514.373577453
716200000765025,716200000765025,Weth.C.J. Moerlandstraat,Wethouder C.J. Moerlandstraat,4696CP,4696CP,5,5,,,,,Stavenisse,Stavenisse,447008.689445443,6725355.017509866
716200000765038,716200000765038,Weth.C.J. Moerlandstraat,Wethouder C.J. Moerlandstraat,4696CP,4696CP,22,22,,,,,Stavenisse,Stavenisse,446882.6221504903,6725312.276062046
716200000765039,716200000765039,Weth.C.J. Moerlandstraat,Wethouder C.J. Moerlandstraat,4696CP,4696CP,24,24,,,,,Stavenisse,Stavenisse,446880.9918776469,6725299.876336553
716200000765040,716200000765040,Weth.C.J. Moerlandstraat,Wethouder C.J. Moerlandstraat,4696CP,4696CP,26,26,,,,,Stavenisse,Stavenisse,446879.9597176208,6725288.985727526
716200000765041,716200000765041,Weth.C.J. Moerlandstraat,Wethouder C.J. Moerlandstraat,4696CP,4696CP,28,28,,,,,Stavenisse,Stavenisse,446877.4565981464,6725277.729124311
716200000765042,716200000765042,Weth.C.J. Moerlandstraat,Wethouder C.J. Moerlandstraat,4696CP,4696CP,30,30,,,,,Stavenisse,Stavenisse,446875.9433173561,6725266.797241716
716200000765043,716200000765043,Weth.C.J. Moerlandstraat,Wethouder C.J. Moerlandstraat,4696CP,4696CP,32,32,,,,,Stavenisse,Stavenisse,446873.63530824817,6725254.561933832
716200000765044,716200000765044,Weth.C.J. Moerlandstraat,Wethouder C.J. Moerlandstraat,4696CP,4696CP,36,36,,,,,Stavenisse,Stavenisse,446869.5911910542,6725238.976156047
716200000765045,716200000765045,Weth.C.J. Moerlandstraat,Wethouder C.J. Moerlandstraat,4696CP,4696CP,38,38,,,,,Stavenisse,Stavenisse,446865.051527505,6725229.2433354715
716200000765046,716200000765046,Weth.C.J. Moerlandstraat,Wethouder C.J. Moerlandstraat,4696CP,4696CP,40,40,,,,,Stavenisse,Stavenisse,446862.03947398503,6725219.4266582085
716200000765047,716200000765047,Weth.C.J. Moerlandstraat,Wethouder C.J. Moerlandstraat,4696CP,4696CP,42,42,,,,,Stavenisse,Stavenisse,446856.7766297975,6725209.712398809
716200000765048,716200000765048,Weth.C.J. Moerlandstraat,Wethouder C.J. Moerlandstraat,4696CP,4696CP,44,44,,,,,Stavenisse,Stavenisse,446851.09902365674,6725199.845361761
716200000765049,716200000765049,Weth.C.J. Moerlandstraat,Wethouder C.J. Moerlandstraat,4696CP,4696CP,46,46,,,,,Stavenisse,Stavenisse,446846.014931161,6725188.314616742
716201000000202,716201000000202,Weth.C.J. Moerlandstraat,Wethouder C.J. Moerlandstraat,4696CP,4696CP,34,34,,,,,Stavenisse,Stavenisse,446856.6416313958,6725252.775194435
716201000267182,716201000267182,Burg. Van Boeijenstraat,Burgemeester Van Boeijenstraat,4691DM,4691DM,2,2,,,,,Tholen,Tholen,468032.8424877599,6716389.948082326
716201000267327,716201000267327,Burg. Van Boeijenstraat,Burgemeester Van Boeijenstraat,4691DM,4691DM,24,24,,,,,Tholen,Tholen,468250.0691859037,6716565.3413024945
716201000267328,716201000267328,Burg. Van Boeijenstraat,Burgemeester Van Boeijenstraat,4691DM,4691DM,26,26,,,,,Tholen,Tholen,468244.1259056283,6716571.987061375
716201000267329,716201000267329,Burg. Van Boeijenstraat,Burgemeester Van Boeijenstraat,4691DM,4691DM,28,28,,,,,Tholen,Tholen,468238.611339833,6716578.316425985
716201000267306,716201000267306,Burg. Van Boeijenstraat,Burgemeester Van Boeijenstraat,4691DM,4691DM,30,30,,,,,Tholen,Tholen,468232.5316065972,6716584.66717417
716201000267295,716201000267295,Burg. Van Boeijenstraat,Burgemeester Van Boeijenstraat,4691DM,4691DM,32,32,,,,,Tholen,Tholen,468244.49898269866,6716612.635442847
716201000267297,716201000267297,Burg. Van Boeijenstraat,Burgemeester Van Boeijenstraat,4691DM,4691DM,34,34,,,,,Tholen,Tholen,468247.32888793846,6716621.407412448
716201000267299,716201000267299,Burg. Van Boeijenstraat,Burgemeester Van Boeijenstraat,4691DM,4691DM,36,36,,,,,Tholen,Tholen,468251.0246155672,6716629.128448907
716201000267301,716201000267301,Burg. Van Boeijenstraat,Burgemeester Van Boeijenstraat,4691DM,4691DM,38,38,,,,,Tholen,Tholen,468254.28995973285,6716637.268824093
716201000267305,716201000267305,Burg. Van Boeijenstraat,Burgemeester Van Boeijenstraat,4691DM,4691DM,42,42,,,,,Tholen,Tholen,468295.5206920166,6716607.930159567
716201000267303,716201000267303,Burg. Van Boeijenstraat,Burgemeester Van Boeijenstraat,4691DM,4691DM,40,40,,,,,Tholen,Tholen,468288.84230995714,6716613.992931445
716201000267263,716201000267263,Burg. Van Boeijenstraat,Burgemeester Van Boeijenstraat,4691DM,4691DM,44,44,,,,,Tholen,Tholen,468333.8592761182,6716645.6656262325
716201000267265,716201000267265,Burg. Van Boeijenstraat,Burgemeester Van Boeijenstraat,4691DM,4691DM,46,46,,,,,Tholen,Tholen,468325.78530523827,6716648.723117283
716201000267267,716201000267267,Burg. Van Boeijenstraat,Burgemeester Van Boeijenstraat,4691DM,4691DM,48,48,,,,,Tholen,Tholen,468319.0708304867,6716651.953904923
716201000267269,716201000267269,Burg. Van Boeijenstraat,Burgemeester Van Boeijenstraat,4691DM,4691DM,50,50,,,,,Tholen,Tholen,468310.52411154803,6716656.065501208
716201000267271,716201000267271,Burg. Van Boeijenstraat,Burgemeester Van Boeijenstraat,4691DM,4691DM,52,52,,,,,Tholen,Tholen,468302.13960393413,6716659.571605769
716201000267273,716201000267273,Burg. Van Boeijenstraat,Burgemeester Van Boeijenstraat,4691DM,4691DM,54,54,,,,,Tholen,Tholen,468264.7192136051,6716661.034241864
716201000267275,716201000267275,Burg. Van Boeijenstraat,Burgemeester Van Boeijenstraat,4691DM,4691DM,56,56,,,,,Tholen,Tholen,468268.9868614246,6716668.814471173
716201000267277,716201000267277,Burg. Van Boeijenstraat,Burgemeester Van Boeijenstraat,4691DM,4691DM,58,58,,,,,Tholen,Tholen,468272.31194670004,6716676.73544523
716201000267279,716201000267279,Burg. Van Boeijenstraat,Burgemeester Van Boeijenstraat,4691DM,4691DM,60,60,,,,,Tholen,Tholen,468275.61399626144,6716683.798568073
716201000267281,716201000267281,Burg. Van Boeijenstraat,Burgemeester Van Boeijenstraat,4691DM,4691DM,62,62,,,,,Tholen,Tholen,468279.5146431746,6716691.949307619
716201000267283,716201000267283,Burg. Van Boeijenstraat,Burgemeester Van Boeijenstraat,4691DM,4691DM,64,64,,,,,Tholen,Tholen,468282.57171932136,6716699.873989853
716201000267285,716201000267285,Burg. Van Boeijenstraat,Burgemeester Van Boeijenstraat,4691DM,4691DM,66,66,,,,,Tholen,Tholen,468286.26405904605,6716707.8089977475
716201000267287,716201000267287,Burg. Van Boeijenstraat,Burgemeester Van Boeijenstraat,4691DM,4691DM,68,68,,,,,Tholen,Tholen,468290.17319354357,6716715.535172445
716201000267289,716201000267289,Burg. Van Boeijenstraat,Burgemeester Van Boeijenstraat,4691DM,4691DM,70,70,,,,,Tholen,Tholen,468293.64693364926,6716723.89136288
716201000267291,716201000267291,Burg. Van Boeijenstraat,Burgemeester Van Boeijenstraat,4691DM,4691DM,72,72,,,,,Tholen,Tholen,468297.76625780924,6716731.619354262
716201000267293,716201000267293,Burg. Van Boeijenstraat,Burgemeester Van Boeijenstraat,4691DM,4691DM,74,74,,,,,Tholen,Tholen,468301.45677449234,6716739.768326166
716201000267429,716201000267429,Burg. Van Boeijenstraat,Burgemeester Van Boeijenstraat,4691DM,4691DM,1,1,,,,,Tholen,Tholen,468031.99491067027,6716469.452548722
716201000267431,716201000267431,Burg. Van Boeijenstraat,Burgemeester Van Boeijenstraat,4691DM,4691DM,3,3,,,,,Tholen,Tholen,468039.0174817023,6716474.940049061
716201000267433,716201000267433,Burg. Van Boeijenstraat,Burgemeester Van Boeijenstraat,4691DM,4691DM,5,5,,,,,Tholen,Tholen,468044.4428288743,6716480.668606305
716201000267435,716201000267435,Burg. Van Boeijenstraat,Burgemeester Van Boeijenstraat,4691DM,4691DM,7,7,,,,,Tholen,Tholen,468050.5204311245,6716485.55514152
716201000267437,716201000267437,Burg. Van Boeijenstraat,Burgemeester Van Boeijenstraat,4691DM,4691DM,9,9,,,,,Tholen,Tholen,468057.1041323796,6716491.888131974
716201000267439,716201000267439,Burg. Van Boeijenstraat,Burgemeester Van Boeijenstraat,4691DM,4691DM,11,11,,,,,Tholen,Tholen,468085.33068232605,6716518.4188200515
716201000267441,716201000267441,Burg. Van Boeijenstraat,Burgemeester Van Boeijenstraat,4691DM,4691DM,13,13,,,,,Tholen,Tholen,468092.24659894925,6716523.957659975
716201000267443,716201000267443,Burg. Van Boeijenstraat,Burgemeester Van Boeijenstraat,4691DM,4691DM,15,15,,,,,Tholen,Tholen,468097.463704098,6716529.470471722
716201000267445,716201000267445,Burg. Van Boeijenstraat,Burgemeester Van Boeijenstraat,4691DM,4691DM,17,17,,,,,Tholen,Tholen,468103.72902270296,6716535.849758502
716201000267447,716201000267447,Burg. Van Boeijenstraat,Burgemeester Van Boeijenstraat,4691DM,4691DM,19,19,,,,,Tholen,Tholen,468121.9243942431,6716552.640320894
716201000267449,716201000267449,Burg. Van Boeijenstraat,Burgemeester Van Boeijenstraat,4691DM,4691DM,21,21,,,,,Tholen,Tholen,468129.0323115402,6716559.406542695
716201000268070,716201000268070,Burg. Van Boeijenstraat,Burgemeester Van Boeijenstraat,4691DM,4691DM,4,4,,,,,Tholen,Tholen,468044.72461765585,6716413.40853932
716201000268067,716201000268067,Burg. Van Boeijenstraat,Burgemeester Van Boeijenstraat,4691DM,4691DM,10,10,,,,,Tholen,Tholen,468098.8094951327,6716462.072875007
716201000268099,716201000268099,Burg. Van Boeijenstraat,Burgemeester Van Boeijenstraat,4691DM,4691DM,23,23,,,,,Tholen,Tholen,468193.3946426866,6716629.194125506
716201000268100,716201000268100,Burg. Van Boeijenstraat,Burgemeester Van Boeijenstraat,4691DM,4691DM,25,25,,,,,Tholen,Tholen,468196.7082810222,6716637.718198741
716201000268101,716201000268101,Burg. Van Boeijenstraat,Burgemeester Van Boeijenstraat,4691DM,4691DM,27,27,,,,,Tholen,Tholen,468200.5415933285,6716644.46980805
716201000268102,716201000268102,Burg. Van Boeijenstraat,Burgemeester Van Boeijenstraat,4691DM,4691DM,29,29,,,,,Tholen,Tholen,468203.45318088157,6716651.561979707
716201000268103,716201000268103,Burg. Van Boeijenstraat,Burgemeester Van Boeijenstraat,4691DM,4691DM,31,31,,,,,Tholen,Tholen,468210.69052165974,6716669.685101991
716201000268104,716201000268104,Burg. Van Boeijenstraat,Burgemeester Van Boeijenstraat,4691DM,4691DM,33,33,,,,,Tholen,Tholen,468213.48068075144,6716677.341610523
716201000268105,716201000268105,Burg. Van Boeijenstraat,Burgemeester Van Boeijenstraat,4691DM,4691DM,35,35,,,,,Tholen,Tholen,468217.53566436184,6716684.37838462
716201000268106,716201000268106,Burg. Van Boeijenstraat,Burgemeester Van Boeijenstraat,4691DM,4691DM,37,37,,,,,Tholen,Tholen,468220.4636806332,6716691.84569909
716201000268107,716201000268107,Burg. Van Boeijenstraat,Burgemeester Van Boeijenstraat,4691DM,4691DM,39,39,,,,,Tholen,Tholen,468224.00035421446,6716700.373450662
716201000268120,716201000268120,Weth.C.J. Moerlandstraat,Wethouder C.J. Moerlandstraat,4696CP,4696CP,48,48,,,,,Stavenisse,Stavenisse,446877.04576402646,6725313.596010521
716201000268121,716201000268121,Weth.C.J. Moerlandstraat,Wethouder C.J. Moerlandstraat,4696CP,4696CP,50,50,,,,,Stavenisse,Stavenisse,446876.3255516562,6725304.141433442
716201000268122,716201000268122,Weth.C.J. Moerlandstraat,Wethouder C.J. Moerlandstraat,4696CP,4696CP,52,52,,,,,Stavenisse,Stavenisse,446873.7683522118,6725292.9417654425
716201000268123,716201000268123,Weth.C.J. Moerlandstraat,Wethouder C.J. Moerlandstraat,4696CP,4696CP,54,54,,,,,Stavenisse,Stavenisse,446874.02609492315,6725283.418724403
716201000268125,716201000268125,Weth.C.J. Moerlandstraat,Wethouder C.J. Moerlandstraat,4696CP,4696CP,58,58,,,,,Stavenisse,Stavenisse,446855.4022551429,6725224.62881672
716201000268126,716201000268126,Weth.C.J. Moerlandstraat,Wethouder C.J. Moerlandstraat,4696CP,4696CP,60,60,,,,,Stavenisse,Stavenisse,446851.10853559914,6725214.546339398
716201000268127,716201000268127,Weth.C.J. Moerlandstraat,Wethouder C.J. Moerlandstraat,4696CP,4696CP,62,62,,,,,Stavenisse,Stavenisse,446847.25865778717,6725204.694512417
716201000268128,716201000268128,Weth.C.J. Moerlandstraat,Wethouder C.J. Moerlandstraat,4696CP,4696CP,64,64,,,,,Stavenisse,Stavenisse,446841.20934344915,6725192.556065636
716201000268612,716201000268612,Weth.C.J. Moerlandstraat,Wethouder C.J. Moerlandstraat,4696CP,4696CP,16,16,,,,,Stavenisse,Stavenisse,446936.22741264757,6725397.697556727
716201000268696,716201000268696,Burg. Van Boeijenstraat,Burgemeester Van Boeijenstraat,4691DM,4691DM,41,41,,,,,Tholen,Tholen,468239.25522837124,6716734.526669296
716201000268697,716201000268697,Burg. Van Boeijenstraat,Burgemeester Van Boeijenstraat,4691DM,4691DM,43,43,,,,,Tholen,Tholen,468246.15948140045,6716749.739037035
716201000268698,716201000268698,Burg. Van Boeijenstraat,Burgemeester Van Boeijenstraat,4691DM,4691DM,45,45,,,,,Tholen,Tholen,468255.74933793565,6716769.453055238
716201000268699,716201000268699,Burg. Van Boeijenstraat,Burgemeester Van Boeijenstraat,4691DM,4691DM,47,47,,,,,Tholen,Tholen,468259.1672704911,6716778.283006492
716201000268700,716201000268700,Burg. Van Boeijenstraat,Burgemeester Van Boeijenstraat,4691DM,4691DM,49,49,,,,,Tholen,Tholen,468267.22105330986,6716793.958144604
716201000268701,716201000268701,Burg. Van Boeijenstraat,Burgemeester Van Boeijenstraat,4691DM,4691DM,51,51,,,,,Tholen,Tholen,468270.63216094446,6716803.013239748
716201000268702,716201000268702,Burg. Van Boeijenstraat,Burgemeester Van Boeijenstraat,4691DM,4691DM,53,53,,,,,Tholen,Tholen,468279.4268480881,6716821.895552518
716201000268703,716201000268703,Burg. Van Boeijenstraat,Burgemeester Van Boeijenstraat,4691DM,4691DM,55,55,,,,,Tholen,Tholen,468285.86371361086,6716838.336025897
716201000268646,716201000268646,Weth.C.J. Moerlandstraat,Wethouder C.J. Moerlandstraat,4696CP,4696CP,6,6,,,,,Stavenisse,Stavenisse,447052.2495730001,6725371.083686577
716201000269003,716201000269003,Burg. Van Boeijenstraat,Burgemeester Van Boeijenstraat,4691DM,4691DM,12,12,,,,,Tholen,Tholen,468118.9953894565,6716479.88987931
716200000764004,716200000764004,Van der Lek de Clercqpln,Van der Lek de Clercqplein,4696BZ,4696BZ,4,4,,,,,Stavenisse,Stavenisse,446610.03036624484,6725659.916162183
716200000754040,716200000754040,Burg Versluijsstr,Burgemeester Versluijsstraat,4698AS,4698AS,14,14,,,,,Oud-Vossemeer,Oud-Vossemeer,467180.77284668235,6722469.634361849
716201000268613,716201000268613,Burg Van Stapelestraat,Burgemeester Van Stapelestraat,4691DN,4691DN,1,1,,,,,Tholen,Tholen,468191.12304289645,6716712.413385071
716201000268614,716201000268614,Burg Van Stapelestraat,Burgemeester Van Stapelestraat,4691DN,4691DN,3,3,,,,,Tholen,Tholen,468183.1027587607,6716715.914050793
716201000268615,716201000268615,Burg Van Stapelestraat,Burgemeester Van Stapelestraat,4691DN,4691DN,5,5,,,,,Tholen,Tholen,468175.45966050116,6716720.00322564
716201000268616,716201000268616,Burg Van Stapelestraat,Burgemeester Van Stapelestraat,4691DN,4691DN,7,7,,,,,Tholen,Tholen,468168.0467686907,6716723.648893323
716201000268617,716201000268617,Burg Van Stapelestraat,Burgemeester Van Stapelestraat,4691DN,4691DN,9,9,,,,,Tholen,Tholen,468159.9524446201,6716727.955952612
716201000268618,716201000268618,Burg Van Stapelestraat,Burgemeester Van Stapelestraat,4691DN,4691DN,11,11,,,,,Tholen,Tholen,468152.3849474757,6716731.238725503
716201000269036,716201000269036,Burg Van Stapelestraat,Burgemeester Van Stapelestraat,4691DN,4691DN,25,25,,,,,Tholen,Tholen,468076.75997258426,6716809.039549364
716201000269033,716201000269033,Burg Van Stapelestraat,Burgemeester Van Stapelestraat,4691DN,4691DN,19,19,,,,,Tholen,Tholen,468110.52803015773,6716772.430244698
716201000269035,716201000269035,Burg Van Stapelestraat,Burgemeester Van Stapelestraat,4691DN,4691DN,23,23,,,,,Tholen,Tholen,468091.09272362565,6716793.657618786
716201000269031,716201000269031,Burg Van Stapelestraat,Burgemeester Van Stapelestraat,4691DN,4691DN,15,15,,,,,Tholen,Tholen,468131.53414957837,6716751.004803386
716201000269032,716201000269032,Burg Van Stapelestraat,Burgemeester Van Stapelestraat,4691DN,4691DN,17,17,,,,,Tholen,Tholen,468116.9899060525,6716765.48396288
716201000269030,716201000269030,Burg Van Stapelestraat,Burgemeester Van Stapelestraat,4691DN,4691DN,13,13,,,,,Tholen,Tholen,468137.55206359277,6716743.826071738
716201000269034,716201000269034,Burg Van Stapelestraat,Burgemeester Van Stapelestraat,4691DN,4691DN,21,21,,,,,Tholen,Tholen,468097.97677558573,6716788.2900064485
716201000269037,716201000269037,Burg Van Stapelestraat,Burgemeester Van Stapelestraat,4691DN,4691DN,27,27,,,,,Tholen,Tholen,468069.86340275954,6716815.07943766
716201000269038,716201000269038,Burg Van Stapelestraat,Burgemeester Van Stapelestraat,4691DN,4691DN,29,29,,,,,Tholen,Tholen,468056.9705187526,6716830.623160134
716200000754284,716200000754284,Burgemeester v Doornstr,Burgemeester van Doornstraat,,,2,2,,,G01,G01,Poortvliet,Poortvliet,460878.93235976505,6717978.55106189
716200000754285,716200000754285,Burgemeester v Doornstr,Burgemeester van Doornstraat,,,2,2,,,G02,G02,Poortvliet,Poortvliet,460877.96892637823,6717983.281251809
716200000754286,716200000754286,Burgemeester v Doornstr,Burgemeester van Doornstraat,,,2,2,,,G03,G03,Poortvliet,Poortvliet,460877.0068649321,6717987.931014899
716200000754287,716200000754287,Burgemeester v Doornstr,Burgemeester van Doornstraat,,,2,2,,,G04,G04,Poortvliet,Poortvliet,460876.0450769898,6717992.564694626
716200000754288,716200000754288,Burgemeester v Doornstr,Burgemeester van Doornstraat,,,2,2,,,G05,G05,Poortvliet,Poortvliet,460875.0821894604,6717997.262720471
