BAGNUMIDENTIFICATIE,B_NUMMERAANDUIDING,OPENBARERUIMTENAAM,B_OPENBARERUIMTE,POSTCODE,B_POSTCODE,HUISNUMMER,B_HUISNUMMER,HUISLETTER,B_HUISLETTER,HUISNUMMERTOEVOEGING,B_HUISNUMMERTOEVOEGING,WOONPLAATSNAAM,B_WOONPLAATSNAAM,x,y
828200001551617,828200001551617,Sibeliuspark,Sibeliuspark,5343BP,5343BP,531,533.0,,,,,Oss,Oss,615139.757759022,6755424.764266524
828200001574057,828200001574057,Sibeliuspark,Sibeliuspark,5343BP,5343BP,535,537.0,,,,,Oss,Oss,615139.757759022,6755424.764266524
828200001577815,828200001577815,Elleboogstraat,Elleboogstraat,5371LL,5352LP,1,1.0,,,,,Deursen-Dennenburg,Deursen-Dennenburg,627676.786111475,6763515.140492568
828200001577815,828200001577815,Elleboogstraat,Elleboogstraat,5371LL,5352LP,1,1.0,,,,,Deursen-Dennenburg,Deursen-Dennenburg,627676.786111475,6763515.140492568
828200001533445,828200001533445,Achterstraat,Achterstraat,5371KG,5353KG,1,1.0,,,,,Dieden,Dieden,624931.763332868,6767333.151461205
828200001576165,828200001576165,Achterstraat,Achterstraat,5371KG,5353KG,2,2.0,,,,,Dieden,Dieden,624731.522150927,6767403.766061511
828200001541277,828200001541277,Achterstraat,Achterstraat,5371KG,5353KG,3,3.0,,,,,Dieden,Dieden,624905.141833966,6767341.442864839
828200001552611,828200001552611,Achterstraat,Achterstraat,5371KG,5353KG,3,3.0,A,A,,,Dieden,Dieden,624868.0508342194,6767342.1186981825
828200001540577,828200001540577,Achterstraat,Achterstraat,5371KG,5353KG,3,3.0,B,B,,,Dieden,Dieden,624837.7850767594,6767346.687012298
828200001533447,828200001533447,Achterstraat,Achterstraat,5371KG,5353KG,4,4.0,,,,,Dieden,Dieden,624496.7533452659,6767498.41959174
828200001564195,828200001564195,Achterstraat,Achterstraat,5371KG,5353KG,5,5.0,,,,,Dieden,Dieden,624806.41099512,6767359.360050992
828200001521925,828200001521925,Achterstraat,Achterstraat,5371KG,5353KG,6,6.0,,,,,Dieden,Dieden,624444.3566933845,6767513.12760028
828200001573183,828200001573183,Achterstraat,Achterstraat,5371KG,5353KG,7,7.0,,,,,Dieden,Dieden,624574.8265985436,6767403.489878743
828200001533449,828200001533449,Achterstraat,Achterstraat,5371KG,5353KG,9,9.0,,,,,Dieden,Dieden,624509.89800326,6767369.893680509
828200001552857,828200001552857,Achterstraat,Achterstraat,5371KG,5353KG,13,13.0,A,A,,,Dieden,Dieden,624294.9650833185,6767502.294005725
828200001566191,828200001566191,Achterstraat,Achterstraat,5371KG,5353KG,15,15.0,,,,,Dieden,Dieden,624258.9424740413,6767505.218628306
828200001522477,828200001522477,Asboom,Asboom,5371RH,5357PL,1,1.0,,,,,Overlangel,Overlangel,631384.3764223427,6759833.596300967
828200001577533,828200001577533,Asboom,Asboom,5371RH,5357PL,3,3.0,,,,,Overlangel,Overlangel,631374.3166064519,6759836.208699167
828200001580041,828200001580041,Asboom,Asboom,5371RH,5357PL,5,5.0,,,,,Overlangel,Overlangel,631355.0107054117,6759841.223271436
828200001575901,828200001575901,Asboom,Asboom,5371RH,5357PL,7,7.0,,,,,Overlangel,Overlangel,631345.7662342527,6759843.625440996
828200001575903,828200001575903,Pastoor Blommaertstraat,Pastoor Blommaertstraat,5371RE,5357PJ,1,1.0,,,,,Overlangel,Overlangel,631460.6084706011,6759829.383170331
828200001579189,828200001579189,Pastoor Blommaertstraat,Pastoor Blommaertstraat,5371RG,5357PK,2,2.0,,,,,Overlangel,Overlangel,631485.7876504209,6759791.122182902
828200001552879,828200001552879,Pastoor Blommaertstraat,Pastoor Blommaertstraat,5371RE,5357PJ,3,3.0,,,,,Overlangel,Overlangel,631432.4465190963,6759827.619626497
828200001552629,828200001552629,Pastoor Blommaertstraat,Pastoor Blommaertstraat,5371RE,5357PJ,5,5.0,,,,,Overlangel,Overlangel,631407.8529866411,6759825.1417347565
828200001516265,828200001516265,Pastoor Blommaertstraat,Pastoor Blommaertstraat,5371RE,5357PJ,9,9.0,,,,,Overlangel,Overlangel,631324.2085791848,6759738.152914822
828200001541291,828200001541291,Pastoor Blommaertstraat,Pastoor Blommaertstraat,5371RE,5357PJ,11,11.0,,,,,Overlangel,Overlangel,631320.1315894065,6759715.140681546
828200001571605,828200001571605,Pastoor Blommaertstraat,Pastoor Blommaertstraat,5371RE,5357PJ,13,13.0,,,,,Overlangel,Overlangel,631316.5971820351,6759695.179551381
828200001521935,828200001521935,Pastoor Blommaertstraat,Pastoor Blommaertstraat,5371RG,5357PK,12,12.0,,,,,Overlangel,Overlangel,631417.1509908533,6759793.942424309
828200001540605,828200001540605,Pastoor Blommaertstraat,Pastoor Blommaertstraat,5371RE,5357PJ,15,15.0,,,,,Overlangel,Overlangel,631314.4366442426,6759682.980210265
828200001575999,828200001575999,Pastoor Blommaertstraat,Pastoor Blommaertstraat,5371RG,5357PK,16,16.0,,,,,Overlangel,Overlangel,631384.088354081,6759774.283070673
828200001552881,828200001552881,Pastoor Blommaertstraat,Pastoor Blommaertstraat,5371RE,5357PJ,17,17.0,,,,,Overlangel,Overlangel,631305.9928911369,6759656.941777201
828200001525963,828200001525963,Pastoor Blommaertstraat,Pastoor Blommaertstraat,5371RG,5357PK,18,18.0,,,,,Overlangel,Overlangel,631367.079780977,6759744.64913056
828200001536483,828200001536483,Pastoor Blommaertstraat,Pastoor Blommaertstraat,5371RG,5357PK,22,22.0,,,,,Overlangel,Overlangel,631358.4086507288,6759708.349034558
828200001579475,828200001579475,Pastoor Blommaertstraat,Pastoor Blommaertstraat,5371RG,5357PK,20,20.0,,,,,Overlangel,Overlangel,631360.4606478997,6759719.995763135
828200001521937,828200001521937,Pastoor Blommaertstraat,Pastoor Blommaertstraat,5371RG,5357PK,26,26.0,,,,,Overlangel,Overlangel,631357.0408780989,6759677.352159591
828200001526607,828200001526607,Pastoor Blommaertstraat,Pastoor Blommaertstraat,5371RG,5357PK,28,28.0,,,,,Overlangel,Overlangel,631342.1016433686,6759652.1639911365
828200001552631,828200001552631,Beemdenweg,Beemdenweg,5371NG,5358NG,3,3.0,,,,,Huisseling,Huisseling,626004.055376406,6761079.131576983
828200001573951,828200001573951,Beemdenweg,Beemdenweg,5371NH,5358NH,4,4.0,,,,,Huisseling,Huisseling,626031.6093910089,6760955.260310933
828200001590922,828200001590922,Bendelaar,Bendelaar,5371LK,5352KD,1,1.0,,,,,Deursen-Dennenburg,Deursen-Dennenburg,626376.1564769997,6762836.447709483
828200001558801,828200001558801,Roellstraat,Roellstraat,5344GE,5344GE,17,17.0,A,D,,,Oss,Oss,612740.6277046544,6756149.088025804
828200001558799,828200001558799,Roellstraat,Roellstraat,5344GE,5344GE,17,17.0,B,C,,,Oss,Oss,612738.7005235836,6756153.778798982
828200001558797,828200001558797,Roellstraat,Roellstraat,5344GE,5344GE,17,17.0,C,B,,,Oss,Oss,612737.5680781236,6756159.402589601
828200001558529,828200001558529,Roellstraat,Roellstraat,5344GE,5344GE,17,17.0,D,A,,,Oss,Oss,612733.0739585165,6756163.9714335315
828200001552903,828200001552903,Beving,Beving,5371NE,5358NE,1,1.0,,,,,Huisseling,Huisseling,626268.6945261653,6761780.929000682
828200001578055,828200001578055,De Blauwe Kei,De Blauwe Kei,5371CZ,5356NA,1,1.0,,,,,Neerloon,Neerloon,630295.7058473238,6762245.673708319
828200001552915,828200001552915,De Blauwe Kei,De Blauwe Kei,5371CZ,5356NA,2,2.0,,,,,Neerloon,Neerloon,630279.9634080979,6762261.607361881
828200001559147,828200001559147,Daalderstraatje,Daalderstraatje,5371NX,5358NS,1,1.0,,,,,Huisseling,Huisseling,629022.2231072667,6762335.618794777
828200001569013,828200001569013,Daalderstraatje,Daalderstraatje,5371NX,5358NS,2,2.0,,,,,Huisseling,Huisseling,628789.5663627443,6762390.33396234
828200001575703,828200001575703,Daalderstraatje,Daalderstraatje,5371NX,5358NS,3,3.0,,,,,Huisseling,Huisseling,629045.7390086461,6762313.950468321
828200001539067,828200001539067,Daalderstraatje,Daalderstraatje,5371NX,5358NS,3,3.0,A,A,,,Huisseling,Huisseling,629022.3960544438,6762286.596590086
828200001538053,828200001538053,Daalderstraatje,Daalderstraatje,5371NX,5358NS,4,4.0,,,,,Huisseling,Huisseling,629014.7629146657,6762261.228785078
828200001577905,828200001577905,Daalderstraatje,Daalderstraatje,5371NX,5358NS,5,5.0,,,,,Huisseling,Huisseling,629096.2130177035,6762257.532243253
828200001538055,828200001538055,Daalderstraatje,Daalderstraatje,5371NX,5358NS,7,7.0,,,,,Huisseling,Huisseling,629132.1677382434,6762230.326653795
828200001554471,828200001554471,Den Dam,Den Dam,5371NK,5358NZ,2,2.0,,,,,Huisseling,Huisseling,628526.9575506061,6760825.797564981
828200001591964,828200001591964,Den Dam,Den Dam,5371NK,5358NZ,4,4.0,,,,,Huisseling,Huisseling,628498.5405597001,6760761.605741564
828200001567015,828200001567015,Dorpenweg,Dorpenweg,5371KS,5352LB,21,21.0,,,,,Deursen-Dennenburg,Deursen-Dennenburg,627770.7075998214,6763747.005488806
828200001552243,828200001552243,Dorpenweg,Dorpenweg,5371KS,5352LB,25,25.0,,,,,Deursen-Dennenburg,Deursen-Dennenburg,627618.7755341055,6763772.125300573
828200001570193,828200001570193,Dorpenweg,Dorpenweg,5371KS,5352LB,23,23.0,,,,,Deursen-Dennenburg,Deursen-Dennenburg,627640.1970015684,6763774.474855389
828200001535375,828200001535375,Dorpenweg,Dorpenweg,5371KS,5352LB,33,33.0,,,,,Deursen-Dennenburg,Deursen-Dennenburg,626136.5170650836,6764115.953381072
828200001539075,828200001539075,Dorpenweg,Dorpenweg,5371KS,5352LB,35,35.0,,,,,Deursen-Dennenburg,Deursen-Dennenburg,626070.5021214732,6764146.6981652565
828200001579447,828200001579447,Sibeliuspark,Sibeliuspark,5343BR,5343BR,631,633.0,,,,,Oss,Oss,615139.757759022,6755424.764266524
828200001567093,828200001567093,Sibeliuspark,Sibeliuspark,5343BK,5343BK,155,153.0,,,,,Oss,Oss,615139.757759022,6755424.764266524
828200001563357,828200001563357,Boschakker,Boschakker,5371NS,5358PA,1,1.0,,,,,Huisseling,Huisseling,628605.7499778182,6760976.659988502
828200001534025,828200001534025,Boschakker,Boschakker,5371NS,5358PA,2,2.0,,,,,Huisseling,Huisseling,628490.3541910816,6761031.805272041
828200001516287,828200001516287,Burg. Canersstraat,Burg. Canersstraat,5371KN,5354KE,1,1.0,,,,,Demen,Demen,627568.0100058003,6766611.993274351
828200001577797,828200001577797,Burg. Canersstraat,Burg. Canersstraat,5371KN,5354KE,1,1.0,A,A,,,Demen,Demen,627761.5613900999,6766528.459970867
828200001577863,828200001577863,Burg. Canersstraat,Burg. Canersstraat,5371KN,5354KE,3,3.0,,,,,Demen,Demen,627372.3265214986,6766725.225301028
828200001521963,828200001521963,Burg. Canersstraat,Burg. Canersstraat,5371KN,5354KE,4,4.0,,,,,Demen,Demen,627509.4371850344,6766683.326038731
828200001539049,828200001539049,Burg. Canersstraat,Burg. Canersstraat,5371KN,5354KE,4,4.0,A,A,,,Demen,Demen,627491.9837600878,6766724.1747595575
828200001578495,828200001578495,Burg. Canersstraat,Burg. Canersstraat,5371KN,5354KE,5,5.0,,,,,Demen,Demen,627086.4948368658,6766816.599341504
828200001534041,828200001534041,Burg. Canersstraat,Burg. Canersstraat,5371KN,5354KE,6,6.0,,,,,Demen,Demen,627301.0515967557,6766821.950840227
828200001539051,828200001539051,Burg. Canersstraat,Burg. Canersstraat,5371KN,5354KE,9,9.0,,,,,Demen,Demen,626936.7346812419,6766854.815349291
828200001539051,828200001539051,Burg. Canersstraat,Burg. Canersstraat,5371KN,5354KE,9,9.0,,,,,Demen,Demen,626936.7346812419,6766854.815349291
828200001516289,828200001516289,Burg. Canersstraat,Burg. Canersstraat,5371KN,5354KE,10,10.0,,,,,Demen,Demen,627043.8905027143,6766872.49344753
828200001534043,828200001534043,Burg. Canersstraat,Burg. Canersstraat,5371KN,5354KE,12,12.0,,,,,Demen,Demen,627008.3026008368,6766880.183988786
828200001566873,828200001566873,Burg. Canersstraat,Burg. Canersstraat,5371KN,5354KE,14,14.0,,,,,Demen,Demen,626975.3659442317,6766886.568947222
828200001560843,828200001560843,Colijnstraat,Colijnstraat,5344GH,5344GH,15,15.0,A,F,,,Oss,Oss,612651.8766668227,6756101.384722021
828200001510029,828200001510029,Dortestraat,Dortestraat,5371NM,5358NK,1,1.0,,,,,Huisseling,Huisseling,627313.5330054648,6761127.306036486
828200001531075,828200001531075,Dortestraat,Dortestraat,5371NM,5358NK,2,2.0,,,,,Huisseling,Huisseling,627036.164204531,6761250.724164957
828200001526665,828200001526665,Dortestraat,Dortestraat,5371NM,5358NK,4,4.0,,,,,Huisseling,Huisseling,627149.2561774171,6761180.293773433
828200001551491,828200001551491,Dijkstraatje,Dijkstraatje,5371LP,5355KD,1,1.0,,,,,Neerlangel,Neerlangel,628141.1261398831,6766255.4436095515
828200001521849,828200001521849,Elleboogstraat,Elleboogstraat,5371LL,5352LP,3,3.0,,,,,Deursen-Dennenburg,Deursen-Dennenburg,627478.8982334796,6763583.012413077
828200001567469,828200001567469,Galgenstraat,Galgenstraat,5371LW,5352KJ,1,1.0,,,,,Deursen-Dennenburg,Demen,625503.9174725757,6764995.223560182
828200001574805,828200001574805,Bredestraat,Bredestraat,5371LV,5352KH,29,29.0,,,,,Berghem,Deursen-Dennenburg,623050.2583826324,6760436.825356635
828200001539031,828200001539031,Brinkstraat,Brinkstraat,5371RZ,5357PN,1,1.0,,,,,Overlangel,Overlangel,631236.8199370925,6759584.58385845
828200001510005,828200001510005,Brinkstraat,Brinkstraat,5371RZ,5357PN,3,3.0,,,,,Overlangel,Overlangel,631217.2613838603,6759552.243503179
828200001577793,828200001577793,Brinkstraat,Brinkstraat,5371RZ,5357PN,5,5.0,,,,,Overlangel,Overlangel,631196.250837751,6759531.825373308
828200001564481,828200001564481,Brinkstraat,Brinkstraat,5371RZ,5357PN,7,7.0,,,,,Overlangel,Overlangel,631174.5339566992,6759514.741234217
828200001579029,828200001579029,Etruskenweg,Etruskenweg,5349AZ,5349AZ,32,32.0,F,D,,,Oss,Oss,618910.1436525936,6757514.038280798
828200001557479,828200001557479,Colijnstraat,Colijnstraat,5344GH,5344GH,15,15.0,B,E,,,Oss,Oss,612649.4670593481,6756106.884433443
828200001557477,828200001557477,Colijnstraat,Colijnstraat,5344GH,5344GH,15,15.0,C,D,,,Oss,Oss,612648.6666094883,6756110.441854018
828200001557473,828200001557473,Colijnstraat,Colijnstraat,5344GH,5344GH,15,15.0,D,C,,,Oss,Oss,612646.0952550899,6756115.618544819
828200001557467,828200001557467,Colijnstraat,Colijnstraat,5344GH,5344GH,15,15.0,E,B,,,Oss,Oss,612643.8448012394,6756119.824866595
828200001569849,828200001569849,Colijnstraat,Colijnstraat,5344GH,5344GH,15,15.0,F,A,,,Oss,Oss,612641.5953770065,6756124.677759642
828200001537657,828200001537657,Dorpenweg,Dorpenweg,5371KS,5352LB,31,31.0,,,,,Deursen-Dennenburg,Deursen-Dennenburg,626433.9371535149,6764077.4793782495
828200001571353,828200001571353,Rondestraat,Rondestraat,5371LC,5352LK,20,20.0,,,,,Deursen-Dennenburg,Deursen-Dennenburg,626524.0160624799,6764412.361203971
828200001586388,828200001586388,De Jas,De Jas,5371RJ,5357PM,9,9.0,,,,,Overlangel,Overlangel,631126.0837329135,6759851.507065152
828200001557647,828200001557647,Loonsestraat,Loonsestraat,5371PJ,5356PB,15,15.0,,,,,Neerloon,Neerloon,632208.1407168274,6761310.196582017
828200001569013,828200001569013,Daalderstraatje,Daalderstraatje,5371NX,5358NS,2,2.0,,,,,Huisseling,Huisseling,628789.5663627443,6762390.33396234
828200001569013,828200001569013,Daalderstraatje,Daalderstraatje,5371NX,5358NS,2,2.0,,,,,Huisseling,Huisseling,628789.5663627443,6762390.33396234
828200001528239,828200001528239,Dr. Ruijsstraat,Dr. Ruijsstraat,5371PS,5357PD,5,5.0,,,,,Overlangel,Overlangel,631149.8363910085,6759665.761880685
828200001528239,828200001528239,Dr. Ruijsstraat,Dr. Ruijsstraat,5371PS,5357PD,5,5.0,,,,,Overlangel,Overlangel,631149.8363910085,6759665.761880685
828200001566475,828200001566475,De Rijt,De Rijt,5371LH,5352KC,14,14.0,,,,,Deursen-Dennenburg,Deursen-Dennenburg,625610.7003496632,6763496.221585165
828200001587902,828200001587902,Kromstraat,Kromstraat,5371PP,5357PB,7,7.0,,,,,Overlangel,Overlangel,631938.4827032875,6760199.536842088
828200001587815,828200001587815,De Jas,De Jas,5371RJ,5357PM,8,8.0,,,,,Overlangel,Overlangel,631207.6827502258,6759820.341444804
828200001586406,828200001586406,De Jas,De Jas,5371RJ,5357PM,28,28.0,,,,,Overlangel,Overlangel,631114.1800814985,6759821.608246051
828200001577677,828200001577677,Osstraat,Osstraat,5371KL,5352KA,4,4.0,,,,,Deursen-Dennenburg,Deursen-Dennenburg,625713.4962872504,6764784.352023472
828200001541061,828200001541061,Kortestraat,Kortestraat,5371KC,5353KC,1,1.0,,,,,Dieden,Dieden,624156.6822190508,6767722.886351467
828200001536963,828200001536963,Kerkstraat,Kerkstraat,5371PW,5357PH,28,28.0,,,,,Overlangel,Overlangel,631626.5017553908,6759845.843274597
828200001532773,828200001532773,Maasdijk,Maasdijk,5371PE,5356NC,27,27.0,,,,,Neerloon,Neerloon,630695.3750007555,6762612.314352412
828200001571299,828200001571299,Dokter Willemsstraat,Dr. Willemsstraat,5398HL,5398HL,1,1.0,,,,,Maren-Kessel,Maren-Kessel,600531.8885809989,6763111.886153062
828200001570953,828200001570953,Dokter Willemsstraat,Dr. Willemsstraat,5398HM,5398HM,2,2.0,,,,,Maren-Kessel,Maren-Kessel,600579.2944057263,6763184.580953323
828200001505889,828200001505889,Dokter Willemsstraat,Dr. Willemsstraat,5398HL,5398HL,3,3.0,,,,,Maren-Kessel,Maren-Kessel,600554.5129245364,6763120.692730652
828200001562071,828200001562071,Dokter Willemsstraat,Dr. Willemsstraat,5398HM,5398HM,4,4.0,,,,,Maren-Kessel,Maren-Kessel,600757.2288387648,6763223.430830557
828200001562073,828200001562073,Dokter Willemsstraat,Dr. Willemsstraat,5398HL,5398HL,5,5.0,,,,,Maren-Kessel,Maren-Kessel,600594.9369981957,6763138.961486706
828200001561637,828200001561637,Dokter Willemsstraat,Dr. Willemsstraat,5398HM,5398HM,6,6.0,,,,,Maren-Kessel,Maren-Kessel,600760.2708137084,6763212.78185015
828200001561639,828200001561639,Dokter Willemsstraat,Dr. Willemsstraat,5398HL,5398HL,7,7.0,,,,,Maren-Kessel,Maren-Kessel,600603.8932158645,6763142.666889332
828200001561665,828200001561665,Dokter Willemsstraat,Dr. Willemsstraat,5398HM,5398HM,8,8.0,,,,,Maren-Kessel,Maren-Kessel,600773.052389422,6763198.400858874
828200001508437,828200001508437,Dokter Willemsstraat,Dr. Willemsstraat,5398HL,5398HL,9,9.0,,,,,Maren-Kessel,Maren-Kessel,600612.7590725645,6763146.335084286
828200001506051,828200001506051,Dokter Willemsstraat,Dr. Willemsstraat,5398HM,5398HM,10,10.0,,,,,Maren-Kessel,Maren-Kessel,600775.3614859643,6763185.943274341
828200001506053,828200001506053,Dokter Willemsstraat,Dr. Willemsstraat,5398HL,5398HL,11,11.0,,,,,Maren-Kessel,Maren-Kessel,600621.7153066905,6763150.042088309
828200001506055,828200001506055,Dokter Willemsstraat,Dr. Willemsstraat,5398HM,5398HM,12,12.0,,,,,Maren-Kessel,Maren-Kessel,600782.5978499627,6763167.175527725
828200001506057,828200001506057,Dokter Willemsstraat,Dr. Willemsstraat,5398HL,5398HL,13,13.0,,,,,Maren-Kessel,Maren-Kessel,600640.4523539788,6763157.234332392
828200001562075,828200001562075,Dokter Willemsstraat,Dr. Willemsstraat,5398HM,5398HM,14,14.0,,,,,Maren-Kessel,Maren-Kessel,600789.4982964653,6763158.457761047
828200001508439,828200001508439,Dokter Willemsstraat,Dr. Willemsstraat,5398HL,5398HL,15,15.0,,,,,Maren-Kessel,Maren-Kessel,600650.6560435286,6763161.53166601
828200001506059,828200001506059,Dokter Willemsstraat,Dr. Willemsstraat,5398HM,5398HM,16,16.0,,,,,Maren-Kessel,Maren-Kessel,600799.1280567002,6763142.5953345215
828200001506061,828200001506061,Dokter Willemsstraat,Dr. Willemsstraat,5398HL,5398HL,17,17.0,,,,,Maren-Kessel,Maren-Kessel,600728.5877848746,6763186.214792864
828200001506063,828200001506063,Dokter Willemsstraat,Dr. Willemsstraat,5398HM,5398HM,18,18.0,,,,,Maren-Kessel,Maren-Kessel,600798.880923103,6763129.089837304
828200001508441,828200001508441,Dokter Willemsstraat,Dr. Willemsstraat,5398HL,5398HL,19,19.0,,,,,Maren-Kessel,Maren-Kessel,600732.5771486468,6763176.680429687
828200001508443,828200001508443,Dokter Willemsstraat,Dr. Willemsstraat,5398HL,5398HL,21,21.0,,,,,Maren-Kessel,Maren-Kessel,600735.6433450298,6763166.0444589965
828200001508445,828200001508445,Dokter Willemsstraat,Dr. Willemsstraat,5398HL,5398HL,23,23.0,,,,,Maren-Kessel,Maren-Kessel,600744.7372569985,6763148.44299695
828200001562077,828200001562077,Dokter Willemsstraat,Dr. Willemsstraat,5398HL,5398HL,25,25.0,,,,,Maren-Kessel,Maren-Kessel,600746.7690169414,6763137.381709043
828200001506065,828200001506065,Dokter Willemsstraat,Dr. Willemsstraat,5398HL,5398HL,27,27.0,,,,,Maren-Kessel,Maren-Kessel,600756.8913673023,6763124.293859663
828200001570971,828200001570971,Dokter Willemsstraat,Dr. Willemsstraat,5398HL,5398HL,29,29.0,,,,,Maren-Kessel,Maren-Kessel,600765.0690879254,6763110.104549954
828200001584058,828200001584058,Osstraat,Osstraat,5371KL,5352KA,2,2.0,A,A,,,Deursen-Dennenburg,Deursen-Dennenburg,625701.3690173452,6764720.485794927
828200001584124,828200001584124,Osstraat,Osstraat,5371KL,5352KA,2,2.0,B,B,,,Deursen-Dennenburg,Deursen-Dennenburg,625690.2420590079,6764722.942371483
828200001584046,828200001584046,Osstraat,Osstraat,5371KL,5352KA,2,2.0,C,C,,,Deursen-Dennenburg,Deursen-Dennenburg,625693.9931811589,6764738.629468915
828200001584060,828200001584060,Osstraat,Osstraat,5371KL,5352KA,2,2.0,D,D,,,Deursen-Dennenburg,Deursen-Dennenburg,625696.0258949585,6764749.42724913
828200001584094,828200001584094,Osstraat,Osstraat,5371KL,5352KA,2,2.0,E,E,,,Deursen-Dennenburg,Deursen-Dennenburg,625698.4809708657,6764760.066722412
828200001519309,828200001519309,St. Wilbertstraat,St. Wilbertstraat,5371KR,5354KG,3,3.0,,,,,Demen,Demen,626718.4735286651,6766834.33465516
828200001586390,828200001586390,De Jas,De Jas,5371RJ,5357PM,10,10.0,,,,,Overlangel,Overlangel,631214.668651374,6759783.37329618
828200001586392,828200001586392,De Jas,De Jas,5371RJ,5357PM,12,12.0,,,,,Overlangel,Overlangel,631214.9754681959,6759775.15692777
828200001586394,828200001586394,De Jas,De Jas,5371RJ,5357PM,14,14.0,,,,,Overlangel,Overlangel,631215.4477344948,6759766.3480422
828200001586396,828200001586396,De Jas,De Jas,5371RJ,5357PM,16,16.0,,,,,Overlangel,Overlangel,631215.5839080657,6759758.218066366
828200001586398,828200001586398,De Jas,De Jas,5371RJ,5357PM,20,20.0,,,,,Overlangel,Overlangel,631170.9178521096,6759817.936207248
828200001586400,828200001586400,De Jas,De Jas,5371RJ,5357PM,22,22.0,,,,,Overlangel,Overlangel,631162.3051610636,6759817.7158855535
828200001586402,828200001586402,De Jas,De Jas,5371RJ,5357PM,24,24.0,,,,,Overlangel,Overlangel,631154.0308705217,6759817.410143396
828200001586404,828200001586404,De Jas,De Jas,5371RJ,5357PM,26,26.0,,,,,Overlangel,Overlangel,631145.0810674296,6759817.19111693
828200001508495,828200001508495,Prelaat van de Bergplein,Prelaat van den Bergplein,5396PH,5396PH,4,4.0,,,,,Lithoijen,Lithoijen,608161.1385911015,6764263.237230387
828200001532251,828200001532251,Stationssingel,Baxenbosstraat,5371BB,5371BD,123,1.0,,,,,Ravenstein,Ravenstein,627274.8773051901,6762879.729200167
828200001578307,828200001578307,Prelaat van de Bergplein,Prelaat van den Bergplein,5396PH,5396PH,1,1.0,,,,,Lithoijen,Lithoijen,608190.5269733478,6764225.90733474
828200001508665,828200001508665,Prelaat van de Bergplein,Prelaat van den Bergplein,5396PH,5396PH,3,3.0,,,,,Lithoijen,Lithoijen,608231.3911179611,6764229.787908903
828200001561493,828200001561493,Prelaat van de Bergplein,Prelaat van den Bergplein,5396PH,5396PH,5,5.0,,,,,Lithoijen,Lithoijen,608275.4051640934,6764204.304121732
828200001505195,828200001505195,Prelaat van de Bergplein,Prelaat van den Bergplein,5396PH,5396PH,7,7.0,,,,,Lithoijen,Lithoijen,608318.3764198463,6764245.603879127
828200001505197,828200001505197,Prelaat van de Bergplein,Prelaat van den Bergplein,5396PH,5396PH,9,9.0,,,,,Lithoijen,Lithoijen,608379.0612872178,6764262.020096164
828200001508669,828200001508669,Prelaat van de Bergplein,Prelaat van den Bergplein,5396PH,5396PH,11,11.0,,,,,Lithoijen,Lithoijen,608415.1837034029,6764276.014390082
828200001587908,828200001587908,Dorpenweg,Dorpenweg,5371KS,5352LB,37,37.0,,,,,Deursen-Dennenburg,Deursen-Dennenburg,625974.7215069043,6764229.580320753
828200001586386,828200001586386,De Jas,De Jas,5371RJ,5357PM,5,5.0,,,,,Overlangel,Overlangel,631179.1719645269,6759915.317904715
828200001571353,828200001571353,Rondestraat,Rondestraat,5371LC,5352LK,20,20.0,,,,,Deursen-Dennenburg,Deursen-Dennenburg,626524.0160624799,6764412.361203971
828200001571353,828200001571353,Rondestraat,Rondestraat,5371LC,5352LK,20,20.0,,,,,Deursen-Dennenburg,Deursen-Dennenburg,626524.0160624799,6764412.361203971
828200001570901,828200001570901,Prelaat van de Bergplein,Prelaat van den Bergplein,5396PH,5396PH,7,7.0,C,C,,,Lithoijen,Lithoijen,608350.0321516244,6764248.176622081
828200001548999,828200001548999,Kromstraat,Kromstraat,5371PP,5357PB,1,1.0,A,A,,,Overlangel,Overlangel,631619.8778277724,6759966.571302321
828200001532081,828200001532081,Kromstraat,Kromstraat,5371PP,5357PB,2,2.0,,,,,Overlangel,Overlangel,631675.4260055176,6760001.383251712
828200001532537,828200001532537,Kromstraat,Kromstraat,5371PP,5357PB,3,3.0,,,,,Overlangel,Overlangel,631648.8697699517,6760110.579232881
828200001513917,828200001513917,Kromstraat,Kromstraat,5371PP,5357PB,4,4.0,,,,,Overlangel,Overlangel,631999.0631796735,6760175.92715622
828200001517527,828200001517527,Kromstraat,Kromstraat,5371PP,5357PB,5,5.0,,,,,Overlangel,Overlangel,631744.129336933,6760178.807868634
828200001557113,828200001557113,Kromstraat,Kromstraat,5371PP,5357PB,8,8.0,,,,,Overlangel,Overlangel,632242.7241956821,6760313.692600467
828200001509399,828200001509399,Kromstraat,Kromstraat,5371PP,5357PB,9,9.0,,,,,Overlangel,Overlangel,632052.5110440402,6760334.1506703235
828200001510079,828200001510079,Weegstraat,Weegstraat,5371ND,5358ND,1,1.0,,,,,Huisseling,Huisseling,627438.4413211222,6761956.293227356
828200001575321,828200001575321,Weijenstraat,Weijenstraat,5371LX,5353KL,10,10.0,,,,,Dieden,Dieden,624845.5320742739,6766236.203771625
828200001523169,828200001523169,Burg. van de Wielstraat,Burg. van de Wielstraat,5371NA,5358NA,1,1.0,,,,,Huisseling,Huisseling,627938.8131137697,6761975.513930391
828200001567881,828200001567881,Burg. van de Wielstraat,Burg. van de Wielstraat,5371NA,5358NA,1,1.0,A,A,,,Huisseling,Huisseling,627904.1108672374,6761915.491760385
828200001514235,828200001514235,Burg. van de Wielstraat,Burg. van de Wielstraat,5371NA,5358NA,2,2.0,,,,,Huisseling,Huisseling,627948.6575867785,6761872.449150597
828200001520615,828200001520615,Burg. van de Wielstraat,Burg. van de Wielstraat,5371NA,5358NA,4,4.0,,,,,Huisseling,Huisseling,627943.3461194509,6761896.978855854
828200001540685,828200001540685,Burg. van de Wielstraat,Burg. van de Wielstraat,5371NA,5358NA,5,5.0,,,,,Huisseling,Huisseling,627864.658055125,6762309.18037208
828200001544981,828200001544981,Burg. van de Wielstraat,Burg. van de Wielstraat,5371NA,5358NA,6,6.0,,,,,Huisseling,Huisseling,627936.7191800015,6761926.927283966
828200001566641,828200001566641,Burg. van de Wielstraat,Burg. van de Wielstraat,5371NA,5358NA,7,7.0,,,,,Huisseling,Huisseling,627897.3418669289,6762319.616631833
828200001562377,828200001562377,St. Wilbertstraat,St. Wilbertstraat,5371KR,5354KG,1,1.0,,,,,Demen,Demen,626813.834956876,6766872.165872499
828200001540687,828200001540687,St. Wilbertstraat,St. Wilbertstraat,5371KR,5354KG,2,2.0,,,,,Demen,Demen,626945.3646214398,6766928.15426886
828200001544983,828200001544983,St. Wilbertstraat,St. Wilbertstraat,5371KR,5354KG,5,5.0,,,,,Demen,Demen,626574.5428651029,6766759.11576842
828200001559189,828200001559189,St. Wilbertstraat,St. Wilbertstraat,5371KR,5354KG,6,6.0,A,A,,,Demen,Demen,626652.7899104719,6766903.2574602505
828200001554257,828200001554257,St. Wilbertstraat,St. Wilbertstraat,5371KR,5354KG,7,7.0,,,,,Demen,Demen,626559.8246454523,6766735.7493709875
828200001580087,828200001580087,St. Wilbertstraat,St. Wilbertstraat,5371KR,5354KG,8,8.0,,,,,Demen,Demen,626599.4717990585,6766878.2666523345
828200001567883,828200001567883,St. Wilbertstraat,St. Wilbertstraat,5371KR,5354KG,9,9.0,,,,,Demen,Demen,626548.8116839827,6766707.562029417
828200001536147,828200001536147,St. Wilbertstraat,St. Wilbertstraat,5371KR,5354KG,11,11.0,,,,,Demen,Demen,626537.5891386002,6766686.755946511
828200001579771,828200001579771,St. Wilbertstraat,St. Wilbertstraat,5371KR,5354KG,13,13.0,,,,,Demen,Demen,626518.3325776539,6766637.3304228075
828200001575917,828200001575917,St. Wilbertstraat,St. Wilbertstraat,5371KR,5354KG,16,16.0,,,,,Demen,Demen,626503.3044120067,6766768.714357732
828200001540689,828200001540689,St. Wilbertstraat,St. Wilbertstraat,5371KR,5354KG,18,18.0,,,,,Demen,Demen,626493.6167874321,6766745.347286653
828200001527317,828200001527317,St. Wilbertstraat,St. Wilbertstraat,5371KR,5354KG,10,10.0,,,,,Demen,Demen,626540.9161389683,6766828.166507987
828200001509407,828200001509407,Kuiperstraat,Kuiperstraat,5371LJ,5352LN,1,1.0,,,,,Deursen-Dennenburg,Deursen-Dennenburg,626675.4549676699,6764100.876289626
828200001536985,828200001536985,Kuiperstraat,Kuiperstraat,5371LJ,5352LN,2,2.0,,,,,Deursen-Dennenburg,Deursen-Dennenburg,626722.8959470526,6763967.685547786
828200001515715,828200001515715,Kuiperstraat,Kuiperstraat,5371LJ,5352LN,3,3.0,,,,,Deursen-Dennenburg,Deursen-Dennenburg,626709.5377692496,6764136.685517839
828200001570801,828200001570801,Kuiperstraat,Kuiperstraat,5371LJ,5352LN,4,4.0,,,,,Deursen-Dennenburg,Deursen-Dennenburg,626754.5259319439,6764140.118741984
828200001540205,828200001540205,Kuiperstraat,Kuiperstraat,5371LJ,5352LN,5,5.0,,,,,Deursen-Dennenburg,Deursen-Dennenburg,626713.569113521,6764150.714841921
828200001527411,828200001527411,Kuiperstraat,Kuiperstraat,5371LJ,5352LN,6,6.0,,,,,Deursen-Dennenburg,Deursen-Dennenburg,626761.3819837389,6764163.932487009
828200001532087,828200001532087,Kuiperstraat,Kuiperstraat,5371LJ,5352LN,8,8.0,,,,,Deursen-Dennenburg,Deursen-Dennenburg,626768.6136247674,6764189.05240539
828200001555725,828200001555725,Kuiperstraat,Kuiperstraat,5371LJ,5352LN,9,9.0,,,,,Deursen-Dennenburg,Deursen-Dennenburg,626720.3206951714,6764174.207014471
828200001576181,828200001576181,Kuiperstraat,Kuiperstraat,5371LJ,5352LN,10,10.0,,,,,Deursen-Dennenburg,Deursen-Dennenburg,626776.3527384455,6764214.856739641
828200001517541,828200001517541,Kuiperstraat,Kuiperstraat,5371LJ,5352LN,11,11.0,,,,,Deursen-Dennenburg,Deursen-Dennenburg,626737.749269328,6764289.5650531305
828200001515717,828200001515717,Kuiperstraat,Kuiperstraat,5371LJ,5352LN,12,12.0,,,,,Deursen-Dennenburg,Deursen-Dennenburg,626784.9235165444,6764244.184070804
828200001536987,828200001536987,Kuiperstraat,Kuiperstraat,5371LJ,5352LN,13,13.0,,,,,Deursen-Dennenburg,Deursen-Dennenburg,626737.8632440182,6764295.676053877
828200001530881,828200001530881,Kuiperstraat,Kuiperstraat,5371LJ,5352LN,14,14.0,,,,,Deursen-Dennenburg,Deursen-Dennenburg,626821.0708658972,6764416.873055702
828200001509409,828200001509409,Kuiperstraat,Kuiperstraat,5371LJ,5352LN,15,15.0,,,,,Deursen-Dennenburg,Deursen-Dennenburg,626738.2713507181,6764317.401926586
828200001515719,828200001515719,Kuiperstraat,Kuiperstraat,5371LJ,5352LN,17,17.0,,,,,Deursen-Dennenburg,Deursen-Dennenburg,626738.7739098821,6764344.222817234
828200001536377,828200001536377,St. Wilbertstraat,St. Wilbertstraat,5371KR,5354KG,22,22.0,,,,,Demen,Demen,626474.4369669078,6766699.078798761
828200001544985,828200001544985,St. Wilbertstraat,St. Wilbertstraat,5371KR,5354KG,24,24.0,,,,,Demen,Demen,626463.0654881473,6766671.726197031
828200001520617,828200001520617,St. Wilbertstraat,St. Wilbertstraat,5371KR,5354KG,26,26.0,,,,,Demen,Demen,626449.3937118229,6766639.995113152
828200001567257,828200001567257,Woordstraat,Woordstraat,5371NC,5358NC,1,1.0,,,,,Huisseling,Huisseling,627829.5244359368,6761787.178003055
828200001529937,828200001529937,Woordstraat,Woordstraat,5371NC,5358NC,2,2.0,,,,,Huisseling,Huisseling,627916.1780424848,6761857.157014769
828200001558017,828200001558017,De Blauwe Kei,De Blauwe Kei,5371CZ,5356NA,3,3.0,,,,,Neerloon,Neerloon,630375.0689211814,6762064.432478185
828200001517543,828200001517543,Laagstraat,Laagstraat,5371LE,5352LM,2,2.0,,,,,Deursen-Dennenburg,Deursen-Dennenburg,627219.9087375574,6763939.289854381
828200001536989,828200001536989,Laagstraat,Laagstraat,5371LE,5352LM,4,4.0,,,,,Deursen-Dennenburg,Deursen-Dennenburg,627049.1878336518,6763994.022637846
828200001567531,828200001567531,Laagstraat,Laagstraat,5371LE,5352LM,8,8.0,,,,,Deursen-Dennenburg,Deursen-Dennenburg,626806.2617958296,6764075.001235654
828200001571433,828200001571433,Laagstraat,Laagstraat,5371LE,5352LM,10,10.0,,,,,Deursen-Dennenburg,Deursen-Dennenburg,626784.1238454275,6764082.502226808
828200001549009,828200001549009,Laagstraat,Laagstraat,5371LE,5352LM,12,12.0,,,,,Deursen-Dennenburg,Deursen-Dennenburg,626759.0970957512,6764090.98203982
828200001530883,828200001530883,Laagstraat,Laagstraat,5371LE,5352LM,14,14.0,,,,,Deursen-Dennenburg,Deursen-Dennenburg,626751.7188302974,6764093.482334398
828200001569553,828200001569553,Laagstraat,Laagstraat,5371LE,5352LM,18,18.0,,,,,Deursen-Dennenburg,Deursen-Dennenburg,626543.3167676186,6764132.873083899
828200001542693,828200001542693,Laagstraat,Laagstraat,5371LE,5352LM,20,20.0,,,,,Deursen-Dennenburg,Deursen-Dennenburg,626439.0739675079,6764150.407396845
828200001549011,828200001549011,Laagstraat,Laagstraat,5371LE,5352LM,26,26.0,,,,,Deursen-Dennenburg,Deursen-Dennenburg,626389.0602023009,6764179.313960916
828200001549013,828200001549013,Laagstraat,Laagstraat,5371LE,5352LM,28,28.0,,,,,Deursen-Dennenburg,Deursen-Dennenburg,626380.8524626344,6764181.399234717
828200001564349,828200001564349,Laagstraat,Laagstraat,5371LE,5352LM,30,30.0,,,,,Deursen-Dennenburg,Deursen-Dennenburg,626359.5123133466,6764186.818968451
828200001540207,828200001540207,Laagstraat,Laagstraat,5371LE,5352LM,32,32.0,,,,,Deursen-Dennenburg,Deursen-Dennenburg,626348.3504063346,6764189.653409987
828200001532089,828200001532089,Laagstraat,Laagstraat,5371LE,5352LM,34,34.0,,,,,Deursen-Dennenburg,Deursen-Dennenburg,626328.651764191,6764194.6550486535
828200001509411,828200001509411,Laagstraat,Laagstraat,5371LE,5352LM,36,36.0,,,,,Deursen-Dennenburg,Deursen-Dennenburg,626319.7876903284,6764196.905851222
828200001564351,828200001564351,Laagstraat,Laagstraat,5371LE,5352LM,38,38.0,,,,,Deursen-Dennenburg,Deursen-Dennenburg,626289.9123304613,6764204.494219916
828200001536991,828200001536991,Laagstraat,Laagstraat,5371LE,5352LM,40,40.0,,,,,Deursen-Dennenburg,Deursen-Dennenburg,626259.0516466672,6764212.330051246
828200001549015,828200001549015,Laagstraat,Laagstraat,5371LE,5352LM,42,42.0,,,,,Deursen-Dennenburg,Deursen-Dennenburg,626230.4903899375,6764219.583809666
828200001565173,828200001565173,Laagstraat,Laagstraat,5371LE,5352LM,44,44.0,,,,,Deursen-Dennenburg,Deursen-Dennenburg,626197.6590689282,6764227.921018812
828200001567175,828200001567175,Laagstraat,Laagstraat,5371LE,5352LM,46,46.0,,,,,Deursen-Dennenburg,Deursen-Dennenburg,626159.575621494,6764237.592410099
828200001574769,828200001574769,Laagstraat,Laagstraat,5371LE,5352LM,48,48.0,,,,,Deursen-Dennenburg,Deursen-Dennenburg,626122.4773490169,6764247.012846943
828200001509413,828200001509413,Laagstraat,Laagstraat,5371LE,5352LM,52,52.0,,,,,Deursen-Dennenburg,Deursen-Dennenburg,626078.1563629408,6764258.267328001
828200001542695,828200001542695,Laagstraat,Laagstraat,5371LE,5352LM,60,60.0,,,,,Deursen-Dennenburg,Deursen-Dennenburg,625804.434151108,6764385.4079508
828200001542699,828200001542699,Langelsestraat,Langelsestraat,5371LM,5355KB,1,1.0,,,,,Neerlangel,Neerlangel,628524.6818620027,6765203.474013442
828200001572303,828200001572303,Langelsestraat,Langelsestraat,5371LM,5355KB,3,3.0,,,,,Neerlangel,Neerlangel,628453.1617374955,6765145.0538289165
828200001555729,828200001555729,Langelsestraat,Langelsestraat,5371LM,5355KB,5,5.0,,,,,Neerlangel,Neerlangel,628377.7223060118,6765269.767712478
828200001562933,828200001562933,Langelsestraat,Langelsestraat,5371LM,5355KB,7,7.0,,,,,Neerlangel,Neerlangel,628413.870380785,6765317.809666609
828200001555677,828200001555677,Langestraat,Langestraat,5371KD,5353KD,1,1.0,,,,,Dieden,Dieden,624325.1891909902,6767648.027456554
828200001509419,828200001509419,Langestraat,Langestraat,5371KD,5353KD,2,2.0,,,,,Dieden,Dieden,624266.1952970794,6767660.977354085
828200001530885,828200001530885,Langestraat,Langestraat,5371KD,5353KD,3,3.0,,,,,Dieden,Dieden,624226.0124113775,6767445.924480984
828200001527417,828200001527417,Langestraat,Langestraat,5371KD,5353KD,4,4.0,,,,,Dieden,Dieden,624240.089412176,6767573.455423513
828200001574209,828200001574209,Langestraat,Langestraat,5371KD,5353KD,4,4.0,A,A,,,Dieden,Dieden,624221.5457615969,6767550.291557626
828200001555731,828200001555731,Langestraat,Langestraat,5371KD,5353KD,4,4.0,B,B,,,Dieden,Dieden,624207.1930988663,6767522.169882496
828200001533849,828200001533849,Langestraat,Langestraat,5371KD,5353KD,5,5.0,,,,,Dieden,Dieden,623689.7230975362,6766210.430808628
828200001550251,828200001550251,Langestraat,Langestraat,5371KD,5353KD,6,6.0,,,,,Dieden,Dieden,624198.3255281867,6767482.969534291
828200001528529,828200001528529,Langestraat,Langestraat,5371KD,5353KD,7,7.0,,,,,Dieden,Dieden,623643.5822430226,6766130.5643456485
828200001565337,828200001565337,Langestraat,Langestraat,5371KD,5353KD,8,8.0,,,,,Dieden,Dieden,624134.7213634286,6767410.655401592
828200001513929,828200001513929,Langestraat,Langestraat,5371KD,5353KD,10,10.0,,,,,Dieden,Dieden,624143.0304718323,6767345.576170139
828200001555733,828200001555733,Langestraat,Langestraat,5371KD,5353KD,12,12.0,,,,,Dieden,Dieden,624029.8083727139,6767120.976773065
828200001555735,828200001555735,St. Laurensstraat,Sint Laurensstraat,5371KK,5354KB,1,1.0,,,,,Demen,Demen,626391.999534447,6766592.757885311
828200001550253,828200001550253,St. Laurensstraat,Sint Laurensstraat,5371KK,5354KB,2,2.0,,,,,Demen,Demen,626370.8372422404,6766664.503806139
828200001578693,828200001578693,St. Laurensstraat,Sint Laurensstraat,5371KK,5354KB,3,3.0,,,,,Demen,Demen,626362.9312238118,6766602.480877704
828200001563255,828200001563255,St. Laurensstraat,Sint Laurensstraat,5371KK,5354KB,4,4.0,,,,,Demen,Demen,626346.0947486584,6766673.121638623
828200001522343,828200001522343,St. Laurensstraat,Sint Laurensstraat,5371KK,5354KB,5,5.0,,,,,Demen,Demen,626333.0747775342,6766612.615861724
828200001528531,828200001528531,St. Laurensstraat,Sint Laurensstraat,5371KK,5354KB,6,6.0,,,,,Demen,Demen,626313.4399699375,6766684.133407164
828200001532093,828200001532093,St. Laurensstraat,Sint Laurensstraat,5371KK,5354KB,7,7.0,,,,,Demen,Demen,626303.0730882296,6766622.788452424
828200001542701,828200001542701,St. Laurensstraat,Sint Laurensstraat,5371KK,5354KB,8,8.0,,,,,Demen,Demen,626292.3507552086,6766691.298556002
828200001522345,828200001522345,St. Laurensstraat,Sint Laurensstraat,5371KK,5354KB,9,9.0,,,,,Demen,Demen,626269.2827264151,6766635.024079817
828200001550255,828200001550255,St. Laurensstraat,Sint Laurensstraat,5371KK,5354KB,11,11.0,,,,,Demen,Demen,626241.0017131246,6766643.695290814
828200001576183,828200001576183,St. Laurensstraat,Sint Laurensstraat,5371KK,5354KB,13,13.0,,,,,Demen,Demen,626210.9116989888,6766653.092596704
828200001522347,828200001522347,Sint Laurensstraat,Sint Laurensstraat,5371KK,5353KK,19,19.0,,,,,Dieden,Dieden,625408.7864319271,6766946.2726316415
828200001513931,828200001513931,Sint Laurensstraat,Sint Laurensstraat,5371KK,5353KK,20,20.0,,,,,Dieden,Dieden,625336.7267787958,6767044.8408066025
828200001522349,828200001522349,Sint Laurensstraat,Sint Laurensstraat,5371KK,5353KK,21,21.0,,,,,Dieden,Dieden,625274.8088278254,6767026.101345161
828200001531131,828200001531131,Sint Laurensstraat,Sint Laurensstraat,5371KK,5353KK,25,25.0,,,,,Dieden,Dieden,625018.2780671341,6767198.267800532
828200001577609,828200001577609,Woordstraat,Woordstraat,5371NC,5358NC,3,3.0,,,,,Huisseling,Huisseling,627795.6528859838,6761776.016773156
828200001514245,828200001514245,Woordstraat,Woordstraat,5371NC,5358NC,4,4.0,,,,,Huisseling,Huisseling,627884.9540088411,6761847.01881476
828200001564463,828200001564463,Woordstraat,Woordstraat,5371NC,5358NC,5,5.0,,,,,Huisseling,Huisseling,627766.7842713656,6761764.30746393
828200001558615,828200001558615,Woordstraat,Woordstraat,5371NC,5358NC,6,6.0,,,,,Huisseling,Huisseling,627853.7389582458,6761838.981693551
828200001553199,828200001553199,Woordstraat,Woordstraat,5371NC,5358NC,7,7.0,,,,,Huisseling,Huisseling,627736.0459473837,6761751.700353661
828200001545009,828200001545009,Woordstraat,Woordstraat,5371NC,5358NC,8,8.0,,,,,Huisseling,Huisseling,627832.3295669038,6761827.49399186
828200001553201,828200001553201,Woordstraat,Woordstraat,5371NC,5358NC,10,10.0,,,,,Huisseling,Huisseling,627807.8202640552,6761840.971205469
828200001537385,828200001537385,Woordstraat,Woordstraat,5371NC,5358NC,10,10.0,A,A,,,Huisseling,Huisseling,627670.1310727035,6761815.371175364
828200001573053,828200001573053,Woordstraat,Woordstraat,5371NC,5358NC,10,10.0,B,B,,,Huisseling,Huisseling,627657.1150723856,6761816.105352879
828200001529939,828200001529939,Woordstraat,Woordstraat,5371NC,5358NC,12,12.0,,,,,Huisseling,Huisseling,627633.23070729,6761812.4789825855
828200001525879,828200001525879,Woordstraat,Woordstraat,5371NC,5358NC,14,14.0,,,,,Huisseling,Huisseling,627620.8791094543,6761813.12021856
828200001529941,828200001529941,Woordstraat,Woordstraat,5371NC,5358NC,16,16.0,,,,,Huisseling,Huisseling,627593.7818350611,6761803.202835285
828200001553203,828200001553203,Woordstraat,Woordstraat,5371NC,5358NC,18,18.0,,,,,Huisseling,Huisseling,627497.9749856773,6761811.668086765
828200001510091,828200001510091,Woordstraat,Woordstraat,5371NC,5358NC,20,20.0,,,,,Huisseling,Huisseling,627403.5232002295,6761818.717044814
828200001546561,828200001546561,Woordstraat,Woordstraat,5371NC,5358NC,22,22.0,,,,,Huisseling,Huisseling,627305.9083937426,6761814.687335104
828200001523173,828200001523173,Zuijdenhoutstraat,Zuijdenhoutstraat,5371RB,5359NB,2,2.0,,,,,Keent,Keent,633147.7716584819,6758621.855550758
828200001553209,828200001553209,Zuijdenhoutstraat,Zuijdenhoutstraat,5371RB,5359NB,4,4.0,,,,,Keent,Keent,633118.5860537048,6758923.559084146
828200001537401,828200001537401,Zwarteweg,Zwarteweg,5371LS,5355KE,1,1.0,,,,,Neerlangel,Neerlangel,628651.6545093526,6764195.881787071
828200001537403,828200001537403,Zwarteweg,Zwarteweg,5371LS,5355KE,2,2.0,,,,,Neerlangel,Neerlangel,628700.9759801184,6764106.457684437
828200001523561,828200001523561,Zwarteweg,Zwarteweg,5371LS,5355KE,3,3.0,,,,,Neerlangel,Neerlangel,628696.0304523306,6764097.239823839
828200001538719,828200001538719,St. Wilbertstraat,St. Wilbertstraat,5371KR,5354KG,2,2.0,A,A,,,Demen,Demen,626964.8730086784,6766917.520708547
828200001570485,828200001570485,Rondestraat,Rondestraat,5371LB,5352LJ,27,27.0,,,,,Deursen-Dennenburg,Deursen-Dennenburg,626314.3824611204,6764432.902624794
828200001531135,828200001531135,Loonsestraat,Loonsestraat,5371PJ,5356PB,2,2.0,,,,,Neerloon,Neerloon,631992.2794198145,6762113.675000716
828200001542703,828200001542703,Loonsestraat,Loonsestraat,5371PJ,5356PB,3,3.0,,,,,Neerloon,Neerloon,632032.2155931978,6762021.707470277
828200001555741,828200001555741,Loonsestraat,Loonsestraat,5371PJ,5356PB,4,4.0,,,,,Neerloon,Neerloon,631977.6891356596,6762039.522020699
828200001528537,828200001528537,Loonsestraat,Loonsestraat,5371PJ,5356PB,7,7.0,A,A,,,Neerloon,Neerloon,632227.9923545815,6761668.336030073
828200001528535,828200001528535,Loonsestraat,Loonsestraat,5371PJ,5356PB,7,7.0,,,,,Neerloon,Neerloon,632205.7292944936,6761716.228854072
828200001532099,828200001532099,Loonsestraat,Loonsestraat,5371PJ,5356PB,8,8.0,,,,,Neerloon,Neerloon,632108.995153668,6761847.772591268
828200001568663,828200001568663,Loonsestraat,Loonsestraat,5371PJ,5356PB,9,9.0,,,,,Neerloon,Neerloon,632233.964142345,6761634.7109869495
828200001562269,828200001562269,Loonsestraat,Loonsestraat,5371PJ,5356PB,10,10.0,,,,,Neerloon,Neerloon,632159.7669156849,6761741.959730653
828200001522355,828200001522355,Loonsestraat,Loonsestraat,5371PJ,5356PB,13,13.0,,,,,Neerloon,Neerloon,632237.2772307816,6761428.13708597
828200001531137,828200001531137,Loonsestraat,Loonsestraat,5371PJ,5356PB,14,14.0,,,,,Neerloon,Neerloon,632143.8143140251,6761595.646692308
828200001531137,828200001531137,Loonsestraat,Loonsestraat,5371PJ,5356PB,14,14.0,,,,,Neerloon,Neerloon,632143.8143140251,6761595.646692308
828200001522357,828200001522357,Loonsestraat,Loonsestraat,5371PJ,5356PB,16,16.0,,,,,Neerloon,Neerloon,632140.824039331,6760591.59475809
828200001575853,828200001575853,Loonsestraat,Loonsestraat,5371PJ,5356PB,19,19.0,,,,,Neerloon,Neerloon,632227.6241392186,6761090.370839823
828200001578103,828200001578103,Zwarteweg,Zwarteweg,5371LS,5355KE,5,5.0,,,,,Neerlangel,Neerlangel,628645.114548649,6764030.187907894
828200001559185,828200001559185,Zwarteweg,Zwarteweg,5371LS,5352KE,20,20.0,,,,,Deursen-Dennenburg,Deursen-Dennenburg,628395.7748958314,6763684.959654598
828200001558967,828200001558967,Maasdijk,Maasdijk,5371KB,5354KA,69,69.0,,,,,Demen,Demen,626847.5935131742,6766954.56231155
828200001558965,828200001558965,Maasdijk,Maasdijk,5371PE,5356NC,19,19.0,,,,,Neerloon,Neerloon,631977.9859692655,6762189.972703107
828200001558963,828200001558963,St. Jansstraat,St. Jansstraat,5371LN,5355KC,2,2.0,,,,,Neerlangel,Neerlangel,628448.8244113711,6765449.187397566
828200001561381,828200001561381,Laagstraat,Laagstraat,5371LE,5352LM,16,16.0,,,,,Deursen-Dennenburg,Deursen-Dennenburg,626592.8943784276,6764141.576397955
828200001564519,828200001564519,Pastoor Blommaertstraat,Pastoor Blommaertstraat,5371RG,5357PK,24,24.0,,,,,Overlangel,Overlangel,631358.7030487247,6759687.066271836
828200001523569,828200001523569,Oude Graafsestraat,Oude Graafsestraat,5371PV,5357PG,40,40.0,A,A,,,Overlangel,Overlangel,631297.8247859821,6759129.683374549
828200001555853,828200001555853,Osstraat,Osstraat,5371KL,5354KC,12,12.0,,,,,Demen,Demen,626179.5253718225,6765954.916690861
828200001538731,828200001538731,Loonsestraat,Loonsestraat,5371PJ,5356PB,8,8.0,B,B,,,Neerloon,Neerloon,632106.0378508893,6761784.372730594
828200001545717,828200001545717,Maasdijk,Maasdijk,5371PD,5357NB,1,1.0,A,A,,,Overlangel,Overlangel,631487.9488932448,6758735.467838934
828200001559943,828200001559943,Maasdijk,Maasdijk,5371PD,5357NB,3,3.0,,,,,Overlangel,Overlangel,631691.4054984181,6759273.361638524
828200001522369,828200001522369,Maasdijk,Maasdijk,5371PD,5357NB,5,5.0,,,,,Overlangel,Overlangel,631804.0225810143,6759560.284023138
828200001528547,828200001528547,Maasdijk,Maasdijk,5371PD,5357NB,7,7.0,,,,,Overlangel,Overlangel,632145.7817147231,6760156.83919197
828200001545719,828200001545719,Maasdijk,Maasdijk,5371PD,5356NC,9,9.0,,,,,Neerloon,Neerloon,633130.9982478425,6761147.671491693
828200001559945,828200001559945,Maasdijk,Maasdijk,5371PD,5356NC,8,8.0,,,,,Neerloon,Neerloon,632956.2698009278,6760993.794108261
828200001544229,828200001544229,Maasdijk,Maasdijk,5371PD,5356NC,12,12.0,,,,,Neerloon,Neerloon,632910.8598481668,6761993.240387166
828200001532771,828200001532771,Maasdijk,Maasdijk,5371PD,5356NC,13,13.0,,,,,Neerloon,Neerloon,632828.5477315915,6761988.667606151
828200001550267,828200001550267,Maasdijk,Maasdijk,5371PD,5356NC,13,13.0,A,A,,,Neerloon,Neerloon,632812.1458432883,6761986.769525174
828200001578579,828200001578579,Maasdijk,Maasdijk,5371PD,5356NC,14,14.0,,,,,Neerloon,Neerloon,632738.4684259361,6761974.536672755
828200001570323,828200001570323,Maasdijk,Maasdijk,5371PD,5356NC,14,14.0,A,A,,,Neerloon,Neerloon,632750.0948479268,6761976.9154699715
828200001544231,828200001544231,Maasdijk,Maasdijk,5371PE,5356NC,15,15.0,,,,,Neerloon,Neerloon,632631.7599893828,6761944.95183508
828200001550269,828200001550269,Maasdijk,Maasdijk,5371PE,5356NC,15,15.0,A,A,,,Neerloon,Neerloon,632647.8856677234,6761942.433762753
828200001516005,828200001516005,Maasdijk,Maasdijk,5371PE,5356NC,16,16.0,,,,,Neerloon,Neerloon,632327.7275878823,6761981.595641655
828200001580043,828200001580043,Maasdijk,Maasdijk,5371PE,5356NC,17,17.0,,,,,Neerloon,Neerloon,632256.6922230199,6762100.45964116
828200001516007,828200001516007,Maasdijk,Maasdijk,5371PE,5356NC,18,18.0,,,,,Neerloon,Neerloon,632056.7195071547,6762192.570833174
828200001531141,828200001531141,Maasdijk,Maasdijk,5371PE,5356NC,21,21.0,,,,,Neerloon,Neerloon,631814.4650887687,6762224.265427013
828200001546439,828200001546439,Maasdijk,Maasdijk,5371PE,5356NC,23,23.0,,,,,Neerloon,Neerloon,631627.3821488472,6762240.8023069585
828200001559947,828200001559947,Maasdijk,Maasdijk,5371PE,5356NC,24,24.0,,,,,Neerloon,Neerloon,631513.0205683396,6762240.590625149
828200001509427,828200001509427,Maasdijk,Maasdijk,5371PE,5356NC,25,25.0,A,A,,,Neerloon,Neerloon,631031.8436186109,6762511.8463206645
828200001566275,828200001566275,Maasdijk,Maasdijk,5371PE,5356NC,26,26.0,,,,,Neerloon,Neerloon,630937.4012176399,6762521.840942481
828200001563299,828200001563299,Maasdijk,Maasdijk,5371PE,5356NC,26,26.0,A,A,,,Neerloon,Neerloon,630945.0825611503,6762505.310656638
828200001528549,828200001528549,Maasdijk,Maasdijk,5371PE,5356NC,28,28.0,,,,,Neerloon,Neerloon,630491.4965422922,6762678.573846399
828200001532775,828200001532775,Maasdijk,Maasdijk,5371PE,5356NC,29,29.0,,,,,Neerloon,Neerloon,630455.8095187396,6762735.710964409
828200001528803,828200001528803,Maasdijk,Maasdijk,5371KA,5355KA,50,50.0,,,,,Neerlangel,Neerlangel,628729.2020253651,6764125.764332359
828200001522371,828200001522371,Maasdijk,Maasdijk,5371KA,5355KA,51,51.0,,,,,Neerlangel,Neerlangel,628727.1301141783,6764132.609539681
828200001516011,828200001516011,Maasdijk,Maasdijk,5371KA,5355KA,53,53.0,,,,,Neerlangel,Neerlangel,628677.7256943093,6764303.593667598
828200001574615,828200001574615,Maasdijk,Maasdijk,5371KA,5355KA,55,55.0,,,,,Neerlangel,Neerlangel,628662.8596777049,6764381.225055277
828200001550581,828200001550581,Maasdijk,Maasdijk,5371KA,5355KA,56,56.0,,,,,Neerlangel,Neerlangel,628560.778812628,6764673.546068096
828200001528805,828200001528805,Maasdijk,Maasdijk,5371KA,5355KA,58,58.0,,,,,Neerlangel,Neerlangel,628556.1971890177,6765171.404573358
828200001560193,828200001560193,Maasdijk,Maasdijk,5371KA,5355KA,61,61.0,,,,,Neerlangel,Neerlangel,628514.3268184485,6765478.173543088
828200001528807,828200001528807,Maasdijk,Maasdijk,5371KA,5355KA,62,62.0,,,,,Neerlangel,Neerlangel,628459.6931523302,6765635.6319400845
828200001528809,828200001528809,Maasdijk,Maasdijk,5371KA,5355KA,64,64.0,,,,,Neerlangel,Neerlangel,628277.7188824732,6766122.6026969375
828200001550271,828200001550271,Maasdijk,Maasdijk,5371KA,5354KA,65,65.0,,,,,Demen,Demen,627441.9584584428,6766785.828786548
828200001579633,828200001579633,Maasdijk,Maasdijk,5371KA,5354KA,66,66.0,,,,,Demen,Demen,627349.898296439,6766820.506576883
828200001544233,828200001544233,Maasdijk,Maasdijk,5371KB,5354KA,68,68.0,,,,,Demen,Demen,626909.283000319,6766954.801263013
828200001531143,828200001531143,Maasdijk,Maasdijk,5371KB,5354KA,70,70.0,,,,,Demen,Demen,626783.0201688881,6766937.250092466
828200001522373,828200001522373,Maasdijk,Maasdijk,5371KB,5354KA,71,71.0,,,,,Demen,Demen,626411.0287773401,6766998.931149186
828200001541591,828200001541591,Maasdijk,Maasdijk,5371KB,5353KB,72,72.0,,,,,Dieden,Dieden,625975.3502043425,6767162.3175736265
828200001528811,828200001528811,Maasdijk,Maasdijk,5371KB,5353KB,73,73.0,,,,,Dieden,Dieden,625800.403807316,6767217.017074674
828200001574617,828200001574617,Maasdijk,Maasdijk,5371KB,5353KB,74,74.0,,,,,Dieden,Dieden,625762.039105125,6767218.034563746
828200001573309,828200001573309,Maasdijk,Maasdijk,5371KB,5353KB,76,76.0,,,,,Dieden,Dieden,624986.6202017212,6767577.413154118
828200001557933,828200001557933,Maasdijk,Maasdijk,5371KB,5353KB,79,79.0,,,,,Dieden,Dieden,624356.9746200964,6767758.89092483
828200001522375,828200001522375,Maasdijk,Maasdijk,5371KB,5353KB,80,80.0,,,,,Dieden,Dieden,624057.0568435377,6767796.633123858
828200001513941,828200001513941,Oude Maasweg,Oude Maasweg,5371RC,5359NC,1,1.0,,,,,Keent,Keent,633950.2091991267,6758664.114437346
828200001522379,828200001522379,Oude Maasweg,Oude Maasweg,5371RC,5359NC,2,2.0,,,,,Keent,Keent,633633.8046548313,6759658.753784371
828200001550273,828200001550273,Oude Maasweg,Oude Maasweg,5371RC,5359NC,3,3.0,,,,,Keent,Keent,633595.2837183136,6759754.548812624
828200001533857,828200001533857,Oude Maasweg,Oude Maasweg,5371RC,5359NC,4,4.0,,,,,Keent,Keent,633702.3921211561,6759880.594908241
828200001573311,828200001573311,Oude Maasweg,Oude Maasweg,5371RC,5359NC,5,5.0,,,,,Keent,Keent,633881.8417745674,6760254.992850762
828200001564523,828200001564523,Loonsestraat,Loonsestraat,5371PJ,5356PB,21,21.0,,,,,Neerloon,Neerloon,632210.3164912949,6761052.775794173
828200001546567,828200001546567,Hoogveldsestraat,Hoogveldsestraat,5371RA,5359NA,5,5.0,,,,,Keent,Keent,633907.6788902805,6758252.147131427
828200001537735,828200001537735,Loonsestraat,Loonsestraat,5371PJ,5356PB,3,3.0,A,A,,,Neerloon,Neerloon,632029.6420165385,6761995.7601210335
828200001578641,828200001578641,Rondestraat,Rondestraat,5371LC,5352LK,26,26.0,,,,,Deursen-Dennenburg,Deursen-Dennenburg,626435.212235676,6764454.567395433
828200001576627,828200001576627,Staaijstraat,Staaijstraat,5371PK,5356PC,4,4.0,,,,,Neerloon,Neerloon,631615.1587174454,6762210.128341123
828200001528819,828200001528819,Meerstraat,Meerstraat,5371NV,5358NP,1,1.0,,,,,Huisseling,Huisseling,628452.3408809063,6761984.94316129
828200001532783,828200001532783,Meerstraat,Meerstraat,5371NV,5358NP,2,2.0,,,,,Huisseling,Huisseling,628554.9565997542,6761875.973946741
828200001508939,828200001508939,Rondestraat,Rondestraat,5371LB,5352LJ,23,23.0,,,,,Deursen-Dennenburg,Deursen-Dennenburg,626455.0219220382,6764368.072243024
828200001557647,828200001557647,Loonsestraat,Loonsestraat,5371PJ,5356PB,15,15.0,,,,,Neerloon,Neerloon,632208.1407168274,6761310.196582017
828200001569565,828200001569565,Grotestraat,Grotestraat,5371BV,5358BV,33,33.0,B,B,,,Huisseling,Huisseling,628539.7734015423,6762202.939949177
828200001573701,828200001573701,Asboom,Asboom,5371RH,5357PL,2,2.0,,,,,Overlangel,Overlangel,631319.1266341404,6759798.735369846
828200001575523,828200001575523,Overlangelseweg,Overlangelseweg,5371PN,5357PA,6,6.0,A,A,,,Overlangel,Overlangel,631253.0522251849,6759991.351310444
828200001565603,828200001565603,Asboom,Asboom,5371RH,5357PL,4,4.0,,,,,Overlangel,Overlangel,631294.374743576,6759819.764876733
828200001550161,828200001550161,Asboom,Asboom,5371RH,5357PL,6,6.0,,,,,Overlangel,Overlangel,631283.4976189499,6759825.820073592
828200001523189,828200001523189,Asboom,Asboom,5371RH,5357PL,11,11.0,,,,,Overlangel,Overlangel,631296.1603149201,6759857.866531974
828200001541611,828200001541611,Rector Nuijensweg,Rector Nuijensweg,5371LR,5352LR,1,1.0,,,,,Deursen-Dennenburg,Deursen-Dennenburg,628107.8822405498,6763677.91599816
828200001532793,828200001532793,Rector Nuijensweg,Rector Nuijensweg,5371LR,5352LR,2,2.0,,,,,Deursen-Dennenburg,Deursen-Dennenburg,628321.4281712185,6763675.29279611
828200001570363,828200001570363,Rector Nuijensweg,Rector Nuijensweg,5371LR,5352LR,4,4.0,,,,,Deursen-Dennenburg,Deursen-Dennenburg,628236.0339696346,6763676.235885617
828200001513947,828200001513947,Rector Nuijensweg,Rector Nuijensweg,5371LR,5352LR,6,6.0,,,,,Deursen-Dennenburg,Deursen-Dennenburg,628179.0521600121,6763699.804965696
828200001559853,828200001559853,Rector Nuijensweg,Rector Nuijensweg,5371LR,5352LR,6,6.0,A,A,,,Deursen-Dennenburg,Deursen-Dennenburg,628176.726103227,6763778.244576224
828200001513949,828200001513949,Rector Nuijensweg,Rector Nuijensweg,5371LR,5352LR,8,8.0,,,,,Deursen-Dennenburg,Deursen-Dennenburg,628065.0931129615,6763757.764543135
828200001541613,828200001541613,Rector Nuijensweg,Rector Nuijensweg,5371LR,5352LR,10,10.0,,,,,Deursen-Dennenburg,Deursen-Dennenburg,627906.5746523563,6763818.274975815
828200001546459,828200001546459,Osstraat,Osstraat,5371KL,5352KA,1,1.0,,,,,Deursen-Dennenburg,Deursen-Dennenburg,625625.5023527435,6764684.11315808
828200001516023,828200001516023,Osstraat,Osstraat,5371KL,5352KA,1,1.0,A,A,,,Deursen-Dennenburg,Deursen-Dennenburg,625627.6560103627,6764701.980113414
828200001562275,828200001562275,Osstraat,Osstraat,5371KL,5354KC,18,18.0,,,,,Demen,Demen,626281.5305897756,6766059.108398225
828200001509441,828200001509441,Osstraat,Osstraat,5371KL,5352KA,3,3.0,,,,,Deursen-Dennenburg,Deursen-Dennenburg,625628.2144485918,6764732.276292729
828200001528843,828200001528843,Osstraat,Osstraat,5371KL,5354KC,24,24.0,,,,,Demen,Demen,626467.2488798571,6766565.746635843
828200001574891,828200001574891,Osstraat,Osstraat,5371KL,5352KA,5,5.0,,,,,Deursen-Dennenburg,Deursen-Dennenburg,625632.3517839442,6764756.224432068
828200001522401,828200001522401,Osstraat,Osstraat,5371KL,5354KC,26,26.0,,,,,Demen,Demen,626472.0855150693,6766584.349868144
828200001575045,828200001575045,Osstraat,Osstraat,5371KL,5352KA,7,7.0,,,,,Deursen-Dennenburg,Deursen-Dennenburg,625637.9042825103,6764780.5742463395
828200001565383,828200001565383,Osstraat,Osstraat,5371KL,5352KA,9,9.0,,,,,Deursen-Dennenburg,Deursen-Dennenburg,625639.424524536,6764789.61643212
828200001513951,828200001513951,Osstraat,Osstraat,5371KL,5354KC,13,13.0,,,,,Demen,Demen,626093.438211292,6765959.678401837
828200001579639,828200001579639,Osstraat,Osstraat,5371KL,5354KC,17,17.0,,,,,Demen,Demen,626410.7631149715,6766537.851215014
828200001528845,828200001528845,Osstraat,Osstraat,5371KL,5354KC,19,19.0,,,,,Demen,Demen,626422.2516087918,6766577.801487778
828200001516025,828200001516025,Overlangelseweg,Overlangelseweg,5371PN,5357PA,1,1.0,,,,,Overlangel,Overlangel,631197.7778396962,6760051.51383197
828200001533871,828200001533871,Overlangelseweg,Overlangelseweg,5371PN,5357PA,2,2.0,,,,,Overlangel,Overlangel,631116.0342301129,6759956.37691546
828200001532795,828200001532795,Overlangelseweg,Overlangelseweg,5371PN,5357PA,3,3.0,,,,,Overlangel,Overlangel,631393.947768302,6760028.857031622
828200001509443,828200001509443,Overlangelseweg,Overlangelseweg,5371PN,5357PA,5,5.0,,,,,Overlangel,Overlangel,631525.4122194059,6759969.910234113
828200001541615,828200001541615,Overlangelseweg,Overlangelseweg,5371PN,5357PA,6,6.0,,,,,Overlangel,Overlangel,631268.7230164713,6759988.062106286
828200001560221,828200001560221,Overlangelseweg,Overlangelseweg,5371PN,5357PA,7,7.0,,,,,Overlangel,Overlangel,631656.6077509765,6759932.859508384
828200001546461,828200001546461,Overlangelseweg,Overlangelseweg,5371PN,5357PA,8,8.0,,,,,Overlangel,Overlangel,631308.1759528463,6759980.50740851
828200001557067,828200001557067,Overlangelseweg,Overlangelseweg,5371PN,5357PA,9,9.0,,,,,Overlangel,Overlangel,631708.1897531003,6759924.826324951
828200001522405,828200001522405,Overlangelseweg,Overlangelseweg,5371PN,5357PA,10,10.0,,,,,Overlangel,Overlangel,631357.7800535534,6759961.479138004
828200001558763,828200001558763,Overlangelseweg,Overlangelseweg,5371PN,5357PA,12,12.0,A,A,,,Overlangel,Overlangel,631452.1572402883,6759929.37105009
828200001567383,828200001567383,Overlangelseweg,Overlangelseweg,5371PN,5357PA,14,14.0,,,,,Overlangel,Overlangel,631481.7097831573,6759914.200348022
828200001566281,828200001566281,Overlangelseweg,Overlangelseweg,5371PN,5357PA,30,30.0,,,,,Overlangel,Overlangel,631897.4280680077,6759823.504629814
828200001573429,828200001573429,De Rijt,De Rijt,5371LH,5352KC,1,1.0,,,bij,bij,Deursen-Dennenburg,Deursen-Dennenburg,627298.5858377422,6763518.555656726
828200001550043,828200001550043,Burg. Canersstraat,Burg. Canersstraat,5371KN,5354KE,1,1.0,B,B,,,Demen,Demen,627769.6681997092,6766505.954134314
828200001518533,828200001518533,Kerkstraat,Kerkstraat,5371PW,5357PH,51,51.0,,,,,Overlangel,Overlangel,631578.6546144076,6759875.715636977
828200001529971,828200001529971,Woordstraat,Woordstraat,5371NC,5358NC,20,20.0,A,A,,,Huisseling,Huisseling,627427.9860236396,6761819.787978827
828200001527329,828200001527329,Grotestraat,Grotestraat,5371BV,5358BV,33,33.0,A,A,,,Huisseling,Huisseling,628552.9674452036,6762228.069758613
828200001541627,828200001541627,Poelstraat,Poelstraat,5371KJ,5353KJ,5,5.0,A,A,,,Dieden,Dieden,625388.2985825785,6767107.585435665
828200001572345,828200001572345,Poelstraat,Poelstraat,5371KJ,5353KJ,7,7.0,,,,,Dieden,Dieden,625362.8111264834,6767121.329233625
828200001571485,828200001571485,Poelstraat,Poelstraat,5371KJ,5353KJ,11,11.0,,,,,Dieden,Dieden,625286.0363155218,6767184.972726041
828200001522409,828200001522409,Poelstraat,Poelstraat,5371KJ,5353KJ,13,13.0,,,,,Dieden,Dieden,625239.0145539081,6767195.612007582
828200001531155,828200001531155,Poelstraat,Poelstraat,5371KJ,5353KJ,15,15.0,,,,,Dieden,Dieden,625125.7036756187,6767299.850772775
828200001558377,828200001558377,Burg. v.d. Puttenstraat,Burg. v.d. Puttenstraat,5371KX,5352LE,4,4.0,,,,,Deursen-Dennenburg,Deursen-Dennenburg,625599.9872219997,6764590.6402500495
828200001565289,828200001565289,Burg. v.d. Puttenstraat,Burg. v.d. Puttenstraat,5371KX,5352LE,6,6.0,,,,,Deursen-Dennenburg,Deursen-Dennenburg,625600.7134323618,6764558.775764867
828200001528205,828200001528205,Burg. v.d. Puttenstraat,Burg. v.d. Puttenstraat,5371KX,5352LE,8,8.0,,,,,Deursen-Dennenburg,Deursen-Dennenburg,625596.6241323384,6764536.669432667
828200001574621,828200001574621,Rechtestraat,Rechtestraat,5371LD,5352LL,1,1.0,,,,,Deursen-Dennenburg,Deursen-Dennenburg,626582.3858778382,6764272.869648832
828200001564363,828200001564363,Burg. v.d. Puttenstraat,Burg. v.d. Puttenstraat,5371KX,5352LE,10,10.0,,,,,Deursen-Dennenburg,Deursen-Dennenburg,625585.9788558714,6764505.90634911
828200001570297,828200001570297,Rechtestraat,Rechtestraat,5371LD,5352LL,2,2.0,,,,,Deursen-Dennenburg,Deursen-Dennenburg,626581.6694199163,6764239.786255664
828200001562939,828200001562939,Rechtestraat,Rechtestraat,5371LD,5352LL,3,3.0,,,,,Deursen-Dennenburg,Deursen-Dennenburg,626605.1204661466,6764264.032159899
828200001558007,828200001558007,Rechtestraat,Rechtestraat,5371LD,5352LL,5,5.0,,,,,Deursen-Dennenburg,Deursen-Dennenburg,626627.737009958,6764255.139996799
828200001516035,828200001516035,Rechtestraat,Rechtestraat,5371LD,5352LL,7,7.0,,,,,Deursen-Dennenburg,Deursen-Dennenburg,626647.7494965412,6764247.460299757
828200001537607,828200001537607,Rechtestraat,Rechtestraat,5371LD,5352LL,9,9.0,,,,,Deursen-Dennenburg,Deursen-Dennenburg,626666.0643910813,6764240.341221157
828200001562321,828200001562321,Rechtestraat,Rechtestraat,5371LD,5352LL,11,11.0,,,,,Deursen-Dennenburg,Deursen-Dennenburg,626675.8528414165,6764236.535235185
828200001516037,828200001516037,Rechtestraat,Rechtestraat,5371LD,5352LL,13,13.0,,,,,Deursen-Dennenburg,Deursen-Dennenburg,626690.9723700358,6764246.442111068
828200001531159,828200001531159,Rechtestraat,Rechtestraat,5371LD,5352LL,15,15.0,,,,,Deursen-Dennenburg,Deursen-Dennenburg,626704.5879362568,6764225.365267498
828200001513957,828200001513957,Rechtestraat,Rechtestraat,5371LD,5352LL,17,17.0,,,,,Deursen-Dennenburg,Deursen-Dennenburg,626720.691350131,6764219.104571544
828200001541629,828200001541629,Reiakker,Reiakker,5371LG,5352KB,4,4.0,,,,,Deursen-Dennenburg,Deursen-Dennenburg,625204.6235673336,6763414.603384825
828200001541631,828200001541631,Ringelenburg,Ringelenburg,5371NN,5358NL,1,1.0,,,,,Huisseling,Huisseling,627535.2642800668,6761287.956889741
828200001528207,828200001528207,Ringelenburg,Ringelenburg,5371NN,5358NL,2,2.0,,,,,Huisseling,Huisseling,627331.0251243458,6761430.316763457
828200001528209,828200001528209,Ringelenburg,Ringelenburg,5371NN,5358NL,3,3.0,,,,,Huisseling,Huisseling,627667.3961420022,6761056.685849255
828200001562941,828200001562941,Ringelenburg,Ringelenburg,5371NN,5358NL,5,5.0,,,,,Huisseling,Huisseling,627579.082461936,6761108.460791676
828200001516039,828200001516039,St. Rochusstraat,St. Rochusstraat,5371KZ,5352LG,13,13.0,,,,,Deursen-Dennenburg,Deursen-Dennenburg,626262.4963297811,6764436.29031853
828200001528211,828200001528211,St. Rochusstraat,St. Rochusstraat,5371KZ,5352LG,14,14.0,,,,,Deursen-Dennenburg,Deursen-Dennenburg,626250.4606449103,6764483.912952197
828200001541633,828200001541633,St. Rochusstraat,St. Rochusstraat,5371KZ,5352LG,15,15.0,,,,,Deursen-Dennenburg,Deursen-Dennenburg,626236.3319267189,6764443.3454716485
828200001566793,828200001566793,St. Rochusstraat,St. Rochusstraat,5371KZ,5352LG,16,16.0,,,,,Deursen-Dennenburg,Deursen-Dennenburg,626239.3244473635,6764486.849200331
828200001541429,828200001541429,St. Rochusstraat,St. Rochusstraat,5371KZ,5352LG,17,17.0,,,,,Deursen-Dennenburg,Deursen-Dennenburg,626215.7273881483,6764448.901733806
828200001516041,828200001516041,St. Rochusstraat,St. Rochusstraat,5371KZ,5352LG,18,18.0,,,,,Deursen-Dennenburg,Deursen-Dennenburg,626216.397339268,6764492.895322628
828200001558379,828200001558379,St. Rochusstraat,St. Rochusstraat,5371KZ,5352LG,19,19.0,,,,,Deursen-Dennenburg,Deursen-Dennenburg,626193.815078706,6764454.810128692
828200001546471,828200001546471,St. Rochusstraat,St. Rochusstraat,5371KZ,5352LG,20,20.0,,,,,Deursen-Dennenburg,Deursen-Dennenburg,626187.245769304,6764500.581527571
828200001569973,828200001569973,St. Rochusstraat,St. Rochusstraat,5371KZ,5352LG,21,21.0,,,,,Deursen-Dennenburg,Deursen-Dennenburg,626160.1282108934,6764463.894551509
828200001550887,828200001550887,Kapelstraat,Kapelstraat,5371RD,5359ND,6,6.0,,,,,Keent,Keent,633233.9935427431,6759361.812688801
828200001539653,828200001539653,Sibeliuspark,Sibeliuspark,5343BR,5343BR,656,654.0,,,,,Oss,Oss,615136.9646554047,6755387.86978248
828200001540287,828200001540287,Langestraat,Langestraat,5371KD,5353KD,2,2.0,A,A,,,Dieden,Dieden,624245.7641443574,6767619.738020019
828200001530967,828200001530967,Maasdijk,Maasdijk,5371KA,5355KA,63,63.0,,,,,Neerlangel,Neerlangel,628450.1269624982,6765798.485131797
828200001515205,828200001515205,Oude Graafsestraat,Oude Graafsestraat,5371PV,5357PG,2,2.0,A,A,,,Overlangel,Overlangel,630977.0947998,6759725.597834642
828200001510043,828200001510043,Oude Graafsestraat,Oude Graafsestraat,5371PV,5357PG,2,2.0,B,B,,,Overlangel,Overlangel,630997.3098493774,6759696.609764954
828200001510045,828200001510045,Oude Graafsestraat,Oude Graafsestraat,5371PV,5357PG,3,3.0,,,,,Overlangel,Overlangel,631190.7090998784,6759472.901911509
828200001580007,828200001580007,Oude Graafsestraat,Oude Graafsestraat,5371PV,5357PG,4,4.0,,,,,Overlangel,Overlangel,631039.7534739234,6759629.280566321
828200001551727,828200001551727,Oude Graafsestraat,Oude Graafsestraat,5371PV,5357PG,5,5.0,,,,,Overlangel,Overlangel,631196.4678520192,6759465.98413758
828200001532375,828200001532375,Oude Graafsestraat,Oude Graafsestraat,5371PV,5357PG,6,6.0,,,,,Overlangel,Overlangel,631064.5781736524,6759589.512818119
828200001526381,828200001526381,Oude Graafsestraat,Oude Graafsestraat,5371PV,5357PG,7,7.0,,,,,Overlangel,Overlangel,631201.8669787998,6759459.499533479
828200001526685,828200001526685,Oude Graafsestraat,Oude Graafsestraat,5371PV,5357PG,9,9.0,,,,,Overlangel,Overlangel,631210.9829055795,6759441.127720751
828200001526383,828200001526383,Oude Graafsestraat,Oude Graafsestraat,5371PV,5357PG,10,10.0,,,,,Overlangel,Overlangel,631097.9547188128,6759536.045708928
828200001515207,828200001515207,Oude Graafsestraat,Oude Graafsestraat,5371PV,5357PG,11,11.0,,,,,Overlangel,Overlangel,631216.401415637,6759434.657604773
828200001510047,828200001510047,Oude Graafsestraat,Oude Graafsestraat,5371PV,5357PG,12,12.0,,,,,Overlangel,Overlangel,631113.8982300349,6759510.504513417
828200001565311,828200001565311,Oude Graafsestraat,Oude Graafsestraat,5371PV,5357PG,13,13.0,,,,,Overlangel,Overlangel,631226.8061003338,6759417.139471793
828200001567349,828200001567349,Oude Graafsestraat,Oude Graafsestraat,5371PV,5357PG,15,15.0,,,,,Overlangel,Overlangel,631231.8293730563,6759411.073562556
828200001510049,828200001510049,Oude Graafsestraat,Oude Graafsestraat,5371PV,5357PG,17,17.0,,,,,Overlangel,Overlangel,631241.7033726899,6759393.977975391
828200001573961,828200001573961,Oude Graafsestraat,Oude Graafsestraat,5371PV,5357PG,19,19.0,,,,,Overlangel,Overlangel,631321.4240997169,6759263.315663448
828200001577747,828200001577747,Oude Graafsestraat,Oude Graafsestraat,5371PV,5357PG,20,20.0,,,,,Overlangel,Overlangel,631163.0424720425,6759454.204573167
828200001541339,828200001541339,Oude Graafsestraat,Oude Graafsestraat,5371PV,5357PG,21,21.0,,,,,Overlangel,Overlangel,631335.9620218038,6759231.278220921
828200001520729,828200001520729,Oude Graafsestraat,Oude Graafsestraat,5371PV,5357PG,22,22.0,,,,,Overlangel,Overlangel,631177.7067841372,6759422.067533665
828200001520731,828200001520731,Oude Graafsestraat,Oude Graafsestraat,5371PV,5357PG,28,28.0,,,,,Overlangel,Overlangel,631192.3148013076,6759368.806893429
828200001528385,828200001528385,Oude Graafsestraat,Oude Graafsestraat,5371PV,5357PG,30,30.0,,,,,Overlangel,Overlangel,631226.8135189714,6759353.460390615
828200001526385,828200001526385,Oude Graafsestraat,Oude Graafsestraat,5371PV,5357PG,32,32.0,,,,,Overlangel,Overlangel,631237.4066254089,6759320.131587156
828200001520733,828200001520733,Oude Graafsestraat,Oude Graafsestraat,5371PV,5357PG,42,42.0,,,,,Overlangel,Overlangel,631381.6161182853,6759109.3312873095
828200001577665,828200001577665,Graftstraat,Graftstraat,5371PM,5356NE,1,1.0,,,,,Neerloon,Neerloon,632463.7980525227,6762002.299714088
828200001556967,828200001556967,Graftstraat,Graftstraat,5371PM,5356NE,2,2.0,,,,,Neerloon,Neerloon,632272.5626512157,6761822.866851619
828200001551729,828200001551729,Graftstraat,Graftstraat,5371PM,5356NE,4,4.0,,,,,Neerloon,Neerloon,632366.6313866763,6761851.114419033
828200001535387,828200001535387,Graftstraat,Graftstraat,5371PM,5356NE,6,6.0,,,,,Neerloon,Neerloon,632391.5844258971,6761851.123389516
828200001563175,828200001563175,Grotestraat,Grotestraat,5371BV,5358BV,25,25.0,,,,,Huisseling,Huisseling,628796.5619132948,6762612.8457405325
828200001534789,828200001534789,Grotestraat,Grotestraat,5371BV,5358BV,27,27.0,,,,,Huisseling,Huisseling,628833.8402824431,6762594.057355599
828200001532379,828200001532379,Grotestraat,Grotestraat,5371BX,5358BX,32,32.0,,,,,Huisseling,Huisseling,628731.5915616871,6762622.2117367275
828200001559719,828200001559719,Rondestraat,Rondestraat,5371LC,5352LK,6,6.0,,,,,Deursen-Dennenburg,Deursen-Dennenburg,626504.239345336,6764158.941495273
828200001570265,828200001570265,Rondestraat,Rondestraat,5371LC,5352LK,8,8.0,,,,,Deursen-Dennenburg,Deursen-Dennenburg,626531.3160612535,6764194.826773514
828200001528227,828200001528227,Rondestraat,Rondestraat,5371LC,5352LK,10,10.0,,,,,Deursen-Dennenburg,Deursen-Dennenburg,626549.3642244126,6764221.710269947
828200001575547,828200001575547,Rondestraat,Rondestraat,5371LB,5352LJ,11,11.0,,,,,Deursen-Dennenburg,Deursen-Dennenburg,626480.7759492379,6764198.719361692
828200001528229,828200001528229,Rondestraat,Rondestraat,5371LC,5352LK,12,12.0,,,,,Deursen-Dennenburg,Deursen-Dennenburg,626558.3030979417,6764283.98007642
828200001537915,828200001537915,Rondestraat,Rondestraat,5371LB,5352LJ,13,13.0,,,,,Deursen-Dennenburg,Deursen-Dennenburg,626491.552801348,6764216.129245139
828200001520563,828200001520563,Rondestraat,Rondestraat,5371LC,5352LK,14,14.0,,,,,Deursen-Dennenburg,Deursen-Dennenburg,626550.4917040244,6764294.6577017605
828200001541439,828200001541439,Rondestraat,Rondestraat,5371LB,5352LJ,15,15.0,,,,,Deursen-Dennenburg,Deursen-Dennenburg,626507.0535892837,6764244.301234056
828200001537917,828200001537917,Rondestraat,Rondestraat,5371LC,5352LK,16,16.0,,,,,Deursen-Dennenburg,Deursen-Dennenburg,626515.7895970155,6764343.911867345
828200001565297,828200001565297,Rondestraat,Rondestraat,5371LB,5352LJ,17,17.0,,,,,Deursen-Dennenburg,Deursen-Dennenburg,626520.5105469292,6764265.89948517
828200001516947,828200001516947,Rondestraat,Rondestraat,5371LB,5352LJ,17,17.0,A,A,,,Deursen-Dennenburg,Deursen-Dennenburg,626500.1994116628,6764304.868133053
828200001528231,828200001528231,Rondestraat,Rondestraat,5371LC,5352LK,18,18.0,,,,,Deursen-Dennenburg,Deursen-Dennenburg,626501.1894770428,6764368.106745272
828200001528233,828200001528233,Rondestraat,Rondestraat,5371LC,5352LK,18,18.0,A,A,,,Deursen-Dennenburg,Deursen-Dennenburg,626495.5240223473,6764375.73047668
828200001531179,828200001531179,Rondestraat,Rondestraat,5371LB,5352LJ,19,19.0,,,,,Deursen-Dennenburg,Deursen-Dennenburg,626483.8246178572,6764327.775928084
828200001541441,828200001541441,Rondestraat,Rondestraat,5371LB,5352LJ,21,21.0,,,,,Deursen-Dennenburg,Deursen-Dennenburg,626469.2265150694,6764348.200605993
828200001559721,828200001559721,Rondestraat,Rondestraat,5371LC,5352LK,22,22.0,,,,,Deursen-Dennenburg,Deursen-Dennenburg,626461.0945222587,6764419.765689468
828200001516949,828200001516949,Rondestraat,Rondestraat,5371LB,5352LJ,25,25.0,,,,,Deursen-Dennenburg,Deursen-Dennenburg,626427.389622832,6764401.20156312
828200001537919,828200001537919,Rondestraat,Rondestraat,5371LB,5352LJ,25,25.0,A,A,,,Deursen-Dennenburg,Deursen-Dennenburg,626375.3435496168,6764417.714708556
828200001563443,828200001563443,Rondestraat,Rondestraat,5371LB,5352LJ,25,25.0,C,C,,,Deursen-Dennenburg,Deursen-Dennenburg,626343.4744329182,6764427.327812877
828200001558387,828200001558387,Rondestraat,Rondestraat,5371LC,5352LK,28,28.0,,,,,Deursen-Dennenburg,Deursen-Dennenburg,626434.293436291,6764479.887021291
828200001559723,828200001559723,Rondestraat,Rondestraat,5371LB,5352LJ,29,29.0,,,,,Deursen-Dennenburg,Deursen-Dennenburg,626394.6831414035,6764445.183998044
828200001579509,828200001579509,Rondestraat,Rondestraat,5371LB,5352LJ,29,29.0,A,A,,,Deursen-Dennenburg,Deursen-Dennenburg,626375.1757827337,6764446.695068167
828200001537921,828200001537921,Rondestraat,Rondestraat,5371LC,5352LK,30,30.0,,,,,Deursen-Dennenburg,Deursen-Dennenburg,626435.954495066,6764497.123893518
828200001579331,828200001579331,Rondestraat,Rondestraat,5371LB,5352LJ,31,31.0,,,,,Deursen-Dennenburg,Deursen-Dennenburg,626395.4272681177,6764502.594529398
828200001528237,828200001528237,Rondestraat,Rondestraat,5371LC,5352LK,32,32.0,,,,,Deursen-Dennenburg,Deursen-Dennenburg,626437.9748100976,6764518.077996744
828200001543197,828200001543197,Rondestraat,Rondestraat,5371LC,5352LK,36,36.0,,,,,Deursen-Dennenburg,Deursen-Dennenburg,626441.4940987421,6764554.58038585
828200001514361,828200001514361,Rondestraat,Rondestraat,5371LC,5352LK,38,38.0,,,,,Deursen-Dennenburg,Deursen-Dennenburg,626443.0900150801,6764571.141261526
828200001514363,828200001514363,Rondestraat,Rondestraat,5371LC,5352LK,40,40.0,,,,,Deursen-Dennenburg,Deursen-Dennenburg,626444.7193316488,6764588.0402449155
828200001579121,828200001579121,Rondestraat,Rondestraat,5371LC,5352LK,42,42.0,,,,,Deursen-Dennenburg,Deursen-Dennenburg,626445.9242245058,6764600.545873589
828200001558389,828200001558389,Rondestraat,Rondestraat,5371LC,5352LK,44,44.0,,,,,Deursen-Dennenburg,Deursen-Dennenburg,626448.2370673312,6764624.542949372
828200001552767,828200001552767,Rosmolenstraat,Rosmolenstraat,5371KH,5353KH,1,1.0,,,,,Dieden,Dieden,625029.3612113171,6766981.603624505
828200001531181,828200001531181,Dr. Ruijsstraat,Dr. Ruijsstraat,5371PS,5357PD,1,1.0,,,,,Overlangel,Overlangel,631090.3984393524,6759712.089856861
828200001562323,828200001562323,Dr. Ruijsstraat,Dr. Ruijsstraat,5371PT,5357PE,2,2.0,,,,,Overlangel,Overlangel,631318.9955220524,6759550.267349925
828200001541445,828200001541445,Dr. Ruijsstraat,Dr. Ruijsstraat,5371PT,5357PE,2,2.0,A,A,,,Overlangel,Overlangel,631277.740658251,6759572.96497416
828200001565847,828200001565847,Dr. Ruijsstraat,Dr. Ruijsstraat,5371PT,5357PE,2,2.0,B,B,,,Overlangel,Overlangel,631286.1182068285,6759568.36869019
828200001509731,828200001509731,Dr. Ruijsstraat,Dr. Ruijsstraat,5371PT,5357PE,2,2.0,C,C,,,Overlangel,Overlangel,631293.0165983263,6759564.583513559
828200001514365,828200001514365,Dr. Ruijsstraat,Dr. Ruijsstraat,5371PS,5357PD,3,3.0,,,,,Overlangel,Overlangel,631126.1750540899,6759683.097582213
828200001537925,828200001537925,Dr. Ruijsstraat,Dr. Ruijsstraat,5371PT,5357PE,4,4.0,,,,,Overlangel,Overlangel,631330.0785734454,6759544.177542381
828200001528239,828200001528239,Dr. Ruijsstraat,Dr. Ruijsstraat,5371PS,5357PD,5,5.0,,,,,Overlangel,Overlangel,631149.8363910085,6759665.761880685
828200001556183,828200001556183,Dr. Ruijsstraat,Dr. Ruijsstraat,5371PT,5357PE,6,6.0,,,,,Overlangel,Overlangel,631349.0449514402,6759533.758537736
828200001528241,828200001528241,Dr. Ruijsstraat,Dr. Ruijsstraat,5371PT,5357PE,8,8.0,,,,,Overlangel,Overlangel,631358.4041888976,6759528.616619834
828200001531183,828200001531183,Dr. Ruijsstraat,Dr. Ruijsstraat,5371PT,5357PE,8,8.0,A,A,,,Overlangel,Overlangel,631403.6614136184,6759508.263961972
828200001537927,828200001537927,Dr. Ruijsstraat,Dr. Ruijsstraat,5371PS,5357PD,9,9.0,,,,,Overlangel,Overlangel,631214.1777057248,6759648.249645186
828200001531185,828200001531185,Dr. Ruijsstraat,Dr. Ruijsstraat,5371PT,5357PE,10,10.0,,,,,Overlangel,Overlangel,631462.5874800804,6759478.693217213
828200001509733,828200001509733,Dr. Ruijsstraat,Dr. Ruijsstraat,5371PS,5357PD,11,11.0,,,,,Overlangel,Overlangel,631239.1855708391,6759636.720466088
828200001531187,828200001531187,Dr. Ruijsstraat,Dr. Ruijsstraat,5371PT,5357PE,12,12.0,,,,,Overlangel,Overlangel,631496.2741852908,6759465.646446994
828200001556185,828200001556185,Dr. Ruijsstraat,Dr. Ruijsstraat,5371PS,5357PD,13,13.0,,,,,Overlangel,Overlangel,631272.9297402372,6759620.771407393
828200001520565,828200001520565,Dr. Ruijsstraat,Dr. Ruijsstraat,5371PT,5357PE,14,14.0,,,,,Overlangel,Overlangel,631530.8158569892,6759432.09791518
828200001531189,828200001531189,Dr. Ruijsstraat,Dr. Ruijsstraat,5371PS,5357PD,15,15.0,,,,,Overlangel,Overlangel,631319.5327364368,6759588.786614756
828200001516951,828200001516951,Dr. Ruijsstraat,Dr. Ruijsstraat,5371PT,5357PE,16,16.0,,,,,Overlangel,Overlangel,631540.6007519998,6759426.564452459
828200001514367,828200001514367,Dr. Ruijsstraat,Dr. Ruijsstraat,5371PS,5357PD,17,17.0,,,,,Overlangel,Overlangel,631345.5441700927,6759574.526795173
828200001559219,828200001559219,Dr. Ruijsstraat,Dr. Ruijsstraat,5371PS,5357PD,17,17.0,A,A,,,Overlangel,Overlangel,631508.8806325812,6759500.96439881
828200001572477,828200001572477,Dr. Ruijsstraat,Dr. Ruijsstraat,5371PT,5357PE,18,18.0,,,,,Overlangel,Overlangel,631558.702774485,6759416.328010224
828200001574165,828200001574165,Dr. Ruijsstraat,Dr. Ruijsstraat,5371PS,5357PD,19,19.0,,,,,Overlangel,Overlangel,631357.2548709308,6759568.073854425
828200001567583,828200001567583,Dr. Ruijsstraat,Dr. Ruijsstraat,5371PT,5357PE,20,20.0,,,,,Overlangel,Overlangel,631567.9983832065,6759411.069743576
828200001528243,828200001528243,Dr. Ruijsstraat,Dr. Ruijsstraat,5371PT,5357PE,22,22.0,,,,,Overlangel,Overlangel,631593.6835694009,6759396.543901764
828200001528245,828200001528245,Dr. Ruijsstraat,Dr. Ruijsstraat,5371PS,5357PD,23,23.0,,,,,Overlangel,Overlangel,631563.6325340893,6759463.319048241
828200001556187,828200001556187,Dr. Ruijsstraat,Dr. Ruijsstraat,5371PS,5357PD,23,23.0,A,A,,,Overlangel,Overlangel,631572.1170533879,6759458.924243426
828200001543199,828200001543199,Dr. Ruijsstraat,Dr. Ruijsstraat,5371PT,5357PE,24,24.0,,,,,Overlangel,Overlangel,631635.2705262271,6759373.0255936505
828200001565299,828200001565299,Dr. Ruijsstraat,Dr. Ruijsstraat,5371PS,5357PD,25,25.0,,,,,Overlangel,Overlangel,631605.7405732675,6759445.0509621855
828200001556191,828200001556191,De Rijt,De Rijt,5371LH,5352KC,1,1.0,,,,,Deursen-Dennenburg,Deursen-Dennenburg,627300.375153454,6763535.06182963
828200001516957,828200001516957,De Rijt,De Rijt,5371LH,5352KC,1,1.0,A,A,,,Deursen-Dennenburg,Deursen-Dennenburg,626425.3294773524,6763625.055473004
828200001558393,828200001558393,De Rijt,De Rijt,5371LH,5352KC,2,2.0,,,,,Deursen-Dennenburg,Deursen-Dennenburg,627137.2219310424,6763526.760144258
828200001556193,828200001556193,De Rijt,De Rijt,5371LH,5352KC,3,3.0,,,,,Deursen-Dennenburg,Deursen-Dennenburg,626016.8553090859,6763523.301415394
828200001520567,828200001520567,De Rijt,De Rijt,5371LH,5352KC,4,4.0,,,,,Deursen-Dennenburg,Deursen-Dennenburg,627000.0822247312,6763563.924133907
828200001531191,828200001531191,De Rijt,De Rijt,5371LH,5352KC,6,6.0,,,,,Deursen-Dennenburg,Deursen-Dennenburg,626918.0162997844,6763585.933090031
828200001551733,828200001551733,Grotestraat,Grotestraat,5371BV,5358BV,33,33.0,,,,,Huisseling,Huisseling,628542.2974786783,6762211.730888253
828200001551735,828200001551735,Grotestraat,Grotestraat,5371BZ,5358BZ,34,34.0,,,,,Huisseling,Huisseling,628708.4601422522,6762582.668908976
828200001520739,828200001520739,Grotestraat,Grotestraat,5371BV,5358BV,35,35.0,,,,,Huisseling,Huisseling,628394.7444900107,6762024.6304977825
828200001526387,828200001526387,Grotestraat,Grotestraat,5371BZ,5358BZ,36,36.0,,,,,Huisseling,Huisseling,628493.5820379381,6762320.483186561
828200001574813,828200001574813,Grotestraat,Grotestraat,5371BW,5358BW,37,37.0,,,,,Huisseling,Huisseling,628347.3370971372,6761984.989786818
828200001510051,828200001510051,Grotestraat,Grotestraat,5371BZ,5358BZ,38,38.0,,,,,Huisseling,Huisseling,628495.0187531338,6762294.768601629
828200001577491,828200001577491,Grotestraat,Grotestraat,5371BZ,5358BZ,40,40.0,,,,,Huisseling,Huisseling,628477.388283747,6762217.499767707
828200001551737,828200001551737,Grotestraat,Grotestraat,5371BZ,5358BZ,40,40.0,A,A,,,Huisseling,Huisseling,628361.0411987863,6762081.6933159325
828200001573915,828200001573915,Grotestraat,Grotestraat,5371BW,5358BW,41,41.0,,,,,Huisseling,Huisseling,628294.6638530946,6761941.203980216
828200001541027,828200001541027,Grotestraat,Grotestraat,5371BZ,5358BZ,42,42.0,,,,,Huisseling,Huisseling,628310.1429702847,6762039.542656216
828200001551739,828200001551739,Grotestraat,Grotestraat,5371BW,5358BW,43,43.0,,,,,Huisseling,Huisseling,628250.1551809574,6761904.326984176
828200001557251,828200001557251,Grotestraat,Grotestraat,5371BZ,5358BZ,44,44.0,,,,,Huisseling,Huisseling,628265.3928478567,6762001.624420594
828200001577143,828200001577143,Grotestraat,Grotestraat,5371BW,5358BW,45,45.0,,,,,Huisseling,Huisseling,628228.7918911822,6761886.429621723
828200001574815,828200001574815,Grotestraat,Grotestraat,5371BZ,5358BZ,46,46.0,,,,,Huisseling,Huisseling,628242.7355688766,6761982.42929667
828200001551741,828200001551741,Grotestraat,Grotestraat,5371BW,5358BW,47,47.0,,,,,Huisseling,Huisseling,628219.6509431463,6761878.815650224
828200001541029,828200001541029,Grotestraat,Grotestraat,5371BZ,5358BZ,50,50.0,,,,,Huisseling,Huisseling,628190.8551537773,6761945.090959899
828200001532381,828200001532381,Grotestraat,Grotestraat,5371BZ,5358BZ,50,50.0,A,A,,,Huisseling,Huisseling,628172.3158286568,6761930.539876579
828200001528391,828200001528391,Grotestraat,Grotestraat,5371BZ,5358BZ,50,50.0,B,B,,,Huisseling,Huisseling,628145.7298075291,6761915.808472547
828200001532383,828200001532383,Grotestraat,Grotestraat,5371BZ,5358BZ,52,52.0,,,,,Huisseling,Huisseling,628122.4675224476,6761905.681874333
828200001534791,828200001534791,Grotestraat,Grotestraat,5371BW,5358BW,53,53.0,,,,,Huisseling,Huisseling,628162.1698600802,6761830.528680779
828200001565033,828200001565033,Grotestraat,Grotestraat,5371BZ,5358BZ,54,54.0,,,,,Huisseling,Huisseling,628014.863699112,6761929.235179709
828200001573917,828200001573917,Grotestraat,Grotestraat,5371BW,5358BW,55,55.0,,,,,Huisseling,Huisseling,628142.1351107341,6761813.644012752
828200001518023,828200001518023,Grotestraat,Grotestraat,5371BW,5358BW,57,57.0,,,,,Huisseling,Huisseling,628084.4948245371,6761781.8435419835
828200001557255,828200001557255,Grotestraat,Grotestraat,5371BZ,5358BZ,58,58.0,,,,,Huisseling,Huisseling,628038.7771439715,6761804.782631939
828200001559281,828200001559281,Grotestraat,Grotestraat,5371BW,5358BW,59,59.0,,,,,Huisseling,Huisseling,628047.2909369041,6761746.57094799
828200001510053,828200001510053,Grotestraat,Grotestraat,5371BW,5358BW,61,61.0,,,,,Huisseling,Huisseling,628034.4412657482,6761700.650340072
828200001535393,828200001535393,Hamelspoelweg,Hamelspoelweg,5371PX,5357ND,2,2.0,,,,,Overlangel,Overlangel,631028.9739506323,6758617.948050875
828200001559279,828200001559279,Hamstraat,Hamstraat,5371NR,5358NM,1,1.0,,,,,Huisseling,Huisseling,627958.4118479246,6761842.218212448
828200001565313,828200001565313,Hamstraat,Hamstraat,5371NP,5358NM,2,2.0,,,,,Huisseling,Huisseling,627921.9169120246,6761811.233685557
828200001571519,828200001571519,Hamstraat,Hamstraat,5371NR,5358NM,3,3.0,,,,,Huisseling,Huisseling,628049.5520267718,6761656.749155748
828200001532387,828200001532387,Hamstraat,Hamstraat,5371NP,5358NM,4,4.0,,,,,Huisseling,Huisseling,627940.7154639036,6761766.513675282
828200001532389,828200001532389,Hamstraat,Hamstraat,5371NP,5358NM,6,6.0,,,,,Huisseling,Huisseling,627961.1348956944,6761711.500624069
828200001566399,828200001566399,Hamstraat,Hamstraat,5371NR,5358NM,5,5.0,,,,,Huisseling,Huisseling,628084.8094093769,6761594.156467583
828200001518025,828200001518025,Hamstraat,Hamstraat,5371NP,5358NM,8,8.0,,,,,Huisseling,Huisseling,627982.8537390301,6761669.71150898
828200001566401,828200001566401,Hamstraat,Hamstraat,5371NR,5358NM,9,9.0,,,,,Huisseling,Huisseling,628115.0062153199,6761539.227872884
828200001526389,828200001526389,Hamstraat,Hamstraat,5371NP,5358NM,10,10.0,,,,,Huisseling,Huisseling,628046.6278385114,6761537.862128299
828200001510055,828200001510055,Hamstraat,Hamstraat,5371NP,5358NM,12,12.0,,,,,Huisseling,Huisseling,628087.2953577505,6761450.69296156
828200001532391,828200001532391,Hamstraat,Hamstraat,5371NP,5358NM,12,12.0,A,A,,,Huisseling,Huisseling,628093.710879242,6761436.206819142
828200001568925,828200001568925,Hamstraat,Hamstraat,5371NP,5358NM,14,14.0,,,,,Huisseling,Huisseling,628100.599632366,6761374.409394673
828200001577669,828200001577669,Heuvelakkerstraat,Heuvelakkerstraat,5371PL,5356PD,1,1.0,,,,,Neerloon,Neerloon,631672.0638119865,6762130.910844422
828200001551755,828200001551755,Heuveleindstraat,Heuveleindstraat,5371NL,5358NJ,2,2.0,A,A,,,Huisseling,Huisseling,627203.3152530651,6761420.575754351
828200001518035,828200001518035,Heuveleindstraat,Heuveleindstraat,5371NL,5358NJ,4,4.0,,,,,Huisseling,Huisseling,627076.181969231,6761397.543188124
828200001543011,828200001543011,Heuveleindstraat,Heuveleindstraat,5371NL,5358NJ,5,5.0,,,,,Huisseling,Huisseling,627710.5340015022,6761737.37658638
828200001574623,828200001574623,De Rijt,De Rijt,5371LH,5352KC,12,12.0,,,,,Deursen-Dennenburg,Deursen-Dennenburg,626785.8601963104,6763619.921955359
828200001541777,828200001541777,Schaijkseweg,Heide,5373KL,5373KS,3,6.0,,,,,Herpen,Herpen,625623.7785134214,6758232.903755955
828200001554037,828200001554037,Laagstraat,Laagstraat,5371LE,5352LM,58,58.0,,,,,Deursen-Dennenburg,Deursen-Dennenburg,625894.3347715768,6764348.718237446
828200001538887,828200001538887,Sint Laurensstraat,Sint Laurensstraat,5371KK,5353KK,22,22.0,,,,,Dieden,Dieden,625328.5791177914,6767122.121087737
828200001557261,828200001557261,Heuveleindstraat,Heuveleindstraat,5371NL,5358NJ,6,6.0,,,,,Huisseling,Huisseling,626871.7824748729,6761459.124099258
828200001526395,828200001526395,Heuveleindstraat,Heuveleindstraat,5371NL,5358NJ,8,8.0,,,,,Huisseling,Huisseling,626633.7434483529,6761574.195231805
828200001515217,828200001515217,Heuveleindstraat,Heuveleindstraat,5371NL,5358NJ,9,9.0,,,,,Huisseling,Huisseling,627662.2807683378,6761711.600127191
828200001551757,828200001551757,Heuveleindstraat,Heuveleindstraat,5371NL,5358NJ,11,11.0,,,,,Huisseling,Huisseling,627644.8900510703,6761700.800197411
828200001526397,828200001526397,Hillekamp,Hillekamp,5371LT,5352KG,1,1.0,,,,,Deursen-Dennenburg,Deursen-Dennenburg,624074.2723612627,6764375.793919282
828200001526401,828200001526401,Hoekstraat,Hoekstraat,5371NW,5358NR,1,1.0,,,,,Huisseling,Huisseling,628245.2626203939,6762400.292977498
828200001571353,828200001571353,Rondestraat,Rondestraat,5371LC,5352LK,20,20.0,,,,,Deursen-Dennenburg,Deursen-Dennenburg,626524.0160624799,6764412.361203971
828200001526041,828200001526041,Hoogveldsestraat,Hoogveldsestraat,5371RA,5359NA,17,17.0,,,,,Keent,Keent,634597.5307741361,6759313.8568802215
828200001557369,828200001557369,Hoogveldsestraat,Hoogveldsestraat,5371RA,5359NA,19,19.0,,,,,Keent,Keent,634622.8827842812,6759356.282747457
828200001569809,828200001569809,Hongerveldstraat,Hongerveldstraat,5371NB,5358NB,2,2.0,,,,,Huisseling,Huisseling,627756.8877057309,6761896.791278421
828200001543035,828200001543035,Hongerveldstraat,Hongerveldstraat,5371NB,5358NB,3,3.0,,,,,Huisseling,Huisseling,627702.5121895213,6761857.954536368
828200001510061,828200001510061,Hongerveldstraat,Hongerveldstraat,5371NB,5358NB,4,4.0,,,,,Huisseling,Huisseling,627710.17690446,6761952.177804538
828200001563179,828200001563179,Hongerveldstraat,Hongerveldstraat,5371NB,5358NB,5,5.0,,,,,Huisseling,Huisseling,627695.3841654978,6761881.337004921
828200001563659,828200001563659,Hongerveldstraat,Hongerveldstraat,5371NB,5358NB,7,7.0,,,,,Huisseling,Huisseling,627686.9181891633,6761909.28413025
828200001572229,828200001572229,Hongerveldstraat,Hongerveldstraat,5371NB,5358NB,7,7.0,A,A,,,Huisseling,Huisseling,627664.7013648292,6761953.270464143
828200001543037,828200001543037,Hongerveldstraat,Hongerveldstraat,5371NB,5358NB,9,9.0,,,,,Huisseling,Huisseling,627651.5346289069,6762008.65882226
828200001551771,828200001551771,Hongerveldstraat,Hongerveldstraat,5371NB,5358NB,13,13.0,,,,,Huisseling,Huisseling,627574.1612807646,6762310.819764787
828200001557277,828200001557277,Hoogstraat,Hoogstraat,5371KT,5352LC,1,1.0,A,A,,,Deursen-Dennenburg,Deursen-Dennenburg,626530.1812544417,6764628.531431434
828200001557279,828200001557279,Hoogstraat,Hoogstraat,5371KT,5352LC,1,1.0,B,B,,,Deursen-Dennenburg,Deursen-Dennenburg,626562.8880481911,6764624.116812944
828200001510063,828200001510063,Hoogstraat,Hoogstraat,5371KT,5352LC,1,1.0,E,E,,,Deursen-Dennenburg,Deursen-Dennenburg,626626.3680864334,6764616.769359098
828200001568929,828200001568929,Hoogstraat,Hoogstraat,5371KT,5352LC,1,1.0,F,F,,,Deursen-Dennenburg,Deursen-Dennenburg,626672.2991788515,6764606.421848722
828200001572625,828200001572625,Hoogstraat,Hoogstraat,5371KV,5352LC,2,2.0,,,,,Deursen-Dennenburg,Deursen-Dennenburg,627386.2375269945,6764369.631731792
828200001535731,828200001535731,Hoogstraat,Hoogstraat,5371KT,5352LC,3,3.0,,,,,Deursen-Dennenburg,Deursen-Dennenburg,626411.6952110144,6764623.985994817
828200001551775,828200001551775,Hoogstraat,Hoogstraat,5371KV,5352LC,4,4.0,,,,,Deursen-Dennenburg,Deursen-Dennenburg,627211.3938976654,6764437.899157396
828200001528407,828200001528407,Hoogstraat,Hoogstraat,5371KT,5352LC,5,5.0,,,,,Deursen-Dennenburg,Deursen-Dennenburg,626353.1405715501,6764592.480736422
828200001543043,828200001543043,Hoogstraat,Hoogstraat,5371KT,5352LC,5,5.0,A,A,,,Deursen-Dennenburg,Deursen-Dennenburg,626324.8137883948,6764584.519288968
828200001551777,828200001551777,Hoogstraat,Hoogstraat,5371KT,5352LC,7,7.0,,,,,Deursen-Dennenburg,Deursen-Dennenburg,626284.3321978414,6764573.537958044
828200001557047,828200001557047,Hoogstraat,Hoogstraat,5371KV,5352LC,8,8.0,,,,,Deursen-Dennenburg,Deursen-Dennenburg,626334.8710728012,6764625.055449722
828200001575953,828200001575953,Hoogstraat,Hoogstraat,5371KT,5352LC,9,9.0,,,,,Deursen-Dennenburg,Deursen-Dennenburg,626251.0381343719,6764566.165441977
828200001543045,828200001543045,Hoogstraat,Hoogstraat,5371KV,5352LC,10,10.0,,,,,Deursen-Dennenburg,Deursen-Dennenburg,626227.5684901199,6764602.305435616
828200001526415,828200001526415,Hoogstraat,Hoogstraat,5371KT,5352LC,11,11.0,,,,,Deursen-Dennenburg,Deursen-Dennenburg,626214.6502621154,6764559.306191628
828200001537163,828200001537163,Hoogstraat,Hoogstraat,5371KV,5352LC,12,12.0,,,,,Deursen-Dennenburg,Deursen-Dennenburg,626165.5526267517,6764590.531791202
828200001534817,828200001534817,Hoogstraat,Hoogstraat,5371KT,5352LC,13,13.0,,,,,Deursen-Dennenburg,Deursen-Dennenburg,626183.032901907,6764553.322704263
828200001526417,828200001526417,Hoogstraat,Hoogstraat,5371KV,5352LC,14,14.0,,,,,Deursen-Dennenburg,Deursen-Dennenburg,626120.7447152217,6764580.196500198
828200001537165,828200001537165,Hoogstraat,Hoogstraat,5371KV,5352LC,14,14.0,A,A,,,Deursen-Dennenburg,Deursen-Dennenburg,626071.470682864,6764567.242910642
828200001535733,828200001535733,Hoogstraat,Hoogstraat,5371KT,5352LC,15,15.0,,,,,Deursen-Dennenburg,Deursen-Dennenburg,626091.8061781102,6764530.958440328
828200001518045,828200001518045,Hoogstraat,Hoogstraat,5371KV,5352LC,16,16.0,,,,,Deursen-Dennenburg,Deursen-Dennenburg,626023.1997457086,6764567.926394335
828200001566555,828200001566555,Hoogstraat,Hoogstraat,5371KT,5352LC,17,17.0,,,,,Deursen-Dennenburg,Deursen-Dennenburg,626023.2688340191,6764526.551295165
828200001577675,828200001577675,Hoogstraat,Hoogstraat,5371KV,5352LC,18,18.0,,,,,Deursen-Dennenburg,Deursen-Dennenburg,625959.6238597166,6764586.096140356
828200001528409,828200001528409,Hoogstraat,Hoogstraat,5371KT,5352LC,19,19.0,,,,,Deursen-Dennenburg,Deursen-Dennenburg,626012.3862670306,6764529.107782959
828200001510065,828200001510065,Hoogstraat,Hoogstraat,5371KV,5352LC,20,20.0,,,,,Deursen-Dennenburg,Deursen-Dennenburg,625929.9042894185,6764595.492076892
828200001574193,828200001574193,Hoogstraat,Hoogstraat,5371KT,5352LC,21,21.0,,,,,Deursen-Dennenburg,Deursen-Dennenburg,625992.6015260732,6764533.756342638
828200001557281,828200001557281,Hoogstraat,Hoogstraat,5371KV,5352LC,22,22.0,,,,,Deursen-Dennenburg,Deursen-Dennenburg,625919.9554672936,6764598.8577187825
828200001541035,828200001541035,Hoogstraat,Hoogstraat,5371KT,5352LC,23,23.0,,,,,Deursen-Dennenburg,Deursen-Dennenburg,625981.7189397274,6764536.312791382
828200001557283,828200001557283,Hoogstraat,Hoogstraat,5371KV,5352LC,24,24.0,,,,,Deursen-Dennenburg,Deursen-Dennenburg,625899.0969366702,6764605.915712278
828200001576227,828200001576227,Hoogstraat,Hoogstraat,5371KV,5352LC,24,24.0,A,A,,,Deursen-Dennenburg,Deursen-Dennenburg,625890.4313941998,6764608.846737287
828200001537167,828200001537167,Hoogstraat,Hoogstraat,5371KV,5352LC,26,26.0,,,,,Deursen-Dennenburg,Deursen-Dennenburg,625870.159931235,6764615.792727366
828200001515233,828200001515233,Hoogstraat,Hoogstraat,5371KV,5352LC,26,26.0,A,A,,,Deursen-Dennenburg,Deursen-Dennenburg,625859.5726643547,6764619.3852917375
828200001534819,828200001534819,Hoogstraat,Hoogstraat,5371KT,5352LC,27,27.0,,,,,Deursen-Dennenburg,Deursen-Dennenburg,625551.6410395972,6764650.819307348
828200001537169,828200001537169,Hoogstraat,Hoogstraat,5371KV,5352LC,28,28.0,,,,,Deursen-Dennenburg,Deursen-Dennenburg,625819.5367246264,6764620.853157081
828200001572627,828200001572627,Hoogstraat,Hoogstraat,5371KV,5352LC,28,28.0,A,A,,,Deursen-Dennenburg,Deursen-Dennenburg,625763.6408711296,6764642.054862488
828200001557285,828200001557285,Hoogstraat,Hoogstraat,5371KT,5352LC,29,29.0,,,,,Deursen-Dennenburg,Deursen-Dennenburg,625476.4626486254,6764663.016108723
828200001552719,828200001552719,Hoogstraat,Hoogstraat,5371KW,5352LC,30,30.0,A,A,,,Deursen-Dennenburg,Deursen-Dennenburg,625717.5516443498,6764640.756988335
828200001535735,828200001535735,Hoogstraat,Hoogstraat,5371KT,5352LC,31,31.0,,,,,Deursen-Dennenburg,Deursen-Dennenburg,625432.2600701136,6764630.68147674
828200001552721,828200001552721,Hoogstraat,Hoogstraat,5371KW,5352LC,32,32.0,,,,,Deursen-Dennenburg,Deursen-Dennenburg,625680.1216937761,6764664.26269086
828200001541037,828200001541037,Hoogstraat,Hoogstraat,5371KW,5352LC,32,32.0,A,A,,,Deursen-Dennenburg,Deursen-Dennenburg,625671.5024518133,6764666.071991391
828200001569095,828200001569095,Hoogstraat,Hoogstraat,5371KW,5352LC,34,34.0,,,,,Deursen-Dennenburg,Deursen-Dennenburg,625489.1731440207,6764694.143880866
828200001528411,828200001528411,Hoogstraat,Hoogstraat,5371KT,5352LC,35,35.0,,,,,Deursen-Dennenburg,Deursen-Dennenburg,625409.4593249022,6764580.1622133795
828200001557287,828200001557287,Hoogstraat,Hoogstraat,5371KW,5352LC,38,38.0,,,,,Deursen-Dennenburg,Deursen-Dennenburg,625426.0077488058,6764668.897188044
828200001515235,828200001515235,Hoogstraat,Hoogstraat,5371KW,5352LC,40,40.0,,,,,Deursen-Dennenburg,Deursen-Dennenburg,625383.8803498101,6764612.944084688
828200001537171,828200001537171,Hoogstraat,Hoogstraat,5371KW,5352LC,42,42.0,,,,,Deursen-Dennenburg,Deursen-Dennenburg,625304.4399112656,6764599.1642506
828200001552723,828200001552723,Hoogstraat,Hoogstraat,5371KW,5352LC,44,44.0,,,,,Deursen-Dennenburg,Deursen-Dennenburg,625283.2011974092,6764642.948265387
828200001553003,828200001553003,Hoogstraat,Hoogstraat,5371KW,5352LC,46,46.0,,,,,Deursen-Dennenburg,Deursen-Dennenburg,625172.6767429963,6764619.707350864
828200001569115,828200001569115,Hoogstraat,Hoogstraat,5371KW,5352LC,48,48.0,,,,,Deursen-Dennenburg,Deursen-Dennenburg,625068.0930772952,6764603.949504516
828200001556481,828200001556481,Staaijstraat,Staaijstraat,5371PK,5356PC,5,5.0,,,,,Neerloon,Neerloon,631833.6792882367,6762105.521036063
828200001514391,828200001514391,Staaijstraat,Staaijstraat,5371PK,5356PC,5,5.0,B,B,,,Neerloon,Neerloon,631784.6236400332,6762118.170255005
828200001517597,828200001517597,Staaijstraat,Staaijstraat,5371PK,5356PC,5,5.0,A,A,,,Neerloon,Neerloon,631824.2659013713,6762088.698059957
828200001514393,828200001514393,Staaijstraat,Staaijstraat,5371PK,5356PC,6,6.0,,,,,Neerloon,Neerloon,631704.7843764381,6762177.817013953
828200001562329,828200001562329,Staaijstraat,Staaijstraat,5371PK,5356PC,7,7.0,,,,,Neerloon,Neerloon,631755.9656668988,6762125.202698286
828200001520583,828200001520583,Staaijstraat,Staaijstraat,5371PK,5356PC,11,11.0,,,,,Neerloon,Neerloon,631595.3701255,6762154.503263309
828200001520585,828200001520585,Staaijstraat,Staaijstraat,5371PK,5356PC,13,13.0,,,,,Neerloon,Neerloon,631580.1530129438,6762156.845857607
828200001529635,828200001529635,Staaijstraat,Staaijstraat,5371PK,5356PC,15,15.0,,,,,Neerloon,Neerloon,631528.0911706223,6762163.429639783
828200001551093,828200001551093,Reiakker,Reiakker,5371LG,5352KB,2,2.0,,,,,Deursen-Dennenburg,Deursen-Dennenburg,625410.0722501037,6763891.124333737
828200001551093,828200001551093,Reiakker,Reiakker,5371LG,5352KB,2,2.0,,,,,Deursen-Dennenburg,Deursen-Dennenburg,625410.0722501037,6763891.124333737
828200001518559,828200001518559,Kerkstraat,Kerkstraat,5371PW,5357PH,25,25.0,A,A,,,Overlangel,Overlangel,631483.3189692525,6759580.913246799
828200001545481,828200001545481,Kerkstraat,Kerkstraat,5371PW,5357PH,25,25.0,,,,,Overlangel,Overlangel,631479.4740411122,6759572.770016298
828200001528417,828200001528417,Hoogveldsestraat,Hoogveldsestraat,5371RA,5359NA,1,1.0,,,,,Keent,Keent,633831.5769630728,6758071.077516241
828200001579057,828200001579057,Hoogveldsestraat,Zuijdenhoutstraat,5371RA,5359NB,1,1.0,A,,,,Keent,Keent,633795.7800799642,6758042.132493123
828200001528419,828200001528419,Hoogveldsestraat,Hoogveldsestraat,5371RA,5359NA,3,3.0,,,,,Keent,Keent,633930.0719731288,6758233.220685567
828200001566403,828200001566403,Hoogveldsestraat,Hoogveldsestraat,5371RA,5359NA,9,9.0,,,,,Keent,Keent,634178.6798908412,6758894.831673078
828200001515241,828200001515241,Hoogveldsestraat,Hoogveldsestraat,5371RA,5359NA,11,11.0,,,,,Keent,Keent,634251.9761571944,6759227.748715052
828200001518053,828200001518053,Hoogveldsestraat,Hoogveldsestraat,5371RA,5359NA,13,13.0,,,,,Keent,Keent,634275.263427954,6759082.101076676
828200001528421,828200001528421,Hoogveldsestraat,Hoogveldsestraat,5371RA,5359NA,15,15.0,,,,,Keent,Keent,634532.2547435648,6759255.97948977
828200001510069,828200001510069,St. Jansstraat,St. Jansstraat,5371LN,5355KC,1,1.0,,,,,Neerlangel,Neerlangel,628346.3329034067,6765417.331925602
828200001570059,828200001570059,Kalfsheuvel,Kalfsheuvel,5371PH,5356ND,1,1.0,,,,,Neerloon,Neerloon,630359.516646506,6761776.6150833005
828200001513897,828200001513897,Kalfsheuvel,Kalfsheuvel,5371PH,5356ND,2,2.0,,,,,Neerloon,Neerloon,631330.7587819698,6761904.789785356
828200001510071,828200001510071,Kalfsheuvel,Kalfsheuvel,5371PH,5356ND,3,3.0,,,,,Neerloon,Neerloon,630545.4467163753,6761797.641803224
828200001567683,828200001567683,Kapelstraat,Kapelstraat,5371RD,5359ND,1,1.0,,,,,Keent,Keent,633152.3792198014,6759381.578904393
828200001534823,828200001534823,Kapelstraat,Kapelstraat,5371RD,5359ND,3,3.0,,,,,Keent,Keent,633477.3952546853,6759584.552820427
828200001572507,828200001572507,Kapelstraat,Kapelstraat,5371RD,5359ND,4,4.0,,,,,Keent,Keent,633220.0451068684,6759385.644934084
828200001569947,828200001569947,'t Steenwerk,'t Steenwerk,5371LA,5352LH,1,1.0,,,,,Deursen-Dennenburg,Deursen-Dennenburg,626739.5021863687,6764389.856333485
828200001532251,828200001532251,Stationssingel,Baxenbosstraat,5371BB,5371BD,123,1.0,,,,,Ravenstein,Ravenstein,627274.8773051901,6762879.729200167
828200001529641,828200001529641,'t Steenwerk,'t Steenwerk,5371LA,5352LH,3,3.0,,,,,Deursen-Dennenburg,Deursen-Dennenburg,626700.221206421,6764397.621916178
828200001563569,828200001563569,'t Steenwerk,'t Steenwerk,5371LA,5352LH,4,4.0,,,,,Deursen-Dennenburg,Deursen-Dennenburg,626696.6310382773,6764356.154734741
828200001522869,828200001522869,'t Steenwerk,'t Steenwerk,5371LA,5352LH,8,8.0,,,,,Deursen-Dennenburg,Deursen-Dennenburg,626650.1371490962,6764375.919484321
828200001509767,828200001509767,'t Steenwerk,'t Steenwerk,5371LA,5352LH,9,9.0,,,,,Deursen-Dennenburg,Deursen-Dennenburg,626655.5822860481,6764415.201041507
828200001529643,828200001529643,'t Steenwerk,'t Steenwerk,5371LA,5352LH,11,11.0,,,,,Deursen-Dennenburg,Deursen-Dennenburg,626660.2124235424,6764423.884357588
828200001541787,828200001541787,'t Steenwerk,'t Steenwerk,5371LA,5352LH,12,12.0,,,,,Deursen-Dennenburg,Deursen-Dennenburg,626628.8973476968,6764385.901062748
828200001573049,828200001573049,'t Steenwerk,'t Steenwerk,5371LA,5352LH,13,13.0,,,,,Deursen-Dennenburg,Deursen-Dennenburg,626671.2486203985,6764442.395530439
828200001557821,828200001557821,'t Steenwerk,'t Steenwerk,5371LA,5352LH,14,14.0,,,,,Deursen-Dennenburg,Deursen-Dennenburg,626621.7138289243,6764390.27764093
828200001565557,828200001565557,'t Steenwerk,'t Steenwerk,5371LA,5352LH,17,17.0,,,,,Deursen-Dennenburg,Deursen-Dennenburg,626684.8812813257,6764472.917195829
828200001517619,828200001517619,'t Steenwerk,'t Steenwerk,5371LA,5352LH,18,18.0,,,,,Deursen-Dennenburg,Deursen-Dennenburg,626612.4925777013,6764427.441602017
828200001557823,828200001557823,'t Steenwerk,'t Steenwerk,5371LA,5352LH,19,19.0,,,,,Deursen-Dennenburg,Deursen-Dennenburg,626694.2856991177,6764499.123079196
828200001546499,828200001546499,'t Steenwerk,'t Steenwerk,5371LA,5352LH,20,20.0,,,,,Deursen-Dennenburg,Deursen-Dennenburg,626607.9478897015,6764419.689982398
828200001573389,828200001573389,'t Steenwerk,'t Steenwerk,5371LA,5352LH,24,24.0,,,,,Deursen-Dennenburg,Deursen-Dennenburg,626625.7703400393,6764450.307720574
828200001541789,828200001541789,'t Steenwerk,'t Steenwerk,5371LA,5352LH,26,26.0,,,,,Deursen-Dennenburg,Deursen-Dennenburg,626629.9329260098,6764458.169046102
828200001541791,828200001541791,'t Steenwerk,'t Steenwerk,5371LA,5352LH,28,28.0,,,,,Deursen-Dennenburg,Deursen-Dennenburg,626638.7871803121,6764474.7701872885
828200001537959,828200001537959,'t Steenwerk,'t Steenwerk,5371LA,5352LH,30,30.0,,,,,Deursen-Dennenburg,Deursen-Dennenburg,626642.9822524331,6764482.686436328
828200001517621,828200001517621,'t Steenwerk,'t Steenwerk,5371LA,5352LH,32,32.0,,,,,Deursen-Dennenburg,Deursen-Dennenburg,626652.856279249,6764502.601298697
828200001517623,828200001517623,'t Steenwerk,'t Steenwerk,5371LA,5352LH,34,34.0,,,,,Deursen-Dennenburg,Deursen-Dennenburg,626655.7057395185,6764512.575425349
828200001569515,828200001569515,'t Steenwerk,'t Steenwerk,5371LA,5352LH,36,36.0,,,,,Deursen-Dennenburg,Deursen-Dennenburg,626661.4491121324,6764532.780841599
828200001523145,828200001523145,'t Steenwerk,'t Steenwerk,5371LA,5352LH,38,38.0,,,,,Deursen-Dennenburg,Deursen-Dennenburg,626664.2430908477,6764542.565869656
828200001557825,828200001557825,'t Steenwerk,'t Steenwerk,5371LA,5352LH,40,40.0,,,,,Deursen-Dennenburg,Deursen-Dennenburg,626668.5058447302,6764564.9963434655
828200001577299,828200001577299,Loonsestraat,Loonsestraat,5371PJ,5356PB,1,1.0,A,A,,,Neerloon,Neerloon,632040.5835009092,6762065.1649767095
828200001571355,828200001571355,Loonsestraat,Loonsestraat,5371PJ,5356PB,1,1.0,,,,,Neerloon,Neerloon,632050.2240817851,6762107.703649312
828200001557345,828200001557345,Elleboogstraat,Elleboogstraat,5371LL,5352LP,2,2.0,,,,,Deursen-Dennenburg,Deursen-Dennenburg,627642.297571353,6763760.718257676
828200001539199,828200001539199,Maasdijk,Maasdijk,5371PD,5357NB,6,6.0,,,,,Overlangel,Overlangel,631898.4890788079,6759798.621912444
828200001510073,828200001510073,Kerkstraat,Kerkstraat,5371PW,5357PH,2,2.0,,,,,Overlangel,Overlangel,631328.2109691701,6759319.54022647
828200001533067,828200001533067,Kerkstraat,Kerkstraat,5371PW,5357PH,3,3.0,,,,,Overlangel,Overlangel,631316.8930973128,6759368.357112356
828200001579825,828200001579825,Kerkstraat,Kerkstraat,5371PW,5357PH,6,6.0,,,,,Overlangel,Overlangel,631371.4170963471,6759372.7391121555
828200001572509,828200001572509,Kerkstraat,Kerkstraat,5371PW,5357PH,7,7.0,,,,,Overlangel,Overlangel,631341.012503725,6759397.68701572
828200001532499,828200001532499,Kerkstraat,Kerkstraat,5371PW,5357PH,8,8.0,,,,,Overlangel,Overlangel,631386.7001397223,6759391.492255269
828200001534825,828200001534825,Kerkstraat,Kerkstraat,5371PW,5357PH,9,9.0,,,,,Overlangel,Overlangel,631345.6571729718,6759403.336690181
828200001563507,828200001563507,Kerkstraat,Kerkstraat,5371PW,5357PH,10,10.0,,,,,Overlangel,Overlangel,631401.9816345014,6759410.243801753
828200001513899,828200001513899,Kerkstraat,Kerkstraat,5371PW,5357PH,11,11.0,,,,,Overlangel,Overlangel,631357.215235386,6759425.623347556
828200001517225,828200001517225,Kerkstraat,Kerkstraat,5371PW,5357PH,12,12.0,,,,,Overlangel,Overlangel,631415.4869119759,6759426.816035659
828200001563665,828200001563665,Kerkstraat,Kerkstraat,5371PW,5357PH,13,13.0,,,,,Overlangel,Overlangel,631376.5905557616,6759449.386509278
828200001518061,828200001518061,Kerkstraat,Kerkstraat,5371PW,5357PH,15,15.0,A,A,,,Overlangel,Overlangel,631395.1358252628,6759478.232262705
828200001517227,828200001517227,Kerkstraat,Kerkstraat,5371PW,5357PH,15,15.0,,,,,Overlangel,Overlangel,631390.9277556359,6759471.233807351
828200001528427,828200001528427,Kerkstraat,Kerkstraat,5371PW,5357PH,17,17.0,,,,,Overlangel,Overlangel,631401.2785061684,6759487.058534891
828200001572629,828200001572629,Kerkstraat,Kerkstraat,5371PW,5357PH,18,18.0,,,,,Overlangel,Overlangel,631523.9635644428,6759583.702741579
828200001532501,828200001532501,Kerkstraat,Kerkstraat,5371PW,5357PH,19,19.0,,,,,Overlangel,Overlangel,631444.9396009021,6759515.613198893
828200001558337,828200001558337,Kerkstraat,Kerkstraat,5371PW,5357PH,21,21.0,,,,,Overlangel,Overlangel,631461.5676918041,6759549.049474162
828200001575159,828200001575159,Kerkstraat,Kerkstraat,5371PW,5357PH,23,23.0,,,,,Overlangel,Overlangel,631466.2336884764,6759558.0432955315
828200001532503,828200001532503,Kerkstraat,Kerkstraat,5371PW,5357PH,24,24.0,,,,,Overlangel,Overlangel,631578.1964285768,6759753.75719614
828200001563667,828200001563667,Kerkstraat,Kerkstraat,5371PW,5357PH,27,27.0,,,,,Overlangel,Overlangel,631494.3975756417,6759619.4008377055
828200001536963,828200001536963,Kerkstraat,Kerkstraat,5371PW,5357PH,28,28.0,,,,,Overlangel,Overlangel,631626.5017553908,6759845.843274597
828200001563669,828200001563669,Kerkstraat,Kerkstraat,5371PW,5357PH,29,29.0,,,,,Overlangel,Overlangel,631506.3734348057,6759677.31335091
828200001528429,828200001528429,Kerkstraat,Kerkstraat,5371PW,5357PH,31,31.0,,,,,Overlangel,Overlangel,631519.9824237927,6759713.994741155
828200001541055,828200001541055,Kerkstraat,Kerkstraat,5371PW,5357PH,39,39.0,,,,,Overlangel,Overlangel,631535.5741081686,6759748.67288665
828200001558339,828200001558339,Kerkstraat,Kerkstraat,5371PW,5357PH,41,41.0,,,,,Overlangel,Overlangel,631542.5911803739,6759769.776583869
828200001532505,828200001532505,Kerkstraat,Kerkstraat,5371PW,5357PH,45,45.0,,,,,Overlangel,Overlangel,631556.5673644358,6759815.681195607
828200001517229,828200001517229,Kerkstraat,Kerkstraat,5371PW,5357PH,49,49.0,,,,,Overlangel,Overlangel,631567.4034736245,6759846.05739156
828200001514407,828200001514407,Veldweg,Veldweg,5371PR,5357PC,2,2.0,,,,,Overlangel,Overlangel,631048.0843174123,6759834.234924415
828200001560979,828200001560979,Veldweg,Veldweg,5371PR,5357PC,5,5.0,,,,,Overlangel,Overlangel,631060.1924720838,6759905.418090136
828200001574873,828200001574873,Veldweg,Veldweg,5371PR,5357PC,6,6.0,,,,,Overlangel,Overlangel,631062.3866224381,6759918.4683406865
828200001529661,828200001529661,Veldweg,Veldweg,5371PR,5357PC,8,8.0,,,,,Overlangel,Overlangel,631071.2300199274,6759949.12824509
828200001529951,828200001529951,Vlierbosstraat,Vlierbosstraat,5371PB,5357PP,1,1.0,,,,,Neerloon,Overlangel,631485.5756421774,6760670.47962281
828200001557333,828200001557333,Maasdijk,Maasdijk,5371PE,5356NC,22,22.0,,,,,Neerloon,Neerloon,631732.809955361,6762216.927118401
828200001557333,828200001557333,Maasdijk,Maasdijk,5371PE,5356NC,22,22.0,,,,,Neerloon,Neerloon,631732.809955361,6762216.927118401
828200001593927,828200001593927,Kleine Poelstraat,Kleine Poelstraat,5371KM,5354KD,5,5.0,,,,,Demen,Demen,626475.2822109344,6766889.108109328
828200001543759,828200001543759,Kleine Poelstraat,Kleine Poelstraat,5371KM,5354KD,7,7.0,,,,,Demen,Demen,626430.5639364949,6766915.329905218
828200001518067,828200001518067,Kleine Poelstraat,Kleine Poelstraat,5371KM,5354KD,9,9.0,,,,,Demen,Demen,626395.6197409218,6766928.021902181
828200001532519,828200001532519,Kleine Poelstraat,Kleine Poelstraat,5371KM,5354KD,11,11.0,,,,,Demen,Demen,626348.9898136237,6766970.056760322
828200001566463,828200001566463,Kleine Poelstraat,Kleine Poelstraat,5371KM,5354KD,13,13.0,,,,,Demen,Demen,626326.4169931231,6766991.224676851
828200001557097,828200001557097,Kortestraat,Kortestraat,5371KC,5353KC,2,2.0,,,,,Dieden,Dieden,624085.1160066966,6767675.018685368
828200001509393,828200001509393,Kortestraat,Kortestraat,5371KC,5353KC,3,3.0,,,,,Dieden,Dieden,624012.1385547399,6767644.603038796
828200001535133,828200001535133,Kortestraat,Kortestraat,5371KC,5353KC,5,5.0,,,,,Dieden,Dieden,624054.0178166965,6767779.303927827
828200001575555,828200001575555,Voorstraat,Voorstraat,5371KE,5353KE,1,1.0,,,,,Dieden,Dieden,624962.6143151511,6767472.443303769
828200001531565,828200001531565,Voorstraat,Voorstraat,5371KE,5353KE,1,1.0,A,A,,,Dieden,Dieden,624844.6064540896,6767503.4746635575
828200001532281,828200001532281,Voorstraat,Voorstraat,5371KE,5353KE,1,1.0,B,B,,,Dieden,Dieden,624818.2186251679,6767507.663465295
828200001565601,828200001565601,Voorstraat,Voorstraat,5371KE,5353KE,1,1.0,C,C,,,Dieden,Dieden,624784.5019726747,6767512.755537643
828200001529953,828200001529953,Voorstraat,Voorstraat,5371KE,5353KE,2,2.0,,,,,Dieden,Dieden,624957.9796091545,6767542.103523347
828200001579145,828200001579145,Voorstraat,Voorstraat,5371KE,5353KE,3,3.0,,,,,Dieden,Dieden,624723.1086011443,6767511.455353284
828200001539149,828200001539149,Voorstraat,Voorstraat,5371KE,5353KE,4,4.0,,,,,Dieden,Dieden,624833.5214877452,6767580.711276978
828200001520605,828200001520605,Voorstraat,Voorstraat,5371KE,5353KE,5,5.0,,,,,Dieden,Dieden,624629.6668158916,6767549.555657787
828200001529955,828200001529955,Voorstraat,Voorstraat,5371KE,5353KE,5,5.0,A,A,,,Dieden,Dieden,624621.4160839315,6767532.074954364
828200001514221,828200001514221,Voorstraat,Voorstraat,5371KE,5353KE,6,6.0,,,,,Dieden,Dieden,624649.0377234067,6767599.306486448
828200001573427,828200001573427,Voorstraat,Voorstraat,5371KE,5353KE,7,7.0,,,,,Dieden,Dieden,624594.0917832188,6767561.566164976
828200001509781,828200001509781,Voorstraat,Voorstraat,5371KE,5353KE,8,8.0,,,,,Dieden,Dieden,624607.0558253534,6767615.479210064
828200001523151,828200001523151,Voorstraat,Voorstraat,5371KE,5353KE,9,9.0,,,,,Dieden,Dieden,624555.9587851244,6767574.492505044
828200001532283,828200001532283,Voorstraat,Voorstraat,5371KE,5353KE,10,10.0,,,,,Dieden,Dieden,624571.0747591355,6767627.340425304
828200001579147,828200001579147,Voorstraat,Voorstraat,5371KE,5353KE,11,11.0,,,,,Dieden,Dieden,624516.1881238876,6767586.7632907685
828200001544961,828200001544961,Voorstraat,Voorstraat,5371KE,5353KE,12,12.0,,,,,Dieden,Dieden,624537.8648789568,6767638.906454589
828200001558583,828200001558583,Voorstraat,Voorstraat,5371KE,5353KE,13,13.0,,,,,Dieden,Dieden,624476.62453177,6767600.263480307
828200001537973,828200001537973,Voorstraat,Voorstraat,5371KE,5353KE,15,15.0,,,,,Dieden,Dieden,624435.9287114168,6767613.137291095
828200001529959,828200001529959,Voorstraat,Voorstraat,5371KE,5353KE,16,16.0,,,,,Dieden,Dieden,624479.0819315551,6767661.05318337
828200001520607,828200001520607,Voorstraat,Voorstraat,5371KE,5353KE,19,19.0,,,,,Dieden,Dieden,624219.6314430314,6767704.267682922
828200001523153,828200001523153,Vossensteeg,Vossensteeg,5371PG,5357NC,1,1.0,,,,,Overlangel,Overlangel,630790.5615194744,6760368.565261016
828200001520609,828200001520609,Vossensteeg,Vossensteeg,5371PG,5357NC,2,2.0,,,,,Overlangel,Overlangel,630852.9023124932,6760343.030745358
828200001587111,828200001587111,Asboom,Asboom,5371RH,5357PL,8,8.0,,,,,Overlangel,Overlangel,631251.9225939589,6759846.040134793
828200001587109,828200001587109,Asboom,Asboom,5371RH,5357PL,10,10.0,,,,,Overlangel,Overlangel,631240.2903944164,6759850.405063103
828200001590440,828200001590440,Hoogstraat,Hoogstraat,5371KT,5352LC,3,3.0,A,A,,,Deursen-Dennenburg,Deursen-Dennenburg,626375.6048370256,6764607.10221153
828200001584409,828200001584409,Hongerveldstraat,Hongerveldstraat,5371NB,5358NB,11,11.0,,,,,Huisseling,Huisseling,627610.5589422366,6762099.410972409
828200001588566,828200001588566,Loonsestraat,Loonsestraat,5371PJ,5356PB,6,6.0,A,A,,,Neerloon,Neerloon,631971.886654783,6761866.188017041
828200001558373,828200001558373,Osstraat,Osstraat,5371KL,5354KC,16,16.0,,,,,Demen,Demen,626247.6029615337,6766075.551400106
828200001583224,828200001583224,Hoogstraat,Hoogstraat,5371KV,5352LC,6,6.0,A,A,,,Deursen-Dennenburg,Deursen-Dennenburg,627054.4796793858,6764508.054030207
828200001589572,828200001589572,Hamstraat,Hamstraat,5371NR,5358NM,7,7.0,,,,,Huisseling,Huisseling,628100.8294074469,6761567.244510875
828200001590922,828200001590922,Bendelaar,Bendelaar,5371LK,5352KD,1,1.0,,,,,Deursen-Dennenburg,Deursen-Dennenburg,626376.1564769997,6762836.447709483
828200001590929,828200001590929,Ringelenburg,Ringelenburg,5371NN,5358NL,1,1.0,B,B,,,Huisseling,Huisseling,627599.7570205175,6761199.183793515
828200001509407,828200001509407,Kuiperstraat,Kuiperstraat,5371LJ,5352LN,1,1.0,,,,,Deursen-Dennenburg,Deursen-Dennenburg,626675.4549676699,6764100.876289626
828200001509407,828200001509407,Kuiperstraat,Kuiperstraat,5371LJ,5352LN,1,1.0,,,,,Deursen-Dennenburg,Deursen-Dennenburg,626675.4549676699,6764100.876289626
828200001533849,828200001533849,Langestraat,Langestraat,5371KD,5353KD,5,5.0,,,,,Dieden,Dieden,623689.7230975362,6766210.430808628
828200001513941,828200001513941,Oude Maasweg,Oude Maasweg,5371RC,5359NC,1,1.0,,,,,Keent,Keent,633950.2091991267,6758664.114437346
828200001515717,828200001515717,Kuiperstraat,Kuiperstraat,5371LJ,5352LN,12,12.0,,,,,Deursen-Dennenburg,Deursen-Dennenburg,626784.9235165444,6764244.184070804
828200001521955,828200001521955,Bredestraat,Bredestraat,5371LV,5352KH,3,3.0,,,,,Deursen-Dennenburg,Deursen-Dennenburg,625027.7688617886,6763088.1858419115
828200001527317,828200001527317,St. Wilbertstraat,St. Wilbertstraat,5371KR,5354KG,10,10.0,,,,,Demen,Demen,626540.9161389683,6766828.166507987
828200001584678,828200001584678,Kleine Poelstraat,Kleine Poelstraat,5371KM,5354KD,1,1.0,,,,,Demen,Demen,626536.475478062,6766847.848362012
828200001551755,828200001551755,Heuveleindstraat,Heuveleindstraat,5371NL,5358NJ,2,2.0,A,A,,,Huisseling,Huisseling,627203.3152530651,6761420.575754351
828200001510029,828200001510029,Dortestraat,Dortestraat,5371NM,5358NK,1,1.0,,,,,Huisseling,Huisseling,627313.5330054648,6761127.306036486
828200001585909,828200001585909,De Rijt,De Rijt,5371LH,5352KC,14,14.0,A,A,,,Deursen-Dennenburg,Deursen-Dennenburg,625536.4561644633,6763494.853050623
828200001592161,828200001592161,Dr. Ruijsstraat,Dr. Ruijsstraat,5371PS,5357PD,7,7.0,A,A,,,Overlangel,Overlangel,631205.5496317733,6759703.8401385425
828200001589914,828200001589914,Hofstraat,Hofstraat,5371LZ,5352LS,1,1.0,,,,,Deursen-Dennenburg,Deursen-Dennenburg,626585.9127993425,6764537.934075319
828200001589917,828200001589917,Hofstraat,Hofstraat,5371LZ,5352LS,3,3.0,,,,,Deursen-Dennenburg,Deursen-Dennenburg,626584.8811966515,6764529.567081837
828200001589920,828200001589920,Hofstraat,Hofstraat,5371LZ,5352LS,5,5.0,,,,,Deursen-Dennenburg,Deursen-Dennenburg,626583.4531455031,6764521.3745539095
828200001589923,828200001589923,Hofstraat,Hofstraat,5371LZ,5352LS,7,7.0,,,,,Deursen-Dennenburg,Deursen-Dennenburg,626581.9942502115,6764512.153027892
828200001589935,828200001589935,Hofstraat,Hofstraat,5371LZ,5352LS,9,9.0,,,,,Deursen-Dennenburg,Deursen-Dennenburg,626576.8784355619,6764493.752925097
828200001589927,828200001589927,Hofstraat,Hofstraat,5371LZ,5352LS,11,11.0,,,,,Deursen-Dennenburg,Deursen-Dennenburg,626576.541244111,6764483.560075701
828200001589930,828200001589930,Hofstraat,Hofstraat,5371LZ,5352LS,13,13.0,,,,,Deursen-Dennenburg,Deursen-Dennenburg,626572.5073262348,6764464.834432307
828200001589933,828200001589933,Hofstraat,Hofstraat,5371LZ,5352LS,15,15.0,,,,,Deursen-Dennenburg,Deursen-Dennenburg,626570.9204886078,6764455.47262095
828200001551093,828200001551093,Reiakker,Reiakker,5371LG,5352KB,2,2.0,,,,,Deursen-Dennenburg,Deursen-Dennenburg,625410.0722501037,6763891.124333737
828200001592071,828200001592071,De Jas,De Jas,5371RJ,5357PM,7,7.0,,,,,Overlangel,Overlangel,631144.2006786024,6759893.856709909
828200001591772,828200001591772,De Rand,De Rand,5371KP,5352LA,2,2.0,,,,,Deursen-Dennenburg,Deursen-Dennenburg,626301.5501368651,6764013.598000634
828200001591779,828200001591779,De Rand,De Rand,5371KP,5352LA,6,6.0,,,,,Deursen-Dennenburg,Deursen-Dennenburg,626289.9322508546,6763978.68116634
828200001591782,828200001591782,De Rand,De Rand,5371KP,5352LA,8,8.0,,,,,Deursen-Dennenburg,Deursen-Dennenburg,626287.9650299756,6763968.845423072
828200001591785,828200001591785,De Rand,De Rand,5371KP,5352LA,10,10.0,,,,,Deursen-Dennenburg,Deursen-Dennenburg,626283.74527619,6763959.120662634
828200001591788,828200001591788,De Rand,De Rand,5371KP,5352LA,12,12.0,,,,,Deursen-Dennenburg,Deursen-Dennenburg,626284.8059889621,6763927.736396024
828200001591791,828200001591791,De Rand,De Rand,5371KP,5352LA,14,14.0,,,,,Deursen-Dennenburg,Deursen-Dennenburg,626274.2484502414,6763927.758224102
828200001591794,828200001591794,De Rand,De Rand,5371KP,5352LA,16,16.0,,,,,Deursen-Dennenburg,Deursen-Dennenburg,626265.5468903831,6763927.806288611
828200001591763,828200001591763,De Rand,De Rand,5371KP,5352LA,5,5.0,,,,,Deursen-Dennenburg,Deursen-Dennenburg,626242.5176749291,6763983.537512535
828200001591766,828200001591766,De Rand,De Rand,5371KP,5352LA,7,7.0,,,,,Deursen-Dennenburg,Deursen-Dennenburg,626238.190142314,6763972.424831268
828200001591769,828200001591769,De Rand,De Rand,5371KP,5352LA,9,9.0,,,,,Deursen-Dennenburg,Deursen-Dennenburg,626228.3803462965,6763948.942893841
828200001522409,828200001522409,Poelstraat,Poelstraat,5371KJ,5353KJ,13,13.0,,,,,Dieden,Dieden,625239.0145539081,6767195.612007582
828200001565035,828200001565035,Hoekstraat,Hoekstraat,5371NW,5358NR,2,2.0,,,,,Huisseling,Huisseling,628571.9079224779,6762551.27346561
828200001592130,828200001592130,Hofstraat,Hofstraat,5371LZ,5352LS,2,2.0,,,,,Deursen-Dennenburg,Deursen-Dennenburg,626551.4042866125,6764531.832229102
828200001592133,828200001592133,Hofstraat,Hofstraat,5371LZ,5352LS,4,4.0,,,,,Deursen-Dennenburg,Deursen-Dennenburg,626549.4552135478,6764522.251480669
828200001592136,828200001592136,Hofstraat,Hofstraat,5371LZ,5352LS,6,6.0,,,,,Deursen-Dennenburg,Deursen-Dennenburg,626543.0541483812,6764509.027039432
828200001592139,828200001592139,Hofstraat,Hofstraat,5371LZ,5352LS,8,8.0,,,,,Deursen-Dennenburg,Deursen-Dennenburg,626538.3115741378,6764501.458805924
828200001592142,828200001592142,Hofstraat,Hofstraat,5371LZ,5352LS,10,10.0,,,,,Deursen-Dennenburg,Deursen-Dennenburg,626534.8559231033,6764481.878446477
828200001592145,828200001592145,Hofstraat,Hofstraat,5371LZ,5352LS,12,12.0,,,,,Deursen-Dennenburg,Deursen-Dennenburg,626535.1614745804,6764472.765973592
828200001597501,828200001597501,Hoogstraat,Hoogstraat,5371KT,5352LC,33,33.0,,,,,Deursen-Dennenburg,Deursen-Dennenburg,625429.4663220111,6764597.104786145
828200001598328,828200001598328,Achterstraat,Achterstraat,5371KG,5353KG,2,2.0,A,A,,,Dieden,Dieden,624963.1233960123,6767387.082578558
828200001552767,828200001552767,Rosmolenstraat,Rosmolenstraat,5371KH,5353KH,1,1.0,,,,,Dieden,Dieden,625029.3612113171,6766981.603624505
828200001592975,828200001592975,Hoogstraat,Hoogstraat,5371KW,5352LC,32,32.0,B,B,,,Deursen-Dennenburg,Deursen-Dennenburg,625535.6318219065,6764692.271965973
1671200000001335,1671200000001335,Pastoor van de Kampstraat,Pastoor van der Kampstraat,5386AH,5386AH,35,35.0,A,A,,,Geffen,Geffen,607313.5290570275,6752872.8099269
828200001592324,828200001592324,De Jas,De Jas,5371RJ,5357PM,18,18.0,,,,,Overlangel,Overlangel,631185.1450364754,6759788.545367259
1671200000001301,1671200000001301,Pastoor van de Kampstraat,Pastoor van der Kampstraat,5386AH,5386AH,1,1.0,,,,,Geffen,Geffen,607906.8261883772,6752750.986680058
1671200000001302,1671200000001302,Pastoor van de Kampstraat,Pastoor van der Kampstraat,5386AH,5386AH,1,1.0,A,A,,,Geffen,Geffen,607877.8142574616,6752747.784644055
1671200000001303,1671200000001303,Pastoor van de Kampstraat,Pastoor van der Kampstraat,5386AJ,5386AJ,2,2.0,,,,,Geffen,Geffen,607865.0061809102,6752831.8175274925
1671200000001304,1671200000001304,Pastoor van de Kampstraat,Pastoor van der Kampstraat,5386AH,5386AH,3,3.0,,,,,Geffen,Geffen,607866.5559100687,6752770.416714434
828200001567015,828200001567015,Dorpenweg,Dorpenweg,5371KS,5352LB,21,21.0,,,,,Deursen-Dennenburg,Deursen-Dennenburg,627770.7075998214,6763747.005488806
1671200000001305,1671200000001305,Pastoor van de Kampstraat,Pastoor van der Kampstraat,5386AH,5386AH,5,5.0,,,,,Geffen,Geffen,607845.6165235899,6752781.748251879
1671200000001306,1671200000001306,Pastoor van de Kampstraat,Pastoor van der Kampstraat,5386AH,5386AH,7,7.0,,,,,Geffen,Geffen,607821.453876407,6752793.082998686
1671200000001307,1671200000001307,Pastoor van de Kampstraat,Pastoor van der Kampstraat,5386AJ,5386AJ,8,8.0,,,,,Geffen,Geffen,607834.4018336631,6752848.006239426
1671200000001308,1671200000001308,Pastoor van de Kampstraat,Pastoor van der Kampstraat,5386AH,5386AH,9,9.0,,,,,Geffen,Geffen,607769.9083867122,6752818.987092394
1671200000001309,1671200000001309,Pastoor van de Kampstraat,Pastoor van der Kampstraat,5386AH,5386AH,9,9.0,A,A,,,Geffen,Geffen,607744.1355185182,6752831.939046776
1671200000001310,1671200000001310,Pastoor van de Kampstraat,Pastoor van der Kampstraat,5386AJ,5386AJ,10,10.0,,,,,Geffen,Geffen,607797.352518034,6752865.817126015
1671200000005265,1671200000005265,Pastoor van de Kampstraat,Pastoor van der Kampstraat,5386AH,5386AH,11,11.0,,,,,Geffen,Geffen,607652.5966171367,6752881.7829889655
1671200000001313,1671200000001313,Pastoor van de Kampstraat,Pastoor van der Kampstraat,5386AH,5386AH,13,13.0,,,,,Geffen,Geffen,607626.5465542589,6752891.839449371
1671200000001315,1671200000001315,Pastoor van de Kampstraat,Pastoor van der Kampstraat,5386AH,5386AH,15,15.0,,,,,Geffen,Geffen,607600.7669239045,6752898.327910692
1671200000001317,1671200000001317,Pastoor van de Kampstraat,Pastoor van der Kampstraat,5386AH,5386AH,17,17.0,,,,,Geffen,Geffen,607576.5973049585,6752903.198931936
1671200000001319,1671200000001319,Pastoor van de Kampstraat,Pastoor van der Kampstraat,5386AH,5386AH,19,19.0,,,,,Geffen,Geffen,607542.7563488721,6752906.463508861
1671200000001322,1671200000001322,Pastoor van de Kampstraat,Pastoor van der Kampstraat,5386AH,5386AH,23,23.0,,,,,Geffen,Geffen,607486.3479661132,6752904.90240491
1671200000001326,1671200000001326,Pastoor van de Kampstraat,Pastoor van der Kampstraat,5386AH,5386AH,27,27.0,,,,,Geffen,Geffen,607417.0512370096,6752908.200627664
1671200000001328,1671200000001328,Pastoor van de Kampstraat,Pastoor van der Kampstraat,5386AH,5386AH,29,29.0,,,,,Geffen,Geffen,607392.8784099559,6752909.8395254705
1671200000001330,1671200000001330,Pastoor van de Kampstraat,Pastoor van der Kampstraat,5386AH,5386AH,31,31.0,,,,,Geffen,Geffen,607363.8706989018,6752911.482949806
1671200000001331,1671200000001331,Pastoor van de Kampstraat,Pastoor van der Kampstraat,5386AJ,5386AJ,32,32.0,,,,,Geffen,Geffen,607641.1113170363,6752953.22526956
1671200000001332,1671200000001332,Pastoor van de Kampstraat,Pastoor van der Kampstraat,5386AH,5386AH,33,33.0,,,,,Geffen,Geffen,607342.9195771985,6752911.502843374
1671200000001333,1671200000001333,Pastoor van de Kampstraat,Pastoor van der Kampstraat,5386AJ,5386AJ,34,34.0,,,,,Geffen,Geffen,607285.0962299036,6753119.997210566
828200001523173,828200001523173,Zuijdenhoutstraat,Zuijdenhoutstraat,5371RB,5359NB,2,2.0,,,,,Keent,Keent,633147.7716584819,6758621.855550758
828200001523173,828200001523173,Zuijdenhoutstraat,Zuijdenhoutstraat,5371RB,5359NB,2,2.0,,,,,Keent,Keent,633147.7716584819,6758621.855550758
1671200000001333,1671200000001333,Pastoor van de Kampstraat,Pastoor van der Kampstraat,5386AJ,5386AJ,34,34.0,,,,,Geffen,Geffen,607285.0962299036,6753119.997210566
828200001580401,828200001580401,Raadhuislaan,Raadhuishof,,,10,10.0,,,nut,NUT,Oss,Oss,614747.2364870525,6757417.869069986
828200001603484,828200001603484,Dokter Jansenhof,Dokter Jansenhof,5386LN,5386LN,8,8.0,,,Unit,UNIT,Geffen,Geffen,609031.7992099709,6752347.40526736
828200001604504,828200001604504,Pinksterbloem,Boterbloem,5351MZ,5351MV,3,15.0,,,,,Berghem,Berghem,620411.8197392138,6757081.557622483
828200001604778,828200001604778,Stapelen,Stapelen,5346TX,5346JX,1,1.0,,,,,Oss,Oss,614921.3337909951,6759742.788158521
828200001604781,828200001604781,Stapelen,Stapelen,5346TX,5346JX,3,3.0,,,,,Oss,Oss,614912.2460792847,6759731.525715527
828200001604784,828200001604784,Stapelen,Stapelen,5346TX,5346JX,5,5.0,,,,,Oss,Oss,614901.5058709402,6759718.959741764
828200001604787,828200001604787,Stapelen,Stapelen,5346TX,5346JX,7,7.0,,,,,Oss,Oss,614892.8121530227,6759708.757410606
828200001604793,828200001604793,Stapelen,Stapelen,5346TX,5346JX,11,11.0,,,,,Oss,Oss,614873.3702739645,6759685.990754682
828200001604796,828200001604796,Stapelen,Stapelen,5346TX,5346JX,13,13.0,,,,,Oss,Oss,614860.8406115123,6759672.139308417
828200001606329,828200001606329,Aldendriel,Aldendriel,5346JX,5346JZ,1,1.0,,,,,Oss,Oss,614999.447443201,6759671.85823399
828200001606331,828200001606331,Aldendriel,Aldendriel,5346JX,5346JZ,5,5.0,,,,,Oss,Oss,614982.5293416673,6759650.642833496
828200001604790,828200001604790,Stapelen,Stapelen,5346TX,5346JX,9,9.0,,,,,Oss,Oss,614882.067147811,6759696.181752352
828200001606330,828200001606330,Aldendriel,Aldendriel,5346JX,5346JZ,3,3.0,,,,,Oss,Oss,614991.8917212511,6759662.147134641
