BAGNUMIDENTIFICATIE,B_NUMMERAANDUIDING,OPENBARERUIMTENAAM,B_OPENBARERUIMTE,POSTCODE,B_POSTCODE,HUISNUMMER,B_HUISNUMMER,HUISLETTER,B_HUISLETTER,HUISNUMMERTOEVOEGING,B_HUISNUMMERTOEVOEGING,WOONPLAATSNAAM,B_WOONPLAATSNAAM,x,y
1676200000503573,1676200000503573,Hoogenboomlaan,Molenhoeve,4325DD,4325HT,11,4,,,0004,,Renesse,Renesse,417693.4139207116,6750783.0539537
1676200000518519,1676200000518519,Hoogenboomlaan,Bongerd,4325DB,4325HV,7,85,a,,0085,,Renesse,Renesse,417805.4328143863,6750732.129659123
1676200000504003,1676200000504003,Hoogenboomlaan,'t Ongerepte,4325DE,4325HN,15,12,,,0012,,Renesse,Renesse,417055.94013271696,6750824.919330301
1676200000499491,1676200000499491,Hoogenboomlaan,Molenhoeve,4325DD,4325HT,11,7,,,0007,,Renesse,Renesse,417706.1719809092,6750745.738772993
1676200000485439,1676200000485439,Hoogenboomlaan,De Sprong,4325DN,4325HR,50,32,a,,32SP,,Renesse,Renesse,417775.64652023814,6751127.677207734
1676200000511435,1676200000511435,Hoogenboomlaan,Westhoek,4325DN,4325HW,50,9,a,,9WE,,Renesse,Renesse,417957.62050443003,6750984.86181349
1676200000503583,1676200000503583,Hoogenboomlaan,Molenhoeve,4325DD,4325HT,11,5,,,0005,,Renesse,Renesse,417716.7345230906,6750796.105475206
1676200000485975,1676200000485975,Hoogenboomlaan,Kleine Horizon,4325DN,4325HX,44,108,,,0108,,Renesse,Renesse,418180.8964772401,6751110.479411517
1676200000502109,1676200000502109,Hoogenboomlaan,Bongerd,4325DB,4325HV,7,20,a,,0020,,Renesse,Renesse,418025.3424434948,6750683.951016254
1676200000520077,1676200000520077,Hoogenboomlaan,De Sprong,4325DN,4325HR,50,24,a,,24SP,,Renesse,Renesse,417633.789789918,6751117.962017499
1676200000503827,1676200000503827,Hoogenboomlaan,Bongerd,4325DB,4325HV,7,40,a,,0040,,Renesse,Renesse,417906.017008477,6750460.938003751
1676200000511399,1676200000511399,Hoogenboomlaan,Westhoek,4325DN,4325HW,50,1,a,,1WE,,Renesse,Renesse,417848.12378886406,6750969.105480776
1676200000486845,1676200000486845,Hoogenboomlaan,Horizon,4325DN,4325HZ,44,45,,,0045,,Renesse,Renesse,417875.93012354884,6751182.02265662
1676200000506695,1676200000506695,Hoogenboomlaan,'t Ongerepte,4325DE,4325HN,15,1,,,0001,,Renesse,Renesse,417017.23260170245,6750886.282909425
1676200000507971,1676200000507971,Hoogenboomlaan,Horizon,4325DN,4325HZ,44,83,,,0083,,Renesse,Renesse,418052.5727840065,6751327.299748854
1676200000511423,1676200000511423,Hoogenboomlaan,De Sprong,4325DN,4325HR,50,4,a,,4SP,,Renesse,Renesse,417626.6701467935,6751032.997781789
1676200000506733,1676200000506733,Hoogenboomlaan,Horizon,4325DN,4325HZ,44,66,,,0066,,Renesse,Renesse,418031.300383526,6750950.673380868
1676200000505425,1676200000505425,Hoogenboomlaan,Molenhoeve,4325DD,4325HT,11,42,,,0042,,Renesse,Renesse,417601.9503291402,6750572.736339938
1676200000513565,1676200000513565,Hoogenboomlaan,Horizon,4325DN,4325HZ,44,33,,,0033,,Renesse,Renesse,417806.28618238587,6751169.081765533
1676200000485435,1676200000485435,Hoogenboomlaan,Horizon,4325DN,4325HZ,44,41,,,0041,,Renesse,Renesse,417858.644736231,6751127.245059652
1676200000497981,1676200000497981,Hoogenboomlaan,Bongerd,4325DB,4325HV,7,73,a,,0073,,Renesse,Renesse,417833.01217247953,6750617.76939353
1676200000510179,1676200000510179,Hoogenboomlaan,Horizon,4325DN,4325HZ,44,34,,,0034,,Renesse,Renesse,417809.30120555573,6751147.650799728
1676200000511447,1676200000511447,Hoogenboomlaan,Horizon,4325DN,4325HZ,44,19,,,0019,,Renesse,Renesse,417996.1517745851,6751344.259923431
1676200000527122,1676200000527122,Hogezoom,Hogezoom,4325CK,4325CL,114,114,,,,,Renesse,Renesse,419106.28842780256,6750215.963766127
1676200000505455,1676200000505455,Hoogenboomlaan,Bongerd,4325DB,4325HV,7,74,a,,0074,,Renesse,Renesse,417804.53325480304,6750603.296930503
1676200000504377,1676200000504377,Hoogenboomlaan,Bongerd,4325DB,4325HV,7,39,a,,0039,,Renesse,Renesse,417881.3806866482,6750446.441075362
1676200000532578,1676200000532578,Rampweg,Rampweg,4326LK,4326LK,20,20,,,0012,0017,Noordwelle,Noordwelle,422983.1546070621,6753048.294223659
1676200000499495,1676200000499495,Hoogenboomlaan,'t Ongerepte,4325DE,4325HN,15,28,,,0028,,Renesse,Renesse,417122.2158397769,6750736.915072557
1676200000510947,1676200000510947,Hoogenboomlaan,De Sprong,4325DN,4325HR,50,7,a,,7SP,,Renesse,Renesse,417538.94475117885,6751007.489132791
1676200000521387,1676200000521387,Hoogenboomlaan,Kleine Horizon,4325DN,4325HX,44,106,,,0106,,Renesse,Renesse,418231.53317697515,6750952.683866773
1676200000503581,1676200000503581,Hoogenboomlaan,Bongerd,4325DB,4325HV,7,7,a,,0007,,Renesse,Renesse,417931.03191026376,6750797.968473024
1676200000505249,1676200000505249,De Roterij,De Roterij,4328BB,4328BB,7,5,,,,,Burgh-Haamstede,Burgh-Haamstede,417371.2657290585,6745548.77412667
1676200000519631,1676200000519631,Hoogenboomlaan,Wildhoek,4325DN,4325HS,50,18,a,,18WI,,Renesse,Renesse,417580.89076704776,6750900.518307282
1676200000507117,1676200000507117,Hoogenboomlaan,Wildhoek,4325DN,4325HS,50,15,a,,15WI,,Renesse,Renesse,417531.27122607647,6750957.968019454
1676200000518523,1676200000518523,Hoogenboomlaan,Bongerd,4325DB,4325HV,7,11,a,,0011,,Renesse,Renesse,417930.15903005877,6750753.164635503
1676200000516117,1676200000516117,Hoogenboomlaan,Horizon,4325DN,4325HZ,44,61,,,0061,,Renesse,Renesse,417981.7913218672,6751074.107470131
1676200000485937,1676200000485937,Hoogenboomlaan,Horizon,4325DN,4325HZ,44,75,,,0075,,Renesse,Renesse,418047.57034491724,6751093.742559738
1676200000511413,1676200000511413,Hoogenboomlaan,Horizon,4325DN,4325HZ,44,22,,,0022,,Renesse,Renesse,417875.2284287896,6751278.641043707
1676200000511403,1676200000511403,Hoogenboomlaan,Horizon,4325DN,4325HZ,44,10,,,0010,,Renesse,Renesse,417980.98451320163,6751390.446385061
1676200000519637,1676200000519637,Hoogenboomlaan,De Sprong,4325DN,4325HR,50,10,a,,10SP,,Renesse,Renesse,417474.0736120953,6751010.3885058
1676200000511415,1676200000511415,Hoogenboomlaan,Horizon,4325DN,4325HZ,44,20,,,0020,,Renesse,Renesse,417825.2188484675,6751270.174970607
1676200000519097,1676200000519097,Hoogenboomlaan,'t Ongerepte,4325DE,4325HN,15,54,,,0054,,Renesse,Renesse,416904.55035808764,6750813.8693395285
1676200000508191,1676200000508191,Hoogenboomlaan,Westhoek,4325DN,4325HW,50,7,a,,7WE,,Renesse,Renesse,417937.37063397624,6751030.411553277
1676200000523785,1676200000523785,Hoogenboomlaan,Horizon,4325DN,4325HZ,44,36,,,0036,,Renesse,Renesse,417823.08087948785,6751097.749342718
1676200000520049,1676200000520049,Hoogenboomlaan,Horizon,4325DN,4325HZ,44,30,,,0030,,Renesse,Renesse,417784.45102242316,6751245.340782065
1676200000500717,1676200000500717,Hoogenboomlaan,Bongerd,4325DB,4325HV,7,62,a,,0062,,Renesse,Renesse,417838.82491105166,6750539.903385088
1676200000508185,1676200000508185,Hoogenboomlaan,De Sprong,4325DN,4325HR,50,6,a,,6SP,,Renesse,Renesse,417568.3110975369,6751016.855011915
1676200000518335,1676200000518335,Hoogenboomlaan,Molenhoeve,4325DD,4325HT,11,29,,,0029,,Renesse,Renesse,417685.6467155484,6750613.5894639855
1676200000511407,1676200000511407,Hoogenboomlaan,Horizon,4325DN,4325HZ,44,12,,,0012,,Renesse,Renesse,417820.73215896304,6751301.044677036
1676200000532611,1676200000532611,Rampweg,Rampweg,4326LK,4326LK,20,20,,,0021,0009,Noordwelle,Noordwelle,423041.68524749996,6753086.290331597
1676200000498025,1676200000498025,Hoogenboomlaan,Molenhoeve,4325DD,4325HT,11,31,,,0031,,Renesse,Renesse,417637.83493450814,6750636.231050471
1676200000506715,1676200000506715,Hoogenboomlaan,Horizon,4325DN,4325HZ,44,67,,,0067,,Renesse,Renesse,418038.2406989405,6750928.0757994475
1676200000499871,1676200000499871,Hoogenboomlaan,Bongerd,4325DB,4325HV,7,88,a,,0088,,Renesse,Renesse,417872.6687329029,6750769.969385495
1676200000503579,1676200000503579,Hoogenboomlaan,'t Ongerepte,4325DE,4325HN,15,30,,,0030,,Renesse,Renesse,417087.4343570331,6750776.657485752
1676200000499433,1676200000499433,Hoogenboomlaan,Bongerd,4325DB,4325HV,7,12,a,,0012,,Renesse,Renesse,417939.8602696162,6750721.768018026
1676200000503979,1676200000503979,Hoogenboomlaan,Molenhoeve,4325DD,4325HT,11,21,,,0021,,Renesse,Renesse,417583.13761376555,6750813.195301748
1676200000520277,1676200000520277,Hoogenboomlaan,De Sprong,4325DN,4325HR,50,5,a,,5SP,,Renesse,Renesse,417597.6315084104,6751026.116353691
1676200000488325,1676200000488325,Hoogenboomlaan,Horizon,4325DN,4325HZ,44,50,,,0050,,Renesse,Renesse,417931.63393008674,6751245.086193355
1676200000511437,1676200000511437,Hoogenboomlaan,Horizon,4325DN,4325HZ,44,8,,,0008,,Renesse,Renesse,417931.3739724364,6751377.221706153
1676200000516137,1676200000516137,Hoogenboomlaan,Horizon,4325DN,4325HZ,44,85,,,0085,,Renesse,Renesse,418057.817067422,6751276.067400403
1676200000509821,1676200000509821,Hoogenboomlaan,Wildhoek,4325DN,4325HS,50,19,a,,19WI,,Renesse,Renesse,417613.98790179455,6750896.926268372
1676200000499859,1676200000499859,Hoogenboomlaan,Bongerd,4325DB,4325HV,7,92,a,,0092,,Renesse,Renesse,417791.2705303203,6750761.149267307
1676200000500689,1676200000500689,Hoogenboomlaan,Bongerd,4325DB,4325HV,7,47,a,,0047,,Renesse,Renesse,417951.90963108704,6750521.157847316
1676200000517207,1676200000517207,Hoogenboomlaan,Horizon,4325DN,4325HZ,44,49,,,0049,,Renesse,Renesse,417903.2108842479,6751243.776088687
1676200000485445,1676200000485445,Hoogenboomlaan,Horizon,4325DN,4325HZ,44,55,,,0055,,Renesse,Renesse,418001.25519043324,6751135.053781115
1676200000511455,1676200000511455,Hoogenboomlaan,Horizon,4325DN,4325HZ,44,24,,,0024,,Renesse,Renesse,417924.4861474914,6751289.309939069
1676200000499879,1676200000499879,Hoogenboomlaan,Bongerd,4325DB,4325HV,7,9,a,,0009,,Renesse,Renesse,417978.0565371901,6750780.04569589
1676200000519477,1676200000519477,Hoogenboomlaan,Horizon,4325DN,4325HZ,44,80,,,0080,,Renesse,Renesse,418098.9943625495,6750976.589004133
1676200000506699,1676200000506699,Hoogenboomlaan,'t Ongerepte,4325DE,4325HN,15,2,,,0002,,Renesse,Renesse,417044.66673680773,6750888.009969344
1676200000485965,1676200000485965,Hoogenboomlaan,Horizon,4325DN,4325HZ,44,42,,,0042,,Renesse,Renesse,417865.40937991807,6751100.78969398
1676200000502129,1676200000502129,Hoogenboomlaan,Molenhoeve,4325DD,4325HT,11,46,,,0046,,Renesse,Renesse,417532.56672227365,6750687.154388619
1676200000519475,1676200000519475,Hoogenboomlaan,Horizon,4325DN,4325HZ,44,65,,,0065,,Renesse,Renesse,418018.4380880499,6750975.197844846
1676200000503555,1676200000503555,Hoogenboomlaan,'t Ongerepte,4325DE,4325HN,15,23,,,0023,,Renesse,Renesse,417151.49202001945,6750765.281781752
1676200000502145,1676200000502145,Hoogenboomlaan,Bongerd,4325DB,4325HV,7,80,a,,0080,,Renesse,Renesse,417908.4040259257,6750701.194359486
1676200000506721,1676200000506721,Hoogenboomlaan,Horizon,4325DN,4325HZ,44,74,,,0074,,Renesse,Renesse,418087.11361277604,6750941.164607238
1676200000519053,1676200000519053,Hoogenboomlaan,Bongerd,4325DB,4325HV,7,89,a,,0089,,Renesse,Renesse,417861.7263138944,6750801.006966499
1676200000520573,1676200000520573,Molenweg,Akker,4307AG,4307CD,5,12,,,,,Oosterland,Oosterland,448819.4183958707,6736946.252512667
1676200000513223,1676200000513223,Hoogenboomlaan,Molenhoeve,4325DD,4325HT,11,43,,,0043,,Renesse,Renesse,417586.00097992155,6750602.667960936
1676200000507821,1676200000507821,Hoogenboomlaan,Horizon,4325DN,4325HZ,44,64,,,0064,,Renesse,Renesse,418010.2059884475,6750999.994530628
1676200000521385,1676200000521385,Hoogenboomlaan,'t Ongerepte,4325DE,4325HN,15,7,,,0007,,Renesse,Renesse,417051.61464574805,6750853.803339848
1676200000529559,1676200000529559,Hoogenboomlaan,Horizon,4325DN,4325HZ,44,99,,,0099,,Renesse,Renesse,418177.1566765315,6750933.394066764
1676200000502093,1676200000502093,Hoogenboomlaan,'t Ongerepte,4325DE,4325HN,15,48,,,0048,,Renesse,Renesse,416922.3499467478,6750655.042189425
1676200000487309,1676200000487309,Hoogenboomlaan,Horizon,4325DN,4325HZ,44,90,,,0090,,Renesse,Renesse,418067.64080860454,6751150.361038134
1676200000497989,1676200000497989,Hoogenboomlaan,Bongerd,4325DB,4325HV,7,23,a,,0023,,Renesse,Renesse,418000.9080497358,6750626.108179236
1676200000500703,1676200000500703,Hoogenboomlaan,Bongerd,4325DB,4325HV,7,46,a,,0046,,Renesse,Renesse,417974.9055856184,6750536.099238792
1676200000511405,1676200000511405,Hoogenboomlaan,Horizon,4325DN,4325HZ,44,21,,,0021,,Renesse,Renesse,417846.767688795,6751274.691369947
1676200000508059,1676200000508059,Hoogenboomlaan,Horizon,4325DN,4325HZ,44,3,,,0003,,Renesse,Renesse,417811.675191438,6751342.480472018
1676200000478981,1676200000478981,Hoogenboomlaan,Horizon,4325DN,4325HZ,44,27,,,0027,,Renesse,Renesse,417999.6159652462,6751296.973523566
1676200000500735,1676200000500735,Hoogenboomlaan,Bongerd,4325DB,4325HV,7,54,a,,0054,,Renesse,Renesse,417919.5777442765,6750550.965297771
1676200000485939,1676200000485939,Hoogenboomlaan,De Sprong,4325DN,4325HR,50,33,a,,33SP,,Renesse,Renesse,417746.6050720534,6751086.5220094025
1676200000510177,1676200000510177,Hoogenboomlaan,De Sprong,4325DN,4325HR,50,29,a,,29SP,,Renesse,Renesse,417756.61388417083,6751155.737007979
1676200000506685,1676200000506685,Hoogenboomlaan,'t Ongerepte,4325DE,4325HN,15,9,,,0009,,Renesse,Renesse,417110.831719846,6750859.570494872
1676200000511819,1676200000511819,Hoogenboomlaan,Wildhoek,4325DN,4325HS,50,9,a,,9WI,,Renesse,Renesse,417632.4970780484,6750955.100777891
1676200000498929,1676200000498929,Hoogenboomlaan,Bongerd,4325DB,4325HV,7,48,a,,0048,,Renesse,Renesse,417924.0306665273,6750507.6769080525
1676200000487291,1676200000487291,Hoogenboomlaan,De Sprong,4325DN,4325HR,50,25,a,,25SP,,Renesse,Renesse,417662.39411411923,6751127.627180951
1676200000503563,1676200000503563,Hoogenboomlaan,Bongerd,4325DB,4325HV,7,6,a,,0006,,Renesse,Renesse,417907.03540319693,6750784.572770048
1676200000511585,1676200000511585,Hoogenboomlaan,Wildhoek,4325DN,4325HS,50,22,a,,22WI,,Renesse,Renesse,417701.2243622786,6750924.361572668
1676200000511431,1676200000511431,Hoogenboomlaan,Westhoek,4325DN,4325HW,50,11,a,,11WE,,Renesse,Renesse,417977.18971740454,6750936.592318486
1676200000485985,1676200000485985,Hoogenboomlaan,Horizon,4325DN,4325HZ,44,91,,,0091,,Renesse,Renesse,418081.7301389002,6751118.103259727
1676200000505435,1676200000505435,Hoogenboomlaan,Bongerd,4325DB,4325HV,7,27,a,,0027,,Renesse,Renesse,418081.3041135139,6750588.755044667
1676200000503997,1676200000503997,Hoogenboomlaan,'t Ongerepte,4325DE,4325HN,15,11,,,0011,,Renesse,Renesse,417025.0745960563,6750822.938621371
1676200000485949,1676200000485949,Hoogenboomlaan,Kleine Horizon,4325DN,4325HX,44,100,,,0100,,Renesse,Renesse,418159.9245936095,6751097.179394836
1676200000502091,1676200000502091,Hoogenboomlaan,Bongerd,4325DB,4325HV,7,69,a,,0069,,Renesse,Renesse,417930.9730649009,6750674.322064226
1676200000518861,1676200000518861,Hoogenboomlaan,Molenhoeve,4325DD,4325HT,11,17,,,0017,,Renesse,Renesse,417668.35256004025,6750692.956820593
1676200000507835,1676200000507835,Hoogenboomlaan,Horizon,4325DN,4325HZ,44,71,,,0071,,Renesse,Renesse,418055.75728029007,6751012.247939891
1676200000524977,1676200000524977,Hoogenboomlaan,Molenhoeve,4325DD,4325HT,11,8,,,0008,,Renesse,Renesse,417682.42569186643,6750732.346501462
1676200000508163,1676200000508163,Hoogenboomlaan,Kleine Horizon,4325DN,4325HX,44,103,,,0103,,Renesse,Renesse,418196.8081350554,6751023.344781949
1676200000503999,1676200000503999,Hoogenboomlaan,Bongerd,4325DB,4325HV,7,3,a,,0003,,Renesse,Renesse,417941.5958703439,6750842.289399378
1676200000528302,1676200000528302,Hoogenboomlaan,Zuidhoek,4325DB,4325HP,13,1,a,,0001,,Renesse,Renesse,417204.8238798889,6750798.848248776
1676200000518513,1676200000518513,Hoogenboomlaan,'t Ongerepte,4325DE,4325HN,15,35,,,0035,,Renesse,Renesse,417068.54350977845,6750708.775615062
1676200000518695,1676200000518695,Hoogenboomlaan,Bongerd,4325DB,4325HV,7,56,a,,0056,,Renesse,Renesse,417973.13970658265,6750579.436937933
1676200000517043,1676200000517043,Hoogenboomlaan,Horizon,4325DN,4325HZ,44,52,,,0052,,Renesse,Renesse,417983.616718146,6751214.128276419
1676200000500697,1676200000500697,Hoogenboomlaan,Bongerd,4325DB,4325HV,7,33,a,,0033,,Renesse,Renesse,418118.3888256972,6750528.268321769
1676200000508123,1676200000508123,Hoogenboomlaan,Horizon,4325DN,4325HZ,44,32,,,0032,,Renesse,Renesse,417794.6557167876,6751197.634836683
1676200000502139,1676200000502139,Hoogenboomlaan,Bongerd,4325DB,4325HV,7,16,a,,0016,,Renesse,Renesse,417989.6714142833,6750703.379727351
1676200000517085,1676200000517085,Hoogenboomlaan,Horizon,4325DN,4325HZ,44,40,,,0040,,Renesse,Renesse,417852.35373687465,6751152.050202711
1676200000506739,1676200000506739,Hoogenboomlaan,Horizon,4325DN,4325HZ,44,98,,,0098,,Renesse,Renesse,418167.47439300164,6750957.773659548
1676200000502073,1676200000502073,Hoogenboomlaan,Bongerd,4325DB,4325HV,7,77,a,,0077,,Renesse,Renesse,417835.5103521318,6750663.297352457
1676200000511419,1676200000511419,Hoogenboomlaan,De Sprong,4325DN,4325HR,50,27,a,,27SP,,Renesse,Renesse,417696.1886972836,6751136.601326334
1676200000525964,1676200000525964,Oosterscheldestraat,Oosterscheldestraat,,,105,105,,,G11,G12,Zierikzee,Zierikzee,434678.826525101,6736005.038856277
1676200000499851,1676200000499851,Hoogenboomlaan,Bongerd,4325DB,4325HV,7,87,a,,0087,,Renesse,Renesse,417851.3785793076,6750755.687703079
1676200000498021,1676200000498021,Hoogenboomlaan,Bongerd,4325DB,4325HV,7,68,a,,0068,,Renesse,Renesse,417938.2898743424,6750641.24194019
1676200000510943,1676200000510943,Hoogenboomlaan,De Sprong,4325DN,4325HR,50,13,a,,13SP,,Renesse,Renesse,417487.5915865119,6751080.176791611
1676200000486885,1676200000486885,Hoogenboomlaan,Horizon,4325DN,4325HZ,44,44,,,0044,,Renesse,Renesse,417871.61530574213,6751205.659041413
1676200000486905,1676200000486905,Hoogenboomlaan,Horizon,4325DN,4325HZ,44,87,,,0087,,Renesse,Renesse,418054.52384073153,6751224.877692987
1676200000486839,1676200000486839,Hoogenboomlaan,Horizon,4325DN,4325HZ,44,39,,,0039,,Renesse,Renesse,417848.7686204262,6751175.339375684
1676200000500691,1676200000500691,Hoogenboomlaan,Bongerd,4325DB,4325HV,7,52,a,,0052,,Renesse,Renesse,417871.56375649746,6750522.734588936
1676200000519629,1676200000519629,Hoogenboomlaan,De Sprong,4325DN,4325HR,50,1,a,,1SP,,Renesse,Renesse,417714.7238187113,6751058.407923284
1676200000502155,1676200000502155,Hoogenboomlaan,Molenhoeve,4325DD,4325HT,11,9,,,0009,,Renesse,Renesse,417699.39179691294,6750704.498673911
1676200000511401,1676200000511401,Hoogenboomlaan,Horizon,4325DN,4325HZ,44,7,,,0007,,Renesse,Renesse,417908.5351620356,6751370.4903186085
1676200000502079,1676200000502079,Hoogenboomlaan,Bongerd,4325DB,4325HV,7,19,a,,0019,,Renesse,Renesse,417999.04090417625,6750671.744738002
1676200000511397,1676200000511397,Hoogenboomlaan,Westhoek,4325DN,4325HW,50,15,a,,15WE,,Renesse,Renesse,417874.35708774836,6750947.399485262
1676200000502089,1676200000502089,Hoogenboomlaan,Molenhoeve,4325DD,4325HT,11,14,,,0014,,Renesse,Renesse,417720.5144355944,6750666.98451716
1676200000519473,1676200000519473,Hoogenboomlaan,Kleine Horizon,4325DN,4325HX,44,105,,,0105,,Renesse,Renesse,418224.17556015303,6750974.868378156
1676200000511451,1676200000511451,Hoogenboomlaan,Horizon,4325DN,4325HZ,44,25,,,0025,,Renesse,Renesse,417950.9585039858,6751294.3294798955
1676200000532575,1676200000532575,Rampweg,Rampweg,4326LK,4326LK,20,20,,,0013,0016,Noordwelle,Noordwelle,422987.9919082208,6753044.519825239
1676200000498033,1676200000498033,Hoogenboomlaan,Bongerd,4325DB,4325HV,7,71,a,,0071,,Renesse,Renesse,417880.31161858037,6750645.905406565
1676200000502157,1676200000502157,Hoogenboomlaan,Molenhoeve,4325DD,4325HT,11,26,,,0026,,Renesse,Renesse,417635.350065688,6750704.225382379
1676200000519479,1676200000519479,Hoogenboomlaan,Horizon,4325DN,4325HZ,44,97,,,0097,,Renesse,Renesse,418153.98206366634,6750980.222576879
1676200000505967,1676200000505967,Nieuwe Koolweg,Zandweg,4301SC,4301TA,6,32,,,,,Zierikzee,Zierikzee,435491.438485187,6738202.008439263
1676200000502163,1676200000502163,Hoogenboomlaan,Bongerd,4325DB,4325HV,7,83,a,,0083,,Renesse,Renesse,417848.8126032013,6750712.030233074
1676200000508127,1676200000508127,Hoogenboomlaan,Westhoek,4325DN,4325HW,50,2,a,,2WE,,Renesse,Renesse,417889.8483897645,6750979.367130422
1676200000518339,1676200000518339,Hoogenboomlaan,Molenhoeve,4325DD,4325HT,11,37,,,0037,,Renesse,Renesse,417602.6546142336,6750639.420662903
1676200000508179,1676200000508179,Hoogenboomlaan,Horizon,4325DN,4325HZ,44,95,,,0095,,Renesse,Renesse,418133.3036182738,6751024.737164882
1676200000500749,1676200000500749,Hoogenboomlaan,Molenhoeve,4325DD,4325HT,11,40,,,0040,,Renesse,Renesse,417651.154018519,6750552.687248049
1676200000519091,1676200000519091,Hoogenboomlaan,Molenhoeve,4325DD,4325HT,11,1,,,0001,,Renesse,Renesse,417676.6131527753,6750807.974962487
1676200000525812,1676200000525812,Hoogenboomlaan,Wildhoek,4325DN,4325HS,50,20,a,,20WI,,Renesse,Renesse,417649.61922720616,6750904.721933459
1676200000526067,1676200000526067,Donkereweg,Donkereweg,4317NL,4317NL,47,49,,,,,Noordgouwe,Noordgouwe,439023.8532708886,6741463.577456707
1676200000503983,1676200000503983,Hoogenboomlaan,Molenhoeve,4325DD,4325HT,11,2,,,0002,,Renesse,Renesse,417704.89100317855,6750822.740983639
1676200000500777,1676200000500777,Hoogenboomlaan,Bongerd,4325DB,4325HV,7,28,a,,0028,,Renesse,Renesse,418058.86433135817,6750579.335600219
1676200000479187,1676200000479187,Hoogenboomlaan,Kleine Horizon,4325DN,4325HX,44,109,,,0109,,Renesse,Renesse,418199.0071773532,6751087.7622368345
1676200000487285,1676200000487285,Hoogenboomlaan,Horizon,4325DN,4325HZ,44,51,,,0051,,Renesse,Renesse,417983.1142392232,6751243.352162307
1676200000525962,1676200000525962,Oosterscheldestraat,Oosterscheldestraat,,,105,105,,,G10,G11,Zierikzee,Zierikzee,434685.7772132674,6736005.180748596
1676200000511433,1676200000511433,Hoogenboomlaan,Westhoek,4325DN,4325HW,50,10,a,,10WE,,Renesse,Renesse,417965.954376107,6750958.188471549
1676200000479179,1676200000479179,Hoogenboomlaan,De Sprong,4325DN,4325HR,50,19,a,,19SP,,Renesse,Renesse,417578.66395803425,6751069.076913599
1676200000511453,1676200000511453,Hoogenboomlaan,Westhoek,4325DN,4325HW,50,6,a,,6WE,,Renesse,Renesse,417929.3769294589,6751056.567653934
1676200000499873,1676200000499873,Hoogenboomlaan,'t Ongerepte,4325DE,4325HN,15,39,,,0039,,Renesse,Renesse,417006.95340727275,6750752.309244298
1676200000528310,1676200000528310,Hoogenboomlaan,Zuidhoek,4325DB,4325HP,13,8,a,,0008,,Renesse,Renesse,417197.4787122699,6750727.144586513
1676200000502123,1676200000502123,Hoogenboomlaan,Bongerd,4325DB,4325HV,7,17,a,,0017,,Renesse,Renesse,417965.66533097316,6750689.916278973
1676200000508187,1676200000508187,Hoogenboomlaan,Horizon,4325DN,4325HZ,44,63,,,0063,,Renesse,Renesse,417997.36320409144,6751026.881702417
1676200000499863,1676200000499863,Hoogenboomlaan,'t Ongerepte,4325DE,4325HN,15,31,,,0031,,Renesse,Renesse,417091.7524427471,6750747.665317041
1676200000499489,1676200000499489,Hoogenboomlaan,'t Ongerepte,4325DE,4325HN,15,37,,,0037,,Renesse,Renesse,417036.5539136377,6750731.067191214
1676200000506749,1676200000506749,Hoogenboomlaan,Horizon,4325DN,4325HZ,44,73,,,0073,,Renesse,Renesse,418076.9631152519,6750964.850157773
1676200000518857,1676200000518857,Hoogenboomlaan,Molenhoeve,4325DD,4325HT,11,45,,,0045,,Renesse,Renesse,417549.56374676124,6750663.04790031
1676200000499457,1676200000499457,Hoogenboomlaan,Bongerd,4325DB,4325HV,7,13,a,,0013,,Renesse,Renesse,417963.6607033454,6750735.062173144
1676200000506681,1676200000506681,Hoogenboomlaan,'t Ongerepte,4325DE,4325HN,15,5,,,0005,,Renesse,Renesse,416992.2972014174,6750849.277547237
1676200000518525,1676200000518525,Hoogenboomlaan,'t Ongerepte,4325DE,4325HN,15,45,,,0045,,Renesse,Renesse,416949.8399338827,6750734.665509258
1676200000506707,1676200000506707,Hoogenboomlaan,'t Ongerepte,4325DE,4325HN,15,18,,,0018,,Renesse,Renesse,417138.2415722025,6750898.214809966
1676200000499877,1676200000499877,Hoogenboomlaan,Bongerd,4325DB,4325HV,7,91,a,,0091,,Renesse,Renesse,417813.85078867426,6750774.019005211
1676200000507969,1676200000507969,Hoogenboomlaan,Horizon,4325DN,4325HZ,44,82,,,0082,,Renesse,Renesse,418051.81635520747,6751353.04605326
1676200000519089,1676200000519089,Hoogenboomlaan,'t Ongerepte,4325DE,4325HN,15,56,,,0056,,Renesse,Renesse,416939.62570767634,6750793.982480892
1676200000528308,1676200000528308,Hoogenboomlaan,Zuidhoek,4325DB,4325HP,13,9,a,,0009,,Renesse,Renesse,417188.0423391818,6750758.171531302
1676200000511635,1676200000511635,Molenweg,Akker,4307AG,4307CD,7,8,,,,,Oosterland,Oosterland,448881.8546522367,6736987.443309977
1676200000516177,1676200000516177,Hoogenboomlaan,Horizon,4325DN,4325HZ,44,4,,,0004,,Renesse,Renesse,417835.67209849466,6751350.960588339
1676200000498017,1676200000498017,Hoogenboomlaan,Bongerd,4325DB,4325HV,7,22,a,,0022,,Renesse,Renesse,418024.20850516064,6750641.285883432
1676200000535829,1676200000535829,Hoogenboomlaan,Wildhoek,4325DN,4325HS,50,3,a,,3WI,,Renesse,Renesse,417709.4622072029,6751008.213956533
1676200000510173,1676200000510173,Hoogenboomlaan,Horizon,4325DN,4325HZ,44,11,,,0011,,Renesse,Renesse,418004.14890532126,6751395.5966007635
1676200000485961,1676200000485961,Hoogenboomlaan,De Sprong,4325DN,4325HR,50,34,a,,34SP,,Renesse,Renesse,417777.97322433,6751097.769361706
1676200000510175,1676200000510175,Hoogenboomlaan,De Sprong,4325DN,4325HR,50,3,a,,3SP,,Renesse,Renesse,417658.59859288874,6751041.304651305
1676200000506683,1676200000506683,Hoogenboomlaan,'t Ongerepte,4325DE,4325HN,15,8,,,0008,,Renesse,Renesse,417081.2173496318,6750856.981698934
1676200000524733,1676200000524733,Hoogenboomlaan,Horizon,4325DN,4325HZ,44,88,,,0088,,Renesse,Renesse,418058.29057413223,6751199.7116658315
1676200000498863,1676200000498863,Hoogenboomlaan,Bongerd,4325DB,4325HV,7,50,a,,0050,,Renesse,Renesse,417873.4155616645,6750479.39752315
1676200000520037,1676200000520037,Hoogenboomlaan,De Sprong,4325DN,4325HR,50,17,a,,17SP,,Renesse,Renesse,417545.8740442818,6751094.287585456
1676200000500733,1676200000500733,Hoogenboomlaan,Molenhoeve,4325DD,4325HT,11,41,,,0041,,Renesse,Renesse,417618.9415579459,6750541.034960192
1676200000499447,1676200000499447,Hoogenboomlaan,Bongerd,4325DB,4325HV,7,82,a,,0082,,Renesse,Renesse,417874.84295331215,6750726.124488772
1676200000518511,1676200000518511,Hoogenboomlaan,'t Ongerepte,4325DE,4325HN,15,50,,,0050,,Renesse,Renesse,416920.23659867694,6750704.545870774
1676200000510941,1676200000510941,Hoogenboomlaan,De Sprong,4325DN,4325HR,50,12,a,,12SP,,Renesse,Renesse,417459.4130353153,6751067.353873886
1676200000503959,1676200000503959,Hoogenboomlaan,Bongerd,4325DB,4325HV,7,8,a,,0008,,Renesse,Renesse,417955.65507374285,6750814.257324254
1676200000485963,1676200000485963,Hoogenboomlaan,De Sprong,4325DN,4325HR,50,26,a,,26SP,,Renesse,Renesse,417665.4144949177,6751094.0398537535
1676200000511823,1676200000511823,Hoogenboomlaan,Horizon,4325DN,4325HZ,44,9,,,0009,,Renesse,Renesse,417956.578495485,6751382.88006441
1676200000503993,1676200000503993,Hoogenboomlaan,'t Ongerepte,4325DE,4325HN,15,55,,,0055,,Renesse,Renesse,416935.32349536696,6750816.229713426
1676200000499855,1676200000499855,Hoogenboomlaan,'t Ongerepte,4325DE,4325HN,15,42,,,0042,,Renesse,Renesse,416977.91211440816,6750743.750315466
1676200000503957,1676200000503957,Hoogenboomlaan,'t Ongerepte,4325DE,4325HN,15,53,,,0053,,Renesse,Renesse,416906.5982844789,6750786.6062119
1676200000513225,1676200000513225,Hoogenboomlaan,Molenhoeve,4325DD,4325HT,11,38,,,0038,,Renesse,Renesse,417618.6279738156,6750609.281000508
1676200000519087,1676200000519087,Hoogenboomlaan,'t Ongerepte,4325DE,4325HN,15,16,,,0016,,Renesse,Renesse,417029.3685545265,6750791.018203508
1676200000478985,1676200000478985,Hoogenboomlaan,Horizon,4325DN,4325HZ,44,28,,,0028,,Renesse,Renesse,417769.7693482713,6751295.415044685
1676200000503557,1676200000503557,Hoogenboomlaan,Molenhoeve,4325DD,4325HT,11,20,,,0020,,Renesse,Renesse,417607.8213558865,6750774.292577445
1676200000478831,1676200000478831,Hoogenboomlaan,Horizon,4325DN,4325HZ,44,93,,,0093,,Renesse,Renesse,418108.9641814449,6751070.447680008
1676200000497997,1676200000497997,Hoogenboomlaan,Bongerd,4325DB,4325HV,7,67,a,,0067,,Renesse,Renesse,417913.1114764934,6750627.105810009
1676200000519427,1676200000519427,Hoogenboomlaan,Wildhoek,4325DN,4325HS,50,21,a,,21WI,,Renesse,Renesse,417672.59093291627,6750915.521732779
1676200000511443,1676200000511443,Hoogenboomlaan,Westhoek,4325DN,4325HW,50,5,a,,5WE,,Renesse,Renesse,417898.28784720035,6751047.393712209
1676200000500753,1676200000500753,Hoogenboomlaan,Bongerd,4325DB,4325HV,7,29,a,,0029,,Renesse,Renesse,418035.07466798916,6750565.933971043
1676200000507973,1676200000507973,Hoogenboomlaan,Horizon,4325DN,4325HZ,44,84,,,0084,,Renesse,Renesse,418053.2072560387,6751301.890091714
1676200000485443,1676200000485443,Hoogenboomlaan,Horizon,4325DN,4325HZ,44,47,,,0047,,Renesse,Renesse,417888.2538566925,6751131.848988257
1676200000499493,1676200000499493,Hoogenboomlaan,Bongerd,4325DB,4325HV,7,14,a,,0014,,Renesse,Renesse,417989.8902648582,6750751.356236087
1676200000500681,1676200000500681,Hoogenboomlaan,Bongerd,4325DB,4325HV,7,44,a,,0044,,Renesse,Renesse,418007.13542838686,6750517.538735049
1676200000501721,1676200000501721,Hoogenboomlaan,Bongerd,4325DB,4325HV,7,70,a,,0070,,Renesse,Renesse,417906.03825957543,6750660.314124511
1676200000499473,1676200000499473,Hoogenboomlaan,Molenhoeve,4325DD,4325HT,11,25,,,0025,,Renesse,Renesse,417620.7800408491,6750730.34664401
1676200000511429,1676200000511429,Hoogenboomlaan,Wildhoek,4325DN,4325HS,50,5,a,,5WI,,Renesse,Renesse,417691.1801837051,6750973.235950128
1676200000507125,1676200000507125,Hoogenboomlaan,Westhoek,4325DN,4325HW,50,13,a,,13WE,,Renesse,Renesse,417924.93889969995,6750972.978258937
1676200000520241,1676200000520241,Hoogenboomlaan,Horizon,4325DN,4325HZ,44,29,,,0029,,Renesse,Renesse,417776.553572652,6751270.622247403
1676200000499455,1676200000499455,Hoogenboomlaan,'t Ongerepte,4325DE,4325HN,15,32,,,0032,,Renesse,Renesse,417097.6455372043,6750716.710301598
1676200000502165,1676200000502165,Hoogenboomlaan,Bongerd,4325DB,4325HV,7,15,a,,0015,,Renesse,Renesse,418013.5597977041,6750716.777468457
1676200000511587,1676200000511587,Hoogenboomlaan,Wildhoek,4325DN,4325HS,50,23,a,,23WI,,Renesse,Renesse,417731.25361093046,6750930.17265962
1676200000518865,1676200000518865,Hoogenboomlaan,'t Ongerepte,4325DE,4325HN,15,41,,,0041,,Renesse,Renesse,417013.32401538827,6750692.120383471
1676200000485997,1676200000485997,Hoogenboomlaan,De Sprong,4325DN,4325HR,50,31,a,,31SP,,Renesse,Renesse,417745.8556295354,6751117.667425955
1676200000499483,1676200000499483,Hoogenboomlaan,Bongerd,4325DB,4325HV,7,86,a,,0086,,Renesse,Renesse,417827.9357704922,6750744.706756382
1676200000511817,1676200000511817,Hoogenboomlaan,Horizon,4325DN,4325HZ,44,13,,,0013,,Renesse,Renesse,417840.10673965665,6751308.021426614
1676200000502149,1676200000502149,Hoogenboomlaan,Molenhoeve,4325DD,4325HT,11,12,,,0012,,Renesse,Renesse,417765.30232950795,6750698.968173535
1676200000499857,1676200000499857,Hoogenboomlaan,Molenhoeve,4325DD,4325HT,11,6,,,0006,,Renesse,Renesse,417731.2296716805,6750763.320826894
1676200000519421,1676200000519421,Hoogenboomlaan,'t Ongerepte,4325DE,4325HN,15,3,,,0003,,Renesse,Renesse,417074.2996753862,6750891.9274124745
1676200000507351,1676200000507351,Korte Moermondsweg,Korte Moermondsweg,4325LA,4325LB,23,23,,,0012,0012,Renesse,Renesse,422391.9663091004,6752925.345006159
1676200000503577,1676200000503577,Hoogenboomlaan,Molenhoeve,4325DD,4325HT,11,23,,,0023,,Renesse,Renesse,417567.30452037486,6750786.619500896
1676200000498009,1676200000498009,Hoogenboomlaan,Bongerd,4325DB,4325HV,7,72,a,,0072,,Renesse,Renesse,417855.27741806966,6750631.8821942555
1676200000500719,1676200000500719,Hoogenboomlaan,Bongerd,4325DB,4325HV,7,31,a,,0031,,Renesse,Renesse,418068.1698690033,6750547.731892127
1676200000532438,1676200000532438,Hoogenboomlaan,Zuidhoek,4325DB,4325HP,13,6,a,,0006,,Renesse,Renesse,417278.28388428595,6750741.807525153
1676200000503973,1676200000503973,Hoogenboomlaan,Molenhoeve,4325DD,4325HT,11,22,,,0022,,Renesse,Renesse,417553.26642641384,6750812.933856211
1676200000500675,1676200000500675,Hoogenboomlaan,Bongerd,4325DB,4325HV,7,34,a,,0034,,Renesse,Renesse,418096.0907260001,6750513.960202307
1676200000519431,1676200000519431,Hoogenboomlaan,Horizon,4325DN,4325HZ,44,81,,,0081,,Renesse,Renesse,418109.40163570514,6750952.876850697
1676200000499469,1676200000499469,Hoogenboomlaan,Molenhoeve,4325DD,4325HT,11,11,,,0011,,Renesse,Renesse,417746.18859695765,6750731.336780318
1676200000502147,1676200000502147,Hoogenboomlaan,'t Ongerepte,4325DE,4325HN,15,44,,,0044,,Renesse,Renesse,416982.50908021553,6750686.051506948
1676200000507837,1676200000507837,Hoogenboomlaan,Kleine Horizon,4325DN,4325HX,44,112,,,0112,,Renesse,Renesse,418234.25388152536,6751016.556668664
1676200000527544,1676200000527544,Oud Heiligeweg,Oud Heiligeweg,4307LB,4307LB,2,4,a,a,,,Oosterland,Oosterland,449921.8555399941,6736723.798362402
1676200000486891,1676200000486891,Hoogenboomlaan,Horizon,4325DN,4325HZ,44,57,,,0057,,Renesse,Renesse,418010.61527789454,6751220.97388827
1676200000511411,1676200000511411,Hoogenboomlaan,Horizon,4325DN,4325HZ,44,23,,,0023,,Renesse,Renesse,417901.24142822856,6751283.516295824
1676200000513339,1676200000513339,De Haerde,De Haerde,4323LA,4323LT,104,104,,,,,Ellemeet,Ellemeet,424580.4604170129,6751511.784850631
1676200000534021,1676200000534021,Hoogenboomlaan,Horizon,4325DN,4325HZ,44,5,,,0005,,Renesse,Renesse,417859.3148598587,6751356.618006616
1676200000532608,1676200000532608,Rampweg,Rampweg,4326LK,4326LK,20,20,,,0022,0010,Noordwelle,Noordwelle,423045.00681153324,6753080.317172517
1676200000497995,1676200000497995,Hoogenboomlaan,Molenhoeve,4325DD,4325HT,11,15,,,0015,,Renesse,Renesse,417707.82562290906,6750621.692229632
1676200000508165,1676200000508165,Hoogenboomlaan,De Sprong,4325DN,4325HR,50,8,a,,8SP,,Renesse,Renesse,417507.707423474,6751007.750903203
1676200000485979,1676200000485979,Hoogenboomlaan,De Sprong,4325DN,4325HR,50,30,a,,30SP,,Renesse,Renesse,417718.10273185215,6751110.996284781
1676200000500705,1676200000500705,Hoogenboomlaan,Bongerd,4325DB,4325HV,7,53,a,,0053,,Renesse,Renesse,417896.9997678083,6750536.934633005
1676200000508135,1676200000508135,Hoogenboomlaan,Wildhoek,4325DN,4325HS,50,16,a,,16WI,,Renesse,Renesse,417539.9426370895,6750916.16548532
1676200000505427,1676200000505427,Hoogenboomlaan,Bongerd,4325DB,4325HV,7,59,a,,0059,,Renesse,Renesse,417916.33661135664,6750581.151098098
1676200000498007,1676200000498007,Hoogenboomlaan,Bongerd,4325DB,4325HV,7,75,a,,0075,,Renesse,Renesse,417790.24948415725,6750630.267962957
1676200000498921,1676200000498921,Hoogenboomlaan,Bongerd,4325DB,4325HV,7,43,a,,0043,,Renesse,Renesse,417985.7436728172,6750507.385020618
1676200000506677,1676200000506677,Hoogenboomlaan,'t Ongerepte,4325DE,4325HN,15,20,,,0020,,Renesse,Renesse,417143.27784346155,6750845.657731602
1676200000511421,1676200000511421,Hoogenboomlaan,De Sprong,4325DN,4325HR,50,28,a,,28SP,,Renesse,Renesse,417726.15154503833,6751146.345361906
1676200000508131,1676200000508131,Hoogenboomlaan,De Sprong,4325DN,4325HR,50,14,a,,14SP,,Renesse,Renesse,417493.12210049265,6751044.566916685
1676200000499459,1676200000499459,Hoogenboomlaan,Molenhoeve,4325DD,4325HT,11,18,,,0018,,Renesse,Renesse,417648.8659486999,6750727.78062978
1676200000498919,1676200000498919,Hoogenboomlaan,Bongerd,4325DB,4325HV,7,35,a,,0035,,Renesse,Renesse,418069.31839637784,6750503.874787584
1676200000502083,1676200000502083,Hoogenboomlaan,Molenhoeve,4325DD,4325HT,11,32,,,0032,,Renesse,Renesse,417622.72245559434,6750664.199459668
1676200000506693,1676200000506693,Hoogenboomlaan,'t Ongerepte,4325DE,4325HN,15,19,,,0019,,Renesse,Renesse,417140.6706856318,6750871.523836528
1676200000513531,1676200000513531,Hoogenboomlaan,Wildhoek,4325DN,4325HS,50,17,a,,17WI,,Renesse,Renesse,417548.30021457607,6750891.367494577
1676200000477439,1676200000477439,Hoogenboomlaan,Horizon,4325DN,4325HZ,44,62,,,0062,,Renesse,Renesse,417994.21057263674,6751048.076656437
1676200000508053,1676200000508053,Hoogenboomlaan,Horizon,4325DN,4325HZ,44,2,,,0002,,Renesse,Renesse,417786.3716431342,6751333.626712334
1676200000518581,1676200000518581,Hoogenboomlaan,'t Ongerepte,4325DE,4325HN,15,27,,,0027,,Renesse,Renesse,417118.5571503945,6750761.598640748
1676200000528306,1676200000528306,Hoogenboomlaan,Zuidhoek,4325DB,4325HP,13,3,a,,0003,,Renesse,Renesse,417285.5837129174,6750790.596958865
1676200000502121,1676200000502121,Hoogenboomlaan,Molenhoeve,4325DD,4325HT,11,13,,,0013,,Renesse,Renesse,417741.6252783079,6750682.415919005
1676200000505463,1676200000505463,Hoogenboomlaan,Molenhoeve,4325DD,4325HT,11,30,,,0030,,Renesse,Renesse,417653.82914541644,6750607.311593322
1676200000511815,1676200000511815,Hoogenboomlaan,Horizon,4325DN,4325HZ,44,26,,,0026,,Renesse,Renesse,417976.5169043433,6751296.478189062
1676200000505431,1676200000505431,Hoogenboomlaan,Bongerd,4325DB,4325HV,7,64,a,,0064,,Renesse,Renesse,417837.099371188,6750584.42946904
1676200000486827,1676200000486827,Hoogenboomlaan,Horizon,4325DN,4325HZ,44,89,,,0089,,Renesse,Renesse,418056.44855972833,6751174.495545697
1676200000507801,1676200000507801,Hoogenboomlaan,Horizon,4325DN,4325HZ,44,72,,,0072,,Renesse,Renesse,418066.37932670634,6750988.451701645
1676200000502141,1676200000502141,Hoogenboomlaan,Molenhoeve,4325DD,4325HT,11,35,,,0035,,Renesse,Renesse,417573.6303840608,6750693.465139713
1676200000499461,1676200000499461,Hoogenboomlaan,'t Ongerepte,4325DE,4325HN,15,43,,,0043,,Renesse,Renesse,416983.00596505654,6750713.958347791
1676200000509823,1676200000509823,Hoogenboomlaan,Wildhoek,4325DN,4325HS,50,10,a,,10WI,,Renesse,Renesse,417619.0933848548,6750982.370422048
1676200000519579,1676200000519579,Hoogenboomlaan,Wildhoek,4325DN,4325HS,50,11,a,,11WI,,Renesse,Renesse,417589.67311150586,6750973.472100558
1676200000500763,1676200000500763,Hoogenboomlaan,Bongerd,4325DB,4325HV,7,60,a,,0060,,Renesse,Renesse,417891.76300855714,6750569.377706032
1676200000503551,1676200000503551,Hoogenboomlaan,'t Ongerepte,4325DE,4325HN,15,36,,,0036,,Renesse,Renesse,417032.90454257856,6750761.342679734
1676200000501717,1676200000501717,Hoogenboomlaan,Bongerd,4325DB,4325HV,7,18,a,,0018,,Renesse,Renesse,417975.1502868136,6750658.309815789
1676200000509825,1676200000509825,Hoogenboomlaan,De Sprong,4325DN,4325HR,50,16,a,,16SP,,Renesse,Renesse,417514.91637884016,6751086.953765356
1676200000503565,1676200000503565,Hoogenboomlaan,'t Ongerepte,4325DE,4325HN,15,57,,,0057,,Renesse,Renesse,416942.5520529059,6750766.277208312
1676200000485971,1676200000485971,Hoogenboomlaan,Horizon,4325DN,4325HZ,44,48,,,0048,,Renesse,Renesse,417894.533372126,6751106.615457534
1676200000502131,1676200000502131,Hoogenboomlaan,'t Ongerepte,4325DE,4325HN,15,47,,,0047,,Renesse,Renesse,416952.91483659745,6750677.299096476
1676200000477435,1676200000477435,Hoogenboomlaan,Horizon,4325DN,4325HZ,44,77,,,0077,,Renesse,Renesse,418067.69249868626,6751047.90173074
1676200000519627,1676200000519627,Hoogenboomlaan,Westhoek,4325DN,4325HW,50,12,a,,12WE,,Renesse,Renesse,417937.5961108468,6750945.8933202075
1676200000486869,1676200000486869,Hoogenboomlaan,Horizon,4325DN,4325HZ,44,38,,,0038,,Renesse,Renesse,417841.52561569243,6751200.194319823
1676200000508177,1676200000508177,Hoogenboomlaan,Horizon,4325DN,4325HZ,44,78,,,0078,,Renesse,Renesse,418078.1527776476,6751024.0613433765
1676200000498349,1676200000498349,Hoogenboomlaan,Bongerd,4325DB,4325HV,7,51,a,,0051,,Renesse,Renesse,417846.28762498003,6750508.307056589
1676200000518683,1676200000518683,Hoogenboomlaan,Bongerd,4325DB,4325HV,7,30,a,,0030,,Renesse,Renesse,418044.1682153594,6750534.15755174
1676200000519641,1676200000519641,Hoogenboomlaan,Kleine Horizon,4325DN,4325HX,44,111,,,0111,,Renesse,Renesse,418222.01122725086,6751040.851594576
1676200000500747,1676200000500747,Hoogenboomlaan,Bongerd,4325DB,4325HV,7,32,a,,0032,,Renesse,Renesse,418092.30930126883,6750561.273736385
1676200000511425,1676200000511425,Hoogenboomlaan,Wildhoek,4325DN,4325HS,50,7,a,,7WI,,Renesse,Renesse,417649.24205975357,6750994.075362539
1676200000478835,1676200000478835,Hoogenboomlaan,Horizon,4325DN,4325HZ,44,76,,,0076,,Renesse,Renesse,418056.9914412666,6751072.273176496
1676200000505445,1676200000505445,Hoogenboomlaan,Bongerd,4325DB,4325HV,7,58,a,,0058,,Renesse,Renesse,417940.2505958316,6750597.559328292
1676200000508181,1676200000508181,Hoogenboomlaan,De Sprong,4325DN,4325HR,50,37,a,,37SP,,Renesse,Renesse,417825.1725957626,6751019.395906735
1676200000506735,1676200000506735,Hoogenboomlaan,Westhoek,4325DN,4325HW,50,14,a,,14WE,,Renesse,Renesse,417907.17457380815,6750945.863157136
1676200000513069,1676200000513069,Hoogenboomlaan,Bongerd,4325DB,4325HV,7,90,a,,0090,,Renesse,Renesse,417838.6751217077,6750785.485129347
1676200000485935,1676200000485935,Hoogenboomlaan,Horizon,4325DN,4325HZ,44,92,,,0092,,Renesse,Renesse,418100.5315603178,6751096.148267637
1676200000528349,1676200000528349,Hoogenboomlaan,Zuidhoek,4325DB,4325HP,13,7,a,,0007,,Renesse,Renesse,417242.28096715343,6750730.945171131
1676200000499875,1676200000499875,Hoogenboomlaan,Molenhoeve,4325DD,4325HT,11,3,,,0003,,Renesse,Renesse,417670.5894429093,6750770.302764559
1676200000503553,1676200000503553,Hoogenboomlaan,'t Ongerepte,4325DE,4325HN,15,52,,,0052,,Renesse,Renesse,416913.233476038,6750761.303348803
1676200000506731,1676200000506731,Hoogenboomlaan,Wildhoek,4325DN,4325HS,50,24,a,,24WI,,Renesse,Renesse,417761.2893850328,6750940.297657765
1676200000510945,1676200000510945,Hoogenboomlaan,Wildhoek,4325DN,4325HS,50,13,a,,13WI,,Renesse,Renesse,417574.08364683774,6750937.814681618
1676200000479199,1676200000479199,Hoogenboomlaan,De Sprong,4325DN,4325HR,50,22,a,,22SP,,Renesse,Renesse,417607.6562481172,6751076.881585623
1676200000519417,1676200000519417,Hoogenboomlaan,'t Ongerepte,4325DE,4325HN,15,6,,,0006,,Renesse,Renesse,417021.80124682165,6750851.3956292635
1676200000520075,1676200000520075,Hoogenboomlaan,Horizon,4325DN,4325HZ,44,15,,,0015,,Renesse,Renesse,417891.4986550356,6751320.979659114
1676200000504013,1676200000504013,Hoogenboomlaan,Bongerd,4325DB,4325HV,7,1,a,,0001,,Renesse,Renesse,417874.0667906865,6750847.65738587
1676200000488331,1676200000488331,Hoogenboomlaan,Horizon,4325DN,4325HZ,44,56,,,0056,,Renesse,Renesse,418009.0767550089,6751248.752643543
1676200000500771,1676200000500771,Hoogenboomlaan,Bongerd,4325DB,4325HV,7,63,a,,0063,,Renesse,Renesse,417811.82677012996,6750570.269992498
1676200000518509,1676200000518509,Hoogenboomlaan,'t Ongerepte,4325DE,4325HN,15,38,,,0038,,Renesse,Renesse,417042.0445201567,6750702.898229351
1676200000477429,1676200000477429,Hoogenboomlaan,Kleine Horizon,4325DN,4325HX,44,102,,,0102,,Renesse,Renesse,418185.9793914089,6751045.228499259
1676200000485995,1676200000485995,Hoogenboomlaan,Horizon,4325DN,4325HZ,44,35,,,0035,,Renesse,Renesse,417818.3788184452,6751120.394381652
1676200000503575,1676200000503575,Hoogenboomlaan,'t Ongerepte,4325DE,4325HN,15,60,,,0060,,Renesse,Renesse,416971.0819280341,6750770.423682942
1676200000497985,1676200000497985,Hoogenboomlaan,Bongerd,4325DB,4325HV,7,26,a,,0026,,Renesse,Renesse,418057.97503879794,6750620.245586933
1676200000502133,1676200000502133,Hoogenboomlaan,'t Ongerepte,4325DE,4325HN,15,49,,,0049,,Renesse,Renesse,416922.8972352887,6750680.1275583515
1676200000519961,1676200000519961,Hoogenboomlaan,De Sprong,4325DN,4325HR,50,11,a,,11SP,,Renesse,Renesse,417459.7137449508,6751032.986519443
1676200000519263,1676200000519263,Hoogenboomlaan,Bongerd,4325DB,4325HV,7,57,a,,0057,,Renesse,Renesse,417968.56016615324,6750612.983935268
1676200000513567,1676200000513567,Hoogenboomlaan,Horizon,4325DN,4325HZ,44,37,,,0037,,Renesse,Renesse,417834.7825639714,6751228.700849902
1676200000504011,1676200000504011,Hoogenboomlaan,'t Ongerepte,4325DE,4325HN,15,13,,,0013,,Renesse,Renesse,417083.566506853,6750831.919271796
1676200000518521,1676200000518521,Hoogenboomlaan,'t Ongerepte,4325DE,4325HN,15,51,,,0051,,Renesse,Renesse,416919.13379555213,6750728.411407563
1676200000513031,1676200000513031,Hoogenboomlaan,Molenhoeve,4325DD,4325HT,11,16,,,0016,,Renesse,Renesse,417687.6804905425,6750658.087534226
1676200000500755,1676200000500755,Hoogenboomlaan,Bongerd,4325DB,4325HV,7,55,a,,0055,,Renesse,Renesse,417947.67157668475,6750565.220185145
1676200000503995,1676200000503995,Hoogenboomlaan,'t Ongerepte,4325DE,4325HN,15,10,,,0010,,Renesse,Renesse,416995.53813889564,6750818.612830463
1676200000528304,1676200000528304,Hoogenboomlaan,Zuidhoek,4325DB,4325HP,13,2,a,,0002,,Renesse,Renesse,417245.40261741274,6750793.046911884
1676200000499449,1676200000499449,Hoogenboomlaan,'t Ongerepte,4325DE,4325HN,15,25,,,0025,,Renesse,Renesse,417154.98686452146,6750713.257813709
1676200000485943,1676200000485943,Hoogenboomlaan,De Sprong,4325DN,4325HR,50,23,a,,23SP,,Renesse,Renesse,417639.62989833317,6751084.2573255
1676200000503967,1676200000503967,Hoogenboomlaan,Bongerd,4325DB,4325HV,7,5,a,,0005,,Renesse,Renesse,417898.3579335945,6750814.499763902
1676200000511409,1676200000511409,Hoogenboomlaan,Horizon,4325DN,4325HZ,44,14,,,0014,,Renesse,Renesse,417866.65581120364,6751316.6687403275
1676200000499439,1676200000499439,Hoogenboomlaan,'t Ongerepte,4325DE,4325HN,15,29,,,0029,,Renesse,Renesse,417126.3901044939,6750707.145887419
1676200000503985,1676200000503985,Hoogenboomlaan,Bongerd,4325DB,4325HV,7,93,a,,0093,,Renesse,Renesse,417842.4870543304,6750822.149385075
1676200000478581,1676200000478581,Hoogenboomlaan,Horizon,4325DN,4325HZ,44,86,,,0086,,Renesse,Renesse,418058.0891037638,6751254.828067261
1676200000477447,1676200000477447,Hoogenboomlaan,Kleine Horizon,4325DN,4325HX,44,110,,,0110,,Renesse,Renesse,418206.1400040894,6751063.240924728
1676200000518579,1676200000518579,Hoogenboomlaan,Zuidhoek,4325DB,4325HP,13,5,a,,0005,,Renesse,Renesse,417323.45633742615,6750747.139577912
1676200000499865,1676200000499865,Hoogenboomlaan,Bongerd,4325DB,4325HV,7,10,a,,0010,,Renesse,Renesse,417955.9570170326,6750766.85278771
1676200000498019,1676200000498019,Hoogenboomlaan,Molenhoeve,4325DD,4325HT,11,44,,,0044,,Renesse,Renesse,417570.1947551016,6750632.320154733
1676200000477451,1676200000477451,Hoogenboomlaan,Horizon,4325DN,4325HZ,44,69,,,0069,,Renesse,Renesse,418034.67173301603,6751059.732667095
1676200000504017,1676200000504017,Hoogenboomlaan,'t Ongerepte,4325DE,4325HN,15,14,,,0014,,Renesse,Renesse,417112.93928497564,6750833.853095408
1676200000509827,1676200000509827,Hoogenboomlaan,De Sprong,4325DN,4325HR,50,21,a,,21SP,,Renesse,Renesse,417604.43859378423,6751111.134900247
1676200000503953,1676200000503953,Hoogenboomlaan,'t Ongerepte,4325DE,4325HN,15,15,,,0015,,Renesse,Renesse,417000.32164869085,6750785.495004887
1676200000505441,1676200000505441,Hoogenboomlaan,Bongerd,4325DB,4325HV,7,24,a,,0024,,Renesse,Renesse,418011.7959634995,6750599.921550822
1676200000503559,1676200000503559,Hoogenboomlaan,Molenhoeve,4325DD,4325HT,11,19,,,0019,,Renesse,Renesse,417633.5144742541,6750776.824976412
1676200000502105,1676200000502105,Hoogenboomlaan,Molenhoeve,4325DD,4325HT,11,27,,,0027,,Renesse,Renesse,417650.9525052781,6750675.96734551
1676200000502103,1676200000502103,Hoogenboomlaan,Bongerd,4325DB,4325HV,7,78,a,,0078,,Renesse,Renesse,417857.4957578327,6750678.0388670135
1676200000508125,1676200000508125,Hoogenboomlaan,Westhoek,4325DN,4325HW,50,4,a,,4WE,,Renesse,Renesse,417873.33700384805,6751037.9393498115
1676200000506723,1676200000506723,Hoogenboomlaan,Kleine Horizon,4325DN,4325HX,44,115,,,0115,,Renesse,Renesse,418266.7294212772,6750945.799897887
1676200000501715,1676200000501715,Hoogenboomlaan,Molenhoeve,4325DD,4325HT,11,28,,,0028,,Renesse,Renesse,417666.7121718877,6750647.879330155
1676200000498901,1676200000498901,Hoogenboomlaan,Bongerd,4325DB,4325HV,7,49,a,,0049,,Renesse,Renesse,417901.3818903868,6750494.006628271
1676200000511439,1676200000511439,Hoogenboomlaan,Wildhoek,4325DN,4325HS,50,2,a,,2WI,,Renesse,Renesse,417735.94099038636,6751017.215269876
1676200000518515,1676200000518515,Hoogenboomlaan,Molenhoeve,4325DD,4325HT,11,34,,,0034,,Renesse,Renesse,417587.8905605938,6750719.60772304
1676200000507803,1676200000507803,Hoogenboomlaan,Kleine Horizon,4325DN,4325HX,44,113,,,0113,,Renesse,Renesse,418241.444001848,6750993.141962123
1676200000486855,1676200000486855,Hoogenboomlaan,Horizon,4325DN,4325HZ,44,58,,,0058,,Renesse,Renesse,418012.179377264,6751194.932715007
1676200000500731,1676200000500731,Hoogenboomlaan,Bongerd,4325DB,4325HV,7,45,a,,0045,,Renesse,Renesse,418001.45954917074,6750548.165672992
1676200000519879,1676200000519879,Hoogenboomlaan,Horizon,4325DN,4325HZ,44,31,,,0031,,Renesse,Renesse,417789.8621478224,6751219.610777926
1676200000502135,1676200000502135,Hoogenboomlaan,Bongerd,4325DB,4325HV,7,84,a,,0084,,Renesse,Renesse,417824.9807153708,6750698.424863067
1676200000486821,1676200000486821,Hoogenboomlaan,Horizon,4325DN,4325HZ,44,54,,,0054,,Renesse,Renesse,417993.19080814364,6751166.173816524
1676200000521081,1676200000521081,Hoogenboomlaan,Bongerd,4325DB,4325HV,7,81,a,,0081,,Renesse,Renesse,417896.42532379425,6750738.940783613
1676200000504001,1676200000504001,Hoogenboomlaan,'t Ongerepte,4325DE,4325HN,15,58,,,0058,,Renesse,Renesse,416964.7152254,6750821.113084874
1676200000477433,1676200000477433,Hoogenboomlaan,Horizon,4325DN,4325HZ,44,94,,,0094,,Renesse,Renesse,418118.78135390044,6751048.121174944
1676200000479195,1676200000479195,Hoogenboomlaan,Horizon,4325DN,4325HZ,44,68,,,0068,,Renesse,Renesse,418022.9796603845,6751086.040061189
1676200000502087,1676200000502087,Hoogenboomlaan,Molenhoeve,4325DD,4325HT,11,36,,,0036,,Renesse,Renesse,417588.7488755964,6750665.669726434
1676200000511445,1676200000511445,Hoogenboomlaan,De Sprong,4325DN,4325HR,50,36,a,,36SP,,Renesse,Renesse,417790.84880189266,6751043.054110755
1676200000502143,1676200000502143,Hoogenboomlaan,Molenhoeve,4325DD,4325HT,11,33,,,0033,,Renesse,Renesse,417604.68874974,6750695.165337022
1676200000498837,1676200000498837,Hoogenboomlaan,Bongerd,4325DB,4325HV,7,41,a,,0041,,Renesse,Renesse,417931.37085517764,6750475.131138459
1676200000505459,1676200000505459,Hoogenboomlaan,Bongerd,4325DB,4325HV,7,25,a,,0025,,Renesse,Renesse,418033.6816842949,6750609.688973143
1676200000501713,1676200000501713,Hoogenboomlaan,Bongerd,4325DB,4325HV,7,21,a,,0021,,Renesse,Renesse,418048.20649027795,6750654.748896239
1676200000505465,1676200000505465,Hoogenboomlaan,Bongerd,4325DB,4325HV,7,66,a,,0066,,Renesse,Renesse,417887.6785374909,6750612.826568496
1676200000508129,1676200000508129,Hoogenboomlaan,De Sprong,4325DN,4325HR,50,15,a,,15SP,,Renesse,Renesse,417522.4205992023,6751052.435329858
1676200000519617,1676200000519617,Hoogenboomlaan,Horizon,4325DN,4325HZ,44,1,,,0001,,Renesse,Renesse,417762.9648563443,6751329.310642453
1676200000478833,1676200000478833,Hoogenboomlaan,De Sprong,4325DN,4325HR,50,18,a,,18SP,,Renesse,Renesse,417549.2765247066,6751059.780015274
1676200000486823,1676200000486823,Hoogenboomlaan,Horizon,4325DN,4325HZ,44,59,,,0059,,Renesse,Renesse,418015.97620930494,6751169.147035624
1676200000510949,1676200000510949,Hoogenboomlaan,De Sprong,4325DN,4325HR,50,20,a,,20SP,,Renesse,Renesse,417572.79332201113,6751103.341467761
1676200000520039,1676200000520039,Hoogenboomlaan,Wildhoek,4325DN,4325HS,50,1,a,,1WI,,Renesse,Renesse,417749.4803009761,6750989.775495927
1676200000503571,1676200000503571,Hoogenboomlaan,'t Ongerepte,4325DE,4325HN,15,33,,,0033,,Renesse,Renesse,417060.1530452632,6750769.943295088
1676200000486849,1676200000486849,Hoogenboomlaan,Horizon,4325DN,4325HZ,44,53,,,0053,,Renesse,Renesse,417990.4759200327,6751192.578402325
1676200000512781,1676200000512781,Hoogenboomlaan,'t Ongerepte,4325DE,4325HN,15,34,,,0034,,Renesse,Renesse,417065.88134774065,6750737.436702589
1676200000506701,1676200000506701,Hoogenboomlaan,'t Ongerepte,4325DE,4325HN,15,4,,,0004,,Renesse,Renesse,417104.085534052,6750894.563742182
1676200000503949,1676200000503949,Hoogenboomlaan,'t Ongerepte,4325DE,4325HN,15,26,,,0026,,Renesse,Renesse,417114.84837582376,6750788.150462779
1676200000486921,1676200000486921,Hoogenboomlaan,Horizon,4325DN,4325HZ,44,43,,,0043,,Renesse,Renesse,417866.3421427783,6751233.948258955
1676200000508141,1676200000508141,Hoogenboomlaan,Westhoek,4325DN,4325HW,50,3,a,,3WE,,Renesse,Renesse,417879.4044213362,6751012.0292179985
1676200000513381,1676200000513381,De Haerde,De Haerde,4323LA,4323LT,7,7,,,,,Ellemeet,Ellemeet,424479.0572511033,6751452.366859445
1676200000506709,1676200000506709,Hoogenboomlaan,Kleine Horizon,4325DN,4325HX,44,107,,,0107,,Renesse,Renesse,418247.86631379573,6750926.918705866
1676200000503989,1676200000503989,Hoogenboomlaan,Bongerd,4325DB,4325HV,7,4,a,,0004,,Renesse,Renesse,417919.4444744654,6750828.817231684
1676200000511449,1676200000511449,Hoogenboomlaan,Horizon,4325DN,4325HZ,44,18,,,0018,,Renesse,Renesse,417971.68421230104,6751340.169423
1676200000508049,1676200000508049,Hoogenboomlaan,Horizon,4325DN,4325HZ,44,16,,,0016,,Renesse,Renesse,417918.67809466796,6751332.93230346
1676200000519093,1676200000519093,Hoogenboomlaan,'t Ongerepte,4325DE,4325HN,15,17,,,0017,,Renesse,Renesse,417058.963941735,6750796.804127565
1676200000503991,1676200000503991,Hoogenboomlaan,'t Ongerepte,4325DE,4325HN,15,21,,,0021,,Renesse,Renesse,417145.93688499834,6750819.5618409775
1676200000503969,1676200000503969,Hoogenboomlaan,'t Ongerepte,4325DE,4325HN,15,59,,,0059,,Renesse,Renesse,416967.00107219844,6750797.590701071
1676200000500743,1676200000500743,Hoogenboomlaan,Bongerd,4325DB,4325HV,7,61,a,,0061,,Renesse,Renesse,417865.27681655815,6750553.712832549
1676200000507811,1676200000507811,Hoogenboomlaan,Kleine Horizon,4325DN,4325HX,44,104,,,0104,,Renesse,Renesse,418212.4452725393,6750998.303815969
1676200000505693,1676200000505693,Kloosterweg,Torenweg,4328GH,4328JC,1,1,,c,,,Burgh-Haamstede,Burgh-Haamstede,413622.39396745944,6747324.766752071
1676200000507825,1676200000507825,Hoogenboomlaan,Horizon,4325DN,4325HZ,44,96,,,0096,,Renesse,Renesse,418144.9130358805,6751002.467192317
1676200000508051,1676200000508051,Hoogenboomlaan,Horizon,4325DN,4325HZ,44,17,,,0017,,Renesse,Renesse,417951.98892829835,6751336.49644268
1676200000503955,1676200000503955,Hoogenboomlaan,'t Ongerepte,4325DE,4325HN,15,22,,,0022,,Renesse,Renesse,417149.1445950352,6750791.710903983
1676200000511441,1676200000511441,Hoogenboomlaan,Wildhoek,4325DN,4325HS,50,25,a,,25WI,,Renesse,Renesse,417788.9408282516,6750948.811346654
1676200000506743,1676200000506743,Hoogenboomlaan,Wildhoek,4325DN,4325HS,50,12,a,,12WI,,Renesse,Renesse,417603.4005522716,6750947.651021901
1676200000508133,1676200000508133,Hoogenboomlaan,Wildhoek,4325DN,4325HS,50,8,a,,8WI,,Renesse,Renesse,417661.55785748764,6750963.4285637
1676200000506751,1676200000506751,Hoogenboomlaan,Kleine Horizon,4325DN,4325HX,44,114,,,0114,,Renesse,Renesse,418255.20695511013,6750968.740731782
1676200000498833,1676200000498833,Hoogenboomlaan,Bongerd,4325DB,4325HV,7,37,a,,0037,,Renesse,Renesse,418016.09973599395,6750476.200174818
1676200000511583,1676200000511583,Hoogenboomlaan,Wildhoek,4325DN,4325HS,50,14,a,,14WI,,Renesse,Renesse,417561.52198144916,6750968.992121018
1676200000510181,1676200000510181,Hoogenboomlaan,De Sprong,4325DN,4325HR,50,2,a,,2SP,,Renesse,Renesse,417684.8199457589,6751049.786572877
1676200000529239,1676200000529239,Hoogenboomlaan,De Sprong,4325DN,4325HR,50,35,a,,35SP,,Renesse,Renesse,417776.0448636203,6751068.678680411
1676200000532614,1676200000532614,Rampweg,Rampweg,4326LK,4326LK,20,20,,,0020,0008,Noordwelle,Noordwelle,423033.9905673441,6753089.81644131
1676200000502125,1676200000502125,Hoogenboomlaan,Bongerd,4325DB,4325HV,7,79,a,,0079,,Renesse,Renesse,417882.92940549605,6750689.990203688
1676200000519079,1676200000519079,Hoogenboomlaan,Bongerd,4325DB,4325HV,7,38,a,,0038,,Renesse,Renesse,417991.40863970306,6750461.1158686
1676200000499499,1676200000499499,Hoogenboomlaan,'t Ongerepte,4325DE,4325HN,15,24,,,0024,,Renesse,Renesse,417154.27193031664,6750738.681564855
1676200000506675,1676200000506675,Hoogenboomlaan,Bongerd,4325DB,4325HV,7,2,a,,0002,,Renesse,Renesse,417907.6962673944,6750853.886468004
1676200000511427,1676200000511427,Hoogenboomlaan,Wildhoek,4325DN,4325HS,50,6,a,,6WI,,Renesse,Renesse,417677.4330483522,6751001.312321831
1676200000505449,1676200000505449,Hoogenboomlaan,Bongerd,4325DB,4325HV,7,65,a,,0065,,Renesse,Renesse,417862.6896681321,6750598.797992315
1676200000508195,1676200000508195,Hoogenboomlaan,Horizon,4325DN,4325HZ,44,70,,,0070,,Renesse,Renesse,418045.1805966359,6751036.030713242
1676200000499867,1676200000499867,Hoogenboomlaan,Molenhoeve,4325DD,4325HT,11,24,,,0024,,Renesse,Renesse,417581.51795192115,6750759.452866745
1676200000507819,1676200000507819,Hoogenboomlaan,Horizon,4325DN,4325HZ,44,79,,,0079,,Renesse,Renesse,418088.6280330012,6751000.197114332
1676200000517087,1676200000517087,Hoogenboomlaan,Horizon,4325DN,4325HZ,44,46,,,0046,,Renesse,Renesse,417882.03655596677,6751157.68504284
1676200000499481,1676200000499481,Hoogenboomlaan,'t Ongerepte,4325DE,4325HN,15,40,,,0040,,Renesse,Renesse,417010.3948923901,6750724.258684873
1676200000508121,1676200000508121,Hoogenboomlaan,Horizon,4325DN,4325HZ,44,6,,,0006,,Renesse,Renesse,417882.76335721003,6751361.955912556
1676200000477459,1676200000477459,Hoogenboomlaan,Kleine Horizon,4325DN,4325HX,44,101,,,0101,,Renesse,Renesse,418176.4017805507,6751070.111659578
1676200000511821,1676200000511821,Hoogenboomlaan,Wildhoek,4325DN,4325HS,50,4,a,,4WI,,Renesse,Renesse,417720.23813049356,6750983.85291241
1676200000498029,1676200000498029,Hoogenboomlaan,Bongerd,4325DB,4325HV,7,76,a,,0076,,Renesse,Renesse,417815.2361847758,6750644.104509663
1676200000498887,1676200000498887,Hoogenboomlaan,Bongerd,4325DB,4325HV,7,36,a,,0036,,Renesse,Renesse,418040.6002525808,6750488.7145850025
1676200000499435,1676200000499435,Hoogenboomlaan,Molenhoeve,4325DD,4325HT,11,10,,,0010,,Renesse,Renesse,417725.3318034635,6750721.389655092
1676200000536368,1676200000536368,Hoogenboomlaan,'t Ongerepte,4325DE,4325HN,15,46,,,0046,,Renesse,Renesse,416953.28718390083,6750703.789409717
1676200000485227,1676200000485227,Kerkring,Weststraat,4306CK,4306CN,31,2,,,,,Nieuwerkerk,Nieuwerkerk,445258.70598380617,6737005.298071122
1676200000534225,1676200000534225,Scholderlaan,Scholderlaan,4325EN,4325EN,6,6,C,c,,,Renesse,Renesse,420459.8860080973,6753089.949302388
1676200000498893,1676200000498893,Hoogenboomlaan,Bongerd,4325DB,4325HV,7,42,a,,0042,,Renesse,Renesse,417956.68982716184,6750489.302429637
1676200000511417,1676200000511417,Hoogenboomlaan,Westhoek,4325DN,4325HW,50,8,a,,8WE,,Renesse,Renesse,417947.04023602116,6751008.505351954
