BAGNUMIDENTIFICATIE,B_NUMMERAANDUIDING,OPENBARERUIMTENAAM,B_OPENBARERUIMTE,POSTCODE,B_POSTCODE,HUISNUMMER,B_HUISNUMMER,HUISLETTER,B_HUISLETTER,HUISNUMMERTOEVOEGING,B_HUISNUMMERTOEVOEGING,WOONPLAATSNAAM,B_WOONPLAATSNAAM,x,y
1690200000006442,1690200000006442,Stofakkers,Stofakkers,7963AL,7963AM,55,55.0,,,gb11,gb11,Ruinen,Ruinen,707494.0458730735,6939544.782965189
1690200000006441,1690200000006441,Stofakkers,Stofakkers,7963AL,7963AM,55,55.0,,,gb13,gb13,Ruinen,Ruinen,707489.4864989968,6939544.120039549
1690200000008646,1690200000008646,Burg. d.l.S. Brietweg,Burgemeester De la Saussaye Brietweg,7957AK,7957AK,22,22.0,,,,,de Wijk,de Wijk,699593.9346786992,6922928.394518582
1690200000008647,1690200000008647,Burg. d.l.S. Brietweg,Burgemeester De la Saussaye Brietweg,7957AK,7957AK,24,24.0,,,,,de Wijk,de Wijk,699640.2067244557,6922923.493867558
1690200000008649,1690200000008649,Burg. d.l.S. Brietweg,Burgemeester De la Saussaye Brietweg,7957AK,7957AK,28,28.0,,,,,de Wijk,de Wijk,699668.8907170185,6922915.2991714915
1690200000008650,1690200000008650,Burg. d.l.S. Brietweg,Burgemeester De la Saussaye Brietweg,7957AK,7957AK,30,30.0,,,,,de Wijk,de Wijk,699686.5382668446,6922910.782762632
1690200000008651,1690200000008651,Burg. d.l.S. Brietweg,Burgemeester De la Saussaye Brietweg,7957AK,7957AK,32,32.0,,,,,de Wijk,de Wijk,699695.3601528364,6922908.372768203
1690200000008652,1690200000008652,Burg. d.l.S. Brietweg,Burgemeester De la Saussaye Brietweg,7957AK,7957AK,34,34.0,,,,,de Wijk,de Wijk,699714.4852992729,6922904.354343037
1690200000008653,1690200000008653,Burg. d.l.S. Brietweg,Burgemeester De la Saussaye Brietweg,7957AK,7957AK,36,36.0,,,,,de Wijk,de Wijk,699722.9444076073,6922901.891090428
1690200000008654,1690200000008654,Burg. d.l.S. Brietweg,Burgemeester De la Saussaye Brietweg,7957AK,7957AK,38,38.0,,,,,de Wijk,de Wijk,699745.8063415987,6922898.317726758
1690200000008655,1690200000008655,Burg. d.l.S. Brietweg,Burgemeester De la Saussaye Brietweg,7957AK,7957AK,40,40.0,,,,,de Wijk,de Wijk,699770.4849649135,6922891.794558685
1690200000008736,1690200000008736,Burg. Veenhovenplein,Burgemeester Veenhovenplein,7957BA,7957BA,2,2.0,,,,,de Wijk,de Wijk,699281.4016427842,6922625.33709292
1690200000011279,1690200000011279,Burg. Veenhovenplein,Burgemeester Veenhovenplein,7957BA,7957BA,1,1.0,,,,,de Wijk,de Wijk,699214.0063883904,6922613.021259155
1690200000008738,1690200000008738,Burg. Veenhovenplein,Burgemeester Veenhovenplein,7957BA,7957BA,3,3.0,,,,,de Wijk,de Wijk,699288.2454294341,6922669.888137312
1690200000006586,1690200000006586,de Vos van Steenwijkstr,De Vos van Steenwijkstraat,7957BG,7957BG,2,2.0,,,,,de Wijk,de Wijk,699821.5664786395,6922261.16768417
1690200000008950,1690200000008950,de Vos van Steenwijkstr,De Vos van Steenwijkstraat,7957BG,7957BG,4,4.0,,,,,de Wijk,de Wijk,699802.5206385835,6922266.940529952
1690200000008951,1690200000008951,de Vos van Steenwijkstr,De Vos van Steenwijkstraat,7957BG,7957BG,6,6.0,,,,,de Wijk,de Wijk,699777.1341133523,6922275.014764746
1690200000008952,1690200000008952,de Vos van Steenwijkstr,De Vos van Steenwijkstraat,7957BG,7957BG,8,8.0,,,,,de Wijk,de Wijk,699757.0933237954,6922274.086595071
1690200000008953,1690200000008953,de Vos van Steenwijkstr,De Vos van Steenwijkstraat,7957BG,7957BG,10,10.0,,,,,de Wijk,de Wijk,699776.088512165,6922311.321715583
1690200000007504,1690200000007504,de Vos van Steenwijkstr,De Vos van Steenwijkstraat,7957BG,7957BG,12,12.0,,,,,de Wijk,de Wijk,699774.1715179808,6922331.117766617
1690200000007505,1690200000007505,de Vos van Steenwijkstr,De Vos van Steenwijkstraat,7957BG,7957BG,14,14.0,,,,,de Wijk,de Wijk,699774.084023735,6922354.71054161
1690200000007506,1690200000007506,de Vos van Steenwijkstr,De Vos van Steenwijkstraat,7957BG,7957BG,16,16.0,,,,,de Wijk,de Wijk,699789.804549664,6922366.497663149
1690200000007507,1690200000007507,de Vos van Steenwijkstr,De Vos van Steenwijkstraat,7957BG,7957BG,18,18.0,,,,,de Wijk,de Wijk,699802.3954009219,6922396.106343903
1690200000007508,1690200000007508,de Vos van Steenwijkstr,De Vos van Steenwijkstraat,7957BG,7957BG,20,20.0,,,,,de Wijk,de Wijk,699780.56275833,6922404.524119301
1690200000007509,1690200000007509,de Vos van Steenwijkstr,De Vos van Steenwijkstraat,7957BG,7957BG,22,22.0,,,,,de Wijk,de Wijk,699762.775391391,6922414.658457097
1690200000007510,1690200000007510,de Vos van Steenwijkstr,De Vos van Steenwijkstraat,7957BG,7957BG,24,24.0,,,,,de Wijk,de Wijk,699729.3265145232,6922433.433796687
1690200000007511,1690200000007511,de Vos van Steenwijkstr,De Vos van Steenwijkstraat,7957BG,7957BG,26,26.0,,,,,de Wijk,de Wijk,699718.3832734958,6922416.29735766
1690200000007512,1690200000007512,de Vos van Steenwijkstr,De Vos van Steenwijkstraat,7957BG,7957BG,28,28.0,,,,,de Wijk,de Wijk,699706.5019064785,6922394.2443941105
1690200000007513,1690200000007513,de Vos van Steenwijkstr,De Vos van Steenwijkstraat,7957BG,7957BG,30,30.0,,,,,de Wijk,de Wijk,699707.857316955,6922373.475169067
1690200000007514,1690200000007514,de Vos van Steenwijkstr,De Vos van Steenwijkstraat,7957BH,7957BH,32,32.0,,,,,de Wijk,de Wijk,699709.9681521141,6922359.3439757805
1690200000007515,1690200000007515,de Vos van Steenwijkstr,De Vos van Steenwijkstraat,7957BH,7957BH,34,34.0,,,,,de Wijk,de Wijk,699719.9885191381,6922289.712992331
1690200000007516,1690200000007516,de Vos van Steenwijkstr,De Vos van Steenwijkstraat,7957BH,7957BH,36,36.0,,,,,de Wijk,de Wijk,699697.4053630558,6922284.835209634
1690200000007517,1690200000007517,de Vos van Steenwijkstr,De Vos van Steenwijkstraat,7957BH,7957BH,38,38.0,,,,,de Wijk,de Wijk,699686.820757934,6922294.752457167
1690200000007518,1690200000007518,de Vos van Steenwijkstr,De Vos van Steenwijkstraat,7957BH,7957BH,40,40.0,,,,,de Wijk,de Wijk,699668.3484779926,6922305.38664414
1690200000007519,1690200000007519,de Vos van Steenwijkstr,De Vos van Steenwijkstraat,7957BH,7957BH,42,42.0,,,,,de Wijk,de Wijk,699653.1115332964,6922331.274897218
1690200000007520,1690200000007520,de Vos van Steenwijkstr,De Vos van Steenwijkstraat,7957BH,7957BH,44,44.0,,,,,de Wijk,de Wijk,699642.1179821191,6922344.990315612
1690200000007521,1690200000007521,de Vos van Steenwijkstr,De Vos van Steenwijkstraat,7957BH,7957BH,46,46.0,,,,,de Wijk,de Wijk,699622.3034984617,6922360.882861462
1690200000007522,1690200000007522,de Vos van Steenwijkstr,De Vos van Steenwijkstraat,7957BH,7957BH,48,48.0,,,,,de Wijk,de Wijk,699611.1460085488,6922368.81086675
1690200000007523,1690200000007523,de Vos van Steenwijkstr,De Vos van Steenwijkstraat,7957BH,7957BH,50,50.0,,,,,de Wijk,de Wijk,699586.1144177865,6922371.564232486
1690200000007524,1690200000007524,de Vos van Steenwijkstr,De Vos van Steenwijkstraat,7957BH,7957BH,52,52.0,,,,,de Wijk,de Wijk,699665.7480330486,6922413.352965317
1690200000007525,1690200000007525,de Vos van Steenwijkstr,De Vos van Steenwijkstraat,7957BH,7957BH,54,54.0,,,,,de Wijk,de Wijk,699647.5316661606,6922407.871165049
1690200000007526,1690200000007526,de Vos van Steenwijkstr,De Vos van Steenwijkstraat,7957BH,7957BH,56,56.0,,,,,de Wijk,de Wijk,699632.1069620982,6922418.0929395035
1690200000007598,1690200000007598,de Vos van Steenwijkstr,De Vos van Steenwijkstraat,7957BH,7957BH,58,58.0,,,,,de Wijk,de Wijk,699572.8912475398,6922401.680910111
1690200000007600,1690200000007600,de Vos van Steenwijkstr,De Vos van Steenwijkstraat,7957BH,7957BH,62,62.0,,,,,de Wijk,de Wijk,699591.9434300561,6922435.722127298
1690200000007601,1690200000007601,de Vos van Steenwijkstr,De Vos van Steenwijkstraat,7957BJ,7957BJ,64,64.0,,,,,de Wijk,de Wijk,699458.3255772034,6922416.821143023
1690200000007602,1690200000007602,de Vos van Steenwijkstr,De Vos van Steenwijkstraat,7957BJ,7957BJ,66,66.0,,,,,de Wijk,de Wijk,699458.1378938976,6922427.729308493
1690200000007603,1690200000007603,de Vos van Steenwijkstr,De Vos van Steenwijkstraat,7957BJ,7957BJ,68,68.0,,,,,de Wijk,de Wijk,699458.4536595136,6922449.004174859
1690200000007604,1690200000007604,de Vos van Steenwijkstr,De Vos van Steenwijkstraat,7957BJ,7957BJ,70,70.0,,,,,de Wijk,de Wijk,699458.9278025036,6922459.130352167
1690200000007605,1690200000007605,de Vos van Steenwijkstr,De Vos van Steenwijkstraat,7957BJ,7957BJ,72,72.0,,,,,de Wijk,de Wijk,699432.3040961224,6922490.882073059
1690200000007606,1690200000007606,de Vos van Steenwijkstr,De Vos van Steenwijkstraat,7957BJ,7957BJ,74,74.0,,,,,de Wijk,de Wijk,699422.2341494043,6922490.956036749
1690200000007607,1690200000007607,de Vos van Steenwijkstr,De Vos van Steenwijkstraat,7957BJ,7957BJ,76,76.0,,,,,de Wijk,de Wijk,699401.6774660154,6922491.338441115
1690200000007608,1690200000007608,de Vos van Steenwijkstr,De Vos van Steenwijkstraat,7957BJ,7957BJ,78,78.0,,,,,de Wijk,de Wijk,699391.1840648472,6922491.640363853
1690200000007609,1690200000007609,de Vos van Steenwijkstr,De Vos van Steenwijkstraat,7957BJ,7957BJ,80,80.0,,,,,de Wijk,de Wijk,699370.3437643461,6922492.912213825
1690200000007610,1690200000007610,de Vos van Steenwijkstr,De Vos van Steenwijkstraat,7957BJ,7957BJ,82,82.0,,,,,de Wijk,de Wijk,699359.5921821707,6922493.631429405
1690200000007611,1690200000007611,de Vos van Steenwijkstr,De Vos van Steenwijkstraat,7957BJ,7957BJ,84,84.0,,,,,de Wijk,de Wijk,699339.1094173691,6922494.002856367
1690200000007612,1690200000007612,de Vos van Steenwijkstr,De Vos van Steenwijkstraat,7957BJ,7957BJ,86,86.0,,,,,de Wijk,de Wijk,699328.3926590786,6922494.343767756
1690200000007613,1690200000007613,de Vos van Steenwijkstr,De Vos van Steenwijkstraat,7957BJ,7957BJ,88,88.0,,,,,de Wijk,de Wijk,699300.8508613254,6922465.38645437
1690200000007614,1690200000007614,de Vos van Steenwijkstr,De Vos van Steenwijkstraat,7957BJ,7957BJ,90,90.0,,,,,de Wijk,de Wijk,699300.2846357004,6922453.7847389355
1690200000007615,1690200000007615,de Vos van Steenwijkstr,De Vos van Steenwijkstraat,7957BJ,7957BJ,92,92.0,,,,,de Wijk,de Wijk,699299.6556849128,6922433.5036841305
1690200000007616,1690200000007616,de Vos van Steenwijkstr,De Vos van Steenwijkstraat,7957BJ,7957BJ,94,94.0,,,,,de Wijk,de Wijk,699299.1919707009,6922423.006174505
1690200000007617,1690200000007617,de Vos van Steenwijkstr,De Vos van Steenwijkstraat,7957BE,7957BE,1,1.0,,,,,de Wijk,de Wijk,699775.3522241192,6922197.580918132
1690200000007618,1690200000007618,de Vos van Steenwijkstr,De Vos van Steenwijkstraat,7957BE,7957BE,3,3.0,,,,,de Wijk,de Wijk,699730.6835749815,6922209.472201638
1690200000007619,1690200000007619,de Vos van Steenwijkstr,De Vos van Steenwijkstraat,7957BE,7957BE,5,5.0,,,,,de Wijk,de Wijk,699742.3465883111,6922102.463064651
1690200000007620,1690200000007620,de Vos van Steenwijkstr,De Vos van Steenwijkstraat,7957BE,7957BE,7,7.0,,,,,de Wijk,de Wijk,699700.0419818736,6922103.488457057
1690200000008176,1690200000008176,de Vos van Steenwijkstr,De Vos van Steenwijkstraat,7957BE,7957BE,9,9.0,,,,,de Wijk,de Wijk,699656.0591636021,6922142.40492082
1690200000008177,1690200000008177,de Vos van Steenwijkstr,De Vos van Steenwijkstraat,7957BE,7957BE,11,11.0,,,,,de Wijk,de Wijk,699598.6932717231,6922142.843543294
1690200000008178,1690200000008178,de Vos van Steenwijkstr,De Vos van Steenwijkstraat,7957BE,7957BE,13,13.0,,,,,de Wijk,de Wijk,699548.6339722584,6922131.267468602
1690200000008179,1690200000008179,de Vos van Steenwijkstr,De Vos van Steenwijkstraat,7957BE,7957BE,15,15.0,,,,,de Wijk,de Wijk,699552.700026268,6922205.672861817
1690200000008180,1690200000008180,de Vos van Steenwijkstr,De Vos van Steenwijkstraat,7957BE,7957BE,17,17.0,,,,,de Wijk,de Wijk,699554.7766986385,6922244.471513362
1690200000008181,1690200000008181,de Vos van Steenwijkstr,De Vos van Steenwijkstraat,7957BE,7957BE,19,19.0,,,,,de Wijk,de Wijk,699659.2919062627,6922193.310310538
1690200000008182,1690200000008182,de Vos van Steenwijkstr,De Vos van Steenwijkstraat,7957BE,7957BE,21,21.0,,,,,de Wijk,de Wijk,699645.9107278141,6922244.766072956
1690200000008183,1690200000008183,de Vos van Steenwijkstr,De Vos van Steenwijkstraat,7957BE,7957BE,23,23.0,,,,,de Wijk,de Wijk,699600.5136061913,6922276.942641926
1690200000008184,1690200000008184,de Vos van Steenwijkstr,De Vos van Steenwijkstraat,7957BE,7957BE,25,25.0,,,,,de Wijk,de Wijk,699568.1138831602,6922311.983253554
1690200000008185,1690200000008185,de Vos van Steenwijkstr,De Vos van Steenwijkstraat,7957BE,7957BE,27,27.0,,,,,de Wijk,de Wijk,699480.541252369,6922336.754692621
1690200000008186,1690200000008186,de Vos van Steenwijkstr,De Vos van Steenwijkstraat,7957BE,7957BE,29,29.0,,,,,de Wijk,de Wijk,699419.5761347036,6922330.127436683
1690200000008188,1690200000008188,de Vos van Steenwijkstr,De Vos van Steenwijkstraat,7957BE,7957BE,35,35.0,,,,,de Wijk,de Wijk,699270.0633008815,6922341.194754537
1690200000008189,1690200000008189,de Vos van Steenwijkstr,De Vos van Steenwijkstraat,7957BE,7957BE,37,37.0,,,,,de Wijk,de Wijk,699216.6999411494,6922342.676516946
1690200000008023,1690200000008023,A.W.G. Goldsteinplnts,Secretaris A.W.G. Goldsteinplantsoen,7957AG,7957AG,2,2.0,,,,,de Wijk,de Wijk,699565.1344068131,6923008.43849525
1690200000008024,1690200000008024,A.W.G. Goldsteinplnts,Secretaris A.W.G. Goldsteinplantsoen,7957AG,7957AG,4,4.0,,,,,de Wijk,de Wijk,699585.068589098,6923040.090328448
1690200000008025,1690200000008025,A.W.G. Goldsteinplnts,Secretaris A.W.G. Goldsteinplantsoen,7957AG,7957AG,6,6.0,,,,,de Wijk,de Wijk,699673.089552882,6923030.1833755085
1690200000006590,1690200000006590,A.W.G. Goldsteinplnts,Secretaris A.W.G. Goldsteinplantsoen,7957AG,7957AG,8,8.0,,,,,de Wijk,de Wijk,699704.1891720433,6923114.315543822
1690200000008026,1690200000008026,A.W.G. Goldsteinplnts,Secretaris A.W.G. Goldsteinplantsoen,7957AG,7957AG,1,1.0,,,,,de Wijk,de Wijk,699559.716959612,6922999.211345951
1690200000008027,1690200000008027,A.W.G. Goldsteinplnts,Secretaris A.W.G. Goldsteinplantsoen,7957AG,7957AG,3,3.0,,,,,de Wijk,de Wijk,699580.1964816633,6923031.308476639
1690200000008028,1690200000008028,A.W.G. Goldsteinplnts,Secretaris A.W.G. Goldsteinplantsoen,7957AG,7957AG,5,5.0,,,,,de Wijk,de Wijk,699648.1958627414,6923045.957421479
1690200000008029,1690200000008029,A.W.G. Goldsteinplnts,Secretaris A.W.G. Goldsteinplantsoen,7957AG,7957AG,7,7.0,,,,,de Wijk,de Wijk,699702.5718036196,6923010.8062236635
1690200000008030,1690200000008030,A.W.G. Goldsteinplnts,Secretaris A.W.G. Goldsteinplantsoen,7957AG,7957AG,9,9.0,,,,,de Wijk,de Wijk,699732.442806033,6922999.296391071
1690200000008031,1690200000008031,Secr.D.J.M.C. Ottermanwg,Secretaris D.J.M.C. Ottermanweg,7957BN,7957BN,2,2.0,,,,,de Wijk,de Wijk,700033.9389399468,6922840.736855469
1690200000008080,1690200000008080,Secr.D.J.M.C. Ottermanwg,Secretaris D.J.M.C. Ottermanweg,7957BN,7957BN,4,4.0,,,,,de Wijk,de Wijk,700044.7335682522,6922839.872622651
1690200000008081,1690200000008081,Secr.D.J.M.C. Ottermanwg,Secretaris D.J.M.C. Ottermanweg,7957BN,7957BN,6,6.0,,,,,de Wijk,de Wijk,700054.862998694,6922839.120641133
1690200000008082,1690200000008082,Secr.D.J.M.C. Ottermanwg,Secretaris D.J.M.C. Ottermanweg,7957BN,7957BN,8,8.0,,,,,de Wijk,de Wijk,700065.6179796401,6922838.377324952
1690200000008083,1690200000008083,Secr.D.J.M.C. Ottermanwg,Secretaris D.J.M.C. Ottermanweg,7957BN,7957BN,10,10.0,,,,,de Wijk,de Wijk,700196.5182724966,6922836.899545172
1690200000008084,1690200000008084,Secr.D.J.M.C. Ottermanwg,Secretaris D.J.M.C. Ottermanweg,7957BN,7957BN,12,12.0,,,,,de Wijk,de Wijk,700206.9610180187,6922835.932251057
1690200000008085,1690200000008085,Secr.D.J.M.C. Ottermanwg,Secretaris D.J.M.C. Ottermanweg,7957BN,7957BN,14,14.0,,,,,de Wijk,de Wijk,700217.0170939968,6922835.106734339
1690200000008086,1690200000008086,Secr.D.J.M.C. Ottermanwg,Secretaris D.J.M.C. Ottermanweg,7957BN,7957BN,16,16.0,,,,,de Wijk,de Wijk,700226.0854064808,6922834.527873537
1690200000008087,1690200000008087,Secr.D.J.M.C. Ottermanwg,Secretaris D.J.M.C. Ottermanweg,7957BN,7957BN,18,18.0,,,,,de Wijk,de Wijk,700246.4324858153,6922832.842487382
1690200000008088,1690200000008088,Secr.D.J.M.C. Ottermanwg,Secretaris D.J.M.C. Ottermanweg,7957BN,7957BN,20,20.0,,,,,de Wijk,de Wijk,700257.0124050825,6922831.9212597925
1690200000008089,1690200000008089,Secr.D.J.M.C. Ottermanwg,Secretaris D.J.M.C. Ottermanweg,7957BN,7957BN,22,22.0,,,,,de Wijk,de Wijk,700267.2386306415,6922831.146348371
1690200000008090,1690200000008090,Secr.D.J.M.C. Ottermanwg,Secretaris D.J.M.C. Ottermanweg,7957BN,7957BN,24,24.0,,,,,de Wijk,de Wijk,700277.3842174301,6922830.372434415
1690200000008091,1690200000008091,Secr.D.J.M.C. Ottermanwg,Secretaris D.J.M.C. Ottermanweg,7957BN,7957BN,26,26.0,,,,,de Wijk,de Wijk,700287.0995064616,6922829.67319926
1690200000008092,1690200000008092,Secr.D.J.M.C. Ottermanwg,Secretaris D.J.M.C. Ottermanweg,7957BN,7957BN,28,28.0,,,,,de Wijk,de Wijk,700296.7098428499,6922829.136966101
1690200000008093,1690200000008093,Secr.D.J.M.C. Ottermanwg,Secretaris D.J.M.C. Ottermanweg,7957BM,7957BM,1,1.0,,,,,de Wijk,de Wijk,700019.0073731375,6922903.741967991
1690200000008094,1690200000008094,Secr.D.J.M.C. Ottermanwg,Secretaris D.J.M.C. Ottermanweg,7957BM,7957BM,3,3.0,,,,,de Wijk,de Wijk,700030.3693489187,6922902.8310577925
1690200000008095,1690200000008095,Secr.D.J.M.C. Ottermanwg,Secretaris D.J.M.C. Ottermanweg,7957BM,7957BM,5,5.0,,,,,de Wijk,de Wijk,700040.1672115828,6922902.277933862
1690200000008096,1690200000008096,Secr.D.J.M.C. Ottermanwg,Secretaris D.J.M.C. Ottermanweg,7957BM,7957BM,7,7.0,,,,,de Wijk,de Wijk,700050.6288985251,6922901.501999155
1690200000008097,1690200000008097,Secr.D.J.M.C. Ottermanwg,Secretaris D.J.M.C. Ottermanweg,7957BM,7957BM,9,9.0,,,,,de Wijk,de Wijk,700061.0283838698,6922900.489228969
1690200000008098,1690200000008098,Secr.D.J.M.C. Ottermanwg,Secretaris D.J.M.C. Ottermanweg,7957BM,7957BM,11,11.0,,,,,de Wijk,de Wijk,700070.7095294847,6922899.683427629
1690200000008099,1690200000008099,Secr.D.J.M.C. Ottermanwg,Secretaris D.J.M.C. Ottermanweg,7957BM,7957BM,13,13.0,,,,,de Wijk,de Wijk,700199.5822124163,6922887.834323423
1690200000008100,1690200000008100,Secr.D.J.M.C. Ottermanwg,Secretaris D.J.M.C. Ottermanweg,7957BM,7957BM,15,15.0,,,,,de Wijk,de Wijk,700209.9989407638,6922886.755145952
1690200000008101,1690200000008101,Secr.D.J.M.C. Ottermanwg,Secretaris D.J.M.C. Ottermanweg,7957BM,7957BM,17,17.0,,,,,de Wijk,de Wijk,700220.6994783365,6922885.997449868
1690200000008102,1690200000008102,Secr.D.J.M.C. Ottermanwg,Secretaris D.J.M.C. Ottermanweg,7957BM,7957BM,19,19.0,,,,,de Wijk,de Wijk,700230.620116029,6922885.129057811
1690200000007960,1690200000007960,Secr.D.J.M.C. Ottermanwg,Secretaris D.J.M.C. Ottermanweg,7957BM,7957BM,21,21.0,,,,,de Wijk,de Wijk,700240.4595371097,6922884.4794701375
1690200000007961,1690200000007961,Secr.D.J.M.C. Ottermanwg,Secretaris D.J.M.C. Ottermanweg,7957BM,7957BM,23,23.0,,,,,de Wijk,de Wijk,700250.7015477438,6922883.512978294
1690200000007962,1690200000007962,Secr.D.J.M.C. Ottermanwg,Secretaris D.J.M.C. Ottermanweg,7957BM,7957BM,25,25.0,,,,,de Wijk,de Wijk,700269.5979735778,6922881.901796231
1690200000007963,1690200000007963,Secr.D.J.M.C. Ottermanwg,Secretaris D.J.M.C. Ottermanweg,7957BM,7957BM,27,27.0,,,,,de Wijk,de Wijk,700280.5528971506,6922880.8223846005
1690200000007964,1690200000007964,Secr.D.J.M.C. Ottermanwg,Secretaris D.J.M.C. Ottermanweg,7957BM,7957BM,29,29.0,,,,,de Wijk,de Wijk,700291.128864701,6922880.635403864
1690200000007965,1690200000007965,Secr.D.J.M.C. Ottermanwg,Secretaris D.J.M.C. Ottermanweg,7957BM,7957BM,31,31.0,,,,,de Wijk,de Wijk,700301.4222290141,6922879.564254509
1690200000006904,1690200000006904,Burg. Veenhovenplein,Burgemeester Veenhovenplein,7957BA,7957BA,2,2.0,a,a,,,de Wijk,de Wijk,699283.3278137755,6922651.642983095
1690200000001818,1690200000001818,Alb van Daatselaarstraat,Albertus van Daatselaarstraat,7926AB,7926AB,9,9.0,,,,,Kerkenveld,Kerkenveld,723740.6731631204,6921986.493658739
1690200000001835,1690200000001835,Alb van Daatselaarstraat,Albertus van Daatselaarstraat,7926AC,7926AC,14,14.0,,,,,Kerkenveld,Kerkenveld,724076.5077200086,6922754.310850268
1690200000001938,1690200000001938,Alb van Daatselaarstraat,Albertus van Daatselaarstraat,7926AB,7926AB,1,1.0,,,,,Kerkenveld,Kerkenveld,723730.9037255674,6921897.645108505
1690200000002065,1690200000002065,Alb van Daatselaarstraat,Albertus van Daatselaarstraat,7926AB,7926AB,4,4.0,,,,,Kerkenveld,Kerkenveld,723797.5112135222,6921982.495262672
1690200000006593,1690200000006593,Burg Tonckensstraat,Burgemeester Tonckensstraat,7921KC,7921KC,4,4.0,,,,,Zuidwolde,Zuidwolde,715607.4368072936,6922174.994019633
1690200000002018,1690200000002018,Burg Tonckensstraat,Burgemeester Tonckensstraat,7921KC,7921KC,12,12.0,,,,,Zuidwolde,Zuidwolde,715434.1699596929,6922112.116190633
1690200000002020,1690200000002020,Burg Tonckensstraat,Burgemeester Tonckensstraat,7921KC,7921KC,14,14.0,,,,,Zuidwolde,Zuidwolde,715401.3379788315,6922097.991490055
1690200000002021,1690200000002021,Burg Tonckensstraat,Burgemeester Tonckensstraat,7921KC,7921KC,16,16.0,,,,,Zuidwolde,Zuidwolde,715378.834580607,6922086.129937335
1690200000002025,1690200000002025,Burg Tonckensstraat,Burgemeester Tonckensstraat,7921KA,7921KA,29,29.0,,,,,Zuidwolde,Zuidwolde,715085.3177156779,6921891.692144999
1690200000002026,1690200000002026,Burg Tonckensstraat,Burgemeester Tonckensstraat,7921KA,7921KA,31,31.0,,,,,Zuidwolde,Zuidwolde,715038.8578581021,6921891.07793846
1690200000002027,1690200000002027,Burg Tonckensstraat,Burgemeester Tonckensstraat,7921KC,7921KC,32,32.0,,,,,Zuidwolde,Zuidwolde,715043.5519935108,6921945.093451055
1690200000002028,1690200000002028,Burg Tonckensstraat,Burgemeester Tonckensstraat,7921KD,7921KD,34,34.0,,,,,Zuidwolde,Zuidwolde,714969.2735016571,6921931.567690338
1690200000002030,1690200000002030,Burg Tonckensstraat,Burgemeester Tonckensstraat,7921KD,7921KD,40,40.0,,,,,Zuidwolde,Zuidwolde,714834.078221767,6921830.427295176
1690200000002032,1690200000002032,Burg Tonckensstraat,Burgemeester Tonckensstraat,7921KB,7921KB,43,43.0,,,,,Zuidwolde,Zuidwolde,714867.5412685386,6921770.399298823
1690200000002035,1690200000002035,Burg Tonckensstraat,Burgemeester Tonckensstraat,7921KB,7921KB,51,51.0,,,,,Zuidwolde,Zuidwolde,714033.4362038616,6921571.255848679
1690200000002036,1690200000002036,Burg Tonckensstraat,Burgemeester Tonckensstraat,7921KB,7921KB,55,55.0,,,,,Zuidwolde,Zuidwolde,713019.7928668157,6921513.116513385
1690200000010950,1690200000010950,Burg Tonckensstraat,Burgemeester Tonckensstraat,7921KB,7921KB,59,59.0,,,ts,ts,Zuidwolde,Zuidwolde,712688.7219295551,6921561.272341969
1690200000002037,1690200000002037,Burg Tonckensstraat,Burgemeester Tonckensstraat,7921KB,7921KB,61,61.0,,,,,Zuidwolde,Zuidwolde,712029.7849885863,6921499.386771604
1690200000002039,1690200000002039,Burg Tonckensstraat,Burgemeester Tonckensstraat,7921KE,7921KE,62,62.0,,,,,Zuidwolde,Zuidwolde,712976.8883463262,6921742.083960674
1690200000002329,1690200000002329,Mevr Jans-Dijkstralaan,Mevrouw Jans-Dijkstralaan,7921KH,7921KH,8,8.0,,,,,Zuidwolde,Zuidwolde,715204.1829658564,6922114.552794902
1690200000002295,1690200000002295,Burg Tonckensstraat,Burgemeester Tonckensstraat,7921KB,7921KB,57,57.0,,,,,Zuidwolde,Zuidwolde,712830.7338663534,6921560.48471928
1690200000002309,1690200000002309,Burg Tonckensstraat,Burgemeester Tonckensstraat,7921KA,7921KA,27,27.0,,,,,Zuidwolde,Zuidwolde,715093.4949016125,6921891.5416011475
1690200000011985,1690200000011985,Burg Tonckensstraat,Burgemeester Tonckensstraat,7921KD,7921KD,46,46.0,b,b,,,Zuidwolde,Zuidwolde,714700.4639438546,6921857.614444182
1690200000002250,1690200000002250,Burg Tonckensstraat,Burgemeester Tonckensstraat,7921KD,7921KD,60,60.0,,,,,Zuidwolde,Zuidwolde,713059.637848818,6921632.820855656
1690200000002462,1690200000002462,Burg Tonckensstraat,Burgemeester Tonckensstraat,7921KD,7921KD,54,54.0,,,,,Zuidwolde,Zuidwolde,714151.5807990836,6921686.202388487
1690200000002474,1690200000002474,Burg Tonckensstraat,Burgemeester Tonckensstraat,7921KA,7921KA,21,21.0,,,,,Zuidwolde,Zuidwolde,715175.3697138117,6921915.509150813
1690200000002492,1690200000002492,Alb van Daatselaarstraat,Albertus van Daatselaarstraat,7926AB,7926AB,15,15.0,,,,,Kerkenveld,Kerkenveld,723758.7502341173,6922453.723588535
1690200000002493,1690200000002493,Burg Tonckensstraat,Burgemeester Tonckensstraat,7921KD,7921KD,48,48.0,,,,,Zuidwolde,Zuidwolde,714622.2688897264,6921660.793764151
1690200000002513,1690200000002513,Burg Tonckensstraat,Burgemeester Tonckensstraat,7921KD,7921KD,56,56.0,,,,,Zuidwolde,Zuidwolde,713689.5270990838,6921665.87091898
1690200000002378,1690200000002378,Burg Tonckensstraat,Burgemeester Tonckensstraat,7921KD,7921KD,38,38.0,,,,,Zuidwolde,Zuidwolde,714835.66570522,6921838.2229704615
1690200000002690,1690200000002690,Burg Tonckensstraat,Burgemeester Tonckensstraat,7921KE,7921KE,70,70.0,,,,,Zuidwolde,Zuidwolde,711309.1534329185,6921739.728605275
1690200000002556,1690200000002556,Burg Tonckensstraat,Burgemeester Tonckensstraat,7921KA,7921KA,11,11.0,,,,,Zuidwolde,Zuidwolde,715470.9004177898,6922056.939819606
1690200000002622,1690200000002622,Burg Tonckensstraat,Burgemeester Tonckensstraat,7921KC,7921KC,8,8.0,,,,,Zuidwolde,Zuidwolde,715470.0814247967,6922127.394174676
1690200000002624,1690200000002624,Alb van Daatselaarstraat,Albertus van Daatselaarstraat,7926AC,7926AC,12,12.0,,,,,Kerkenveld,Kerkenveld,724062.5668678267,6922630.590142776
1690200000002643,1690200000002643,Mevr Jans-Dijkstralaan,Mevrouw Jans-Dijkstralaan,7921KH,7921KH,10,10.0,,,,,Zuidwolde,Zuidwolde,715160.2982103854,6922114.565452875
1690200000002651,1690200000002651,Burg Tonckensstraat,Burgemeester Tonckensstraat,7921KD,7921KD,50,50.0,,,,,Zuidwolde,Zuidwolde,714237.5899968134,6921649.231600447
1690200000002652,1690200000002652,Burg Tonckensstraat,Burgemeester Tonckensstraat,7921KB,7921KB,53,53.0,,,,,Zuidwolde,Zuidwolde,713726.6347591727,6921383.579204981
1690200000002665,1690200000002665,Mevr Jans-Dijkstralaan,Mevrouw Jans-Dijkstralaan,7921KH,7921KH,12,12.0,,,,,Zuidwolde,Zuidwolde,715121.1521107161,6922116.103506012
1690200000002666,1690200000002666,Burg Tonckensstraat,Burgemeester Tonckensstraat,7921KB,7921KB,41,41.0,,,,,Zuidwolde,Zuidwolde,714889.3841276718,6921795.126525748
1690200000002619,1690200000002619,Burg Tonckensstraat,Burgemeester Tonckensstraat,7921KB,7921KB,45,45.0,,,,,Zuidwolde,Zuidwolde,714842.6638386266,6921730.451766152
1690200000002621,1690200000002621,Burg Tonckensstraat,Burgemeester Tonckensstraat,7921KB,7921KB,59,59.0,,,,,Zuidwolde,Zuidwolde,712529.8679262486,6921501.44508903
1690200000002766,1690200000002766,Burg Tonckensstraat,Burgemeester Tonckensstraat,7921KE,7921KE,68,68.0,,,,,Zuidwolde,Zuidwolde,712454.63833092,6921649.089189766
1690200000002772,1690200000002772,Alb van Daatselaarstraat,Albertus van Daatselaarstraat,7926AC,7926AC,19,19.0,,,,,Kerkenveld,Kerkenveld,723602.3697588171,6922716.304662885
1690200000002787,1690200000002787,Alb van Daatselaarstraat,Albertus van Daatselaarstraat,7926AB,7926AB,11,11.0,,,,,Kerkenveld,Kerkenveld,723734.1177679164,6922072.856647233
1690200000002797,1690200000002797,Burg Tonckensstraat,Burgemeester Tonckensstraat,7921KE,7921KE,64,64.0,,,,,Zuidwolde,Zuidwolde,712790.3286240248,6921647.417252789
1690200000002832,1690200000002832,Alb van Daatselaarstraat,Albertus van Daatselaarstraat,7926AB,7926AB,13,13.0,,,,,Kerkenveld,Kerkenveld,723732.8669394079,6922103.6825302495
1690200000002845,1690200000002845,Burg Tonckensstraat,Burgemeester Tonckensstraat,7921KC,7921KC,10,10.0,,,,,Zuidwolde,Zuidwolde,715450.5871956246,6922120.4092841055
1690200000002854,1690200000002854,Mevr Jans-Dijkstralaan,Mevrouw Jans-Dijkstralaan,7921KH,7921KH,18,18.0,,,,,Zuidwolde,Zuidwolde,715048.7696120492,6922112.714084396
1690200000002856,1690200000002856,Mevr Jans-Dijkstralaan,Mevrouw Jans-Dijkstralaan,7921KH,7921KH,24,24.0,,,,,Zuidwolde,Zuidwolde,714975.1558012109,6922112.641426332
1690200000002857,1690200000002857,Burg Tonckensstraat,Burgemeester Tonckensstraat,7921KA,7921KA,9,9.0,,,,,Zuidwolde,Zuidwolde,715478.8431024394,6922060.276759794
1690200000002877,1690200000002877,Mevr Jans-Dijkstralaan,Mevrouw Jans-Dijkstralaan,7921KG,7921KG,29,29.0,,,,,Zuidwolde,Zuidwolde,715005.3784436553,6922051.805977271
1690200000002713,1690200000002713,Burg Tonckensstraat,Burgemeester Tonckensstraat,7921KA,7921KA,35,35.0,,,,,Zuidwolde,Zuidwolde,714961.8435225829,6921855.243109063
1690200000002714,1690200000002714,Burg Tonckensstraat,Burgemeester Tonckensstraat,7921KA,7921KA,39,39.0,,,,,Zuidwolde,Zuidwolde,714913.6236612418,6921817.804957437
1690200000002715,1690200000002715,Burg Tonckensstraat,Burgemeester Tonckensstraat,7921KA,7921KA,37,37.0,,,,,Zuidwolde,Zuidwolde,714938.8213073305,6921835.8864536015
1690200000002716,1690200000002716,Burg Tonckensstraat,Burgemeester Tonckensstraat,7921KA,7921KA,33,33.0,,,,,Zuidwolde,Zuidwolde,714984.0118378504,6921875.184496213
1690200000002717,1690200000002717,Mevr Jans-Dijkstralaan,Mevrouw Jans-Dijkstralaan,7921KH,7921KH,2,2.0,,,,,Zuidwolde,Zuidwolde,715327.4601896423,6922104.066663895
1690200000002735,1690200000002735,Burg Tonckensstraat,Burgemeester Tonckensstraat,7921KC,7921KC,30,30.0,,,,,Zuidwolde,Zuidwolde,715080.5874973306,6921958.173964181
1690200000002736,1690200000002736,Burg Tonckensstraat,Burgemeester Tonckensstraat,7921KC,7921KC,28,28.0,,,,,Zuidwolde,Zuidwolde,715106.8800490359,6921962.887384017
1690200000002738,1690200000002738,Burg Tonckensstraat,Burgemeester Tonckensstraat,7921KC,7921KC,26,26.0,,,,,Zuidwolde,Zuidwolde,715143.3359363265,6921973.633201181
1690200000002739,1690200000002739,Burg Tonckensstraat,Burgemeester Tonckensstraat,7921KC,7921KC,22,22.0,,,,,Zuidwolde,Zuidwolde,715274.1226648559,6922032.7838698365
1690200000002745,1690200000002745,Burg Tonckensstraat,Burgemeester Tonckensstraat,7921KA,7921KA,25,25.0,,,,,Zuidwolde,Zuidwolde,715112.7402216878,6921904.885851197
1690200000002762,1690200000002762,Burg Tonckensstraat,Burgemeester Tonckensstraat,7921KC,7921KC,20,20.0,,,,,Zuidwolde,Zuidwolde,715297.1706497514,6922043.047334452
1690200000002763,1690200000002763,Mevr Jans-Dijkstralaan,Mevrouw Jans-Dijkstralaan,7921KG,7921KG,1,1.0,,,,,Zuidwolde,Zuidwolde,715243.7869992874,6922060.533908101
1690200000002764,1690200000002764,Mevr Jans-Dijkstralaan,Mevrouw Jans-Dijkstralaan,7921KG,7921KG,3,3.0,,,,,Zuidwolde,Zuidwolde,715236.0143204723,6922060.556694906
1690200000002765,1690200000002765,Mevr Jans-Dijkstralaan,Mevrouw Jans-Dijkstralaan,7921KG,7921KG,5,5.0,,,,,Zuidwolde,Zuidwolde,715212.086652246,6922060.001888282
1690200000005064,1690200000005064,Mevr Jans-Dijkstralaan,Mevrouw Jans-Dijkstralaan,7921KG,7921KG,9,9.0,,,,,Zuidwolde,Zuidwolde,715178.4047518265,6922059.811723247
1690200000005065,1690200000005065,Mevr Jans-Dijkstralaan,Mevrouw Jans-Dijkstralaan,7921KG,7921KG,11,11.0,,,,,Zuidwolde,Zuidwolde,715169.8996350268,6922059.369824623
1690200000005069,1690200000005069,Mevr Jans-Dijkstralaan,Mevrouw Jans-Dijkstralaan,7921KG,7921KG,19,19.0,,,,,Zuidwolde,Zuidwolde,715103.9728582436,6922055.32545978
1690200000005174,1690200000005174,Mevr Jans-Dijkstralaan,Mevrouw Jans-Dijkstralaan,7921KG,7921KG,23,23.0,,,,,Zuidwolde,Zuidwolde,715071.6362733074,6922054.838329942
1690200000005175,1690200000005175,Mevr Jans-Dijkstralaan,Mevrouw Jans-Dijkstralaan,7921KG,7921KG,21,21.0,,,,,Zuidwolde,Zuidwolde,715079.3130762476,6922055.016712734
1690200000005360,1690200000005360,Burg Tonckensstraat,Burgemeester Tonckensstraat,7921KE,7921KE,72,72.0,,,,,Zuidwolde,Zuidwolde,710937.3002249304,6922298.764400206
1690200000005371,1690200000005371,Mevr Jans-Dijkstralaan,Mevrouw Jans-Dijkstralaan,7921KH,7921KH,22,22.0,,,,,Zuidwolde,Zuidwolde,714999.4513460135,6922111.520345773
1690200000005372,1690200000005372,Mevr Jans-Dijkstralaan,Mevrouw Jans-Dijkstralaan,7921KH,7921KH,20,20.0,,,,,Zuidwolde,Zuidwolde,715024.5333583184,6922109.808789771
1690200000005382,1690200000005382,Burg Tonckensstraat,Burgemeester Tonckensstraat,7921KA,7921KA,17,17.0,,,,,Zuidwolde,Zuidwolde,715341.498888066,6922003.277735228
1690200000005269,1690200000005269,Burg Tonckensstraat,Burgemeester Tonckensstraat,7921KA,7921KA,13,13.0,,,,,Zuidwolde,Zuidwolde,715428.1196663161,6922039.701999164
1690200000005273,1690200000005273,Burg Tonckensstraat,Burgemeester Tonckensstraat,7921KC,7921KC,6,6.0,,,,,Zuidwolde,Zuidwolde,715496.7975617812,6922139.5478356695
1690200000005278,1690200000005278,Mevr Jans-Dijkstralaan,Mevrouw Jans-Dijkstralaan,7921KH,7921KH,14,14.0,,,,,Zuidwolde,Zuidwolde,715090.3377066571,6922109.63854065
1690200000005279,1690200000005279,Mevr Jans-Dijkstralaan,Mevrouw Jans-Dijkstralaan,7921KH,7921KH,16,16.0,,,,,Zuidwolde,Zuidwolde,715078.5678136571,6922109.8077274775
1690200000005282,1690200000005282,Alb van Daatselaarstraat,Albertus van Daatselaarstraat,7926AB,7926AB,2,2.0,,,,,Kerkenveld,Kerkenveld,723793.6380811804,6921887.880218681
1690200000005566,1690200000005566,Mevr Jans-Dijkstralaan,Mevrouw Jans-Dijkstralaan,7921KG,7921KG,25,25.0,,,,,Zuidwolde,Zuidwolde,715050.1767104119,6922057.004474073
1690200000005773,1690200000005773,Alb van Daatselaarstraat,Albertus van Daatselaarstraat,7926AB,7926AB,7,7.0,,,,,Kerkenveld,Kerkenveld,723727.2508535561,6921929.1624292275
1690200000005655,1690200000005655,Alb van Daatselaarstraat,Albertus van Daatselaarstraat,7926AB,7926AB,17,17.0,,,,,Kerkenveld,Kerkenveld,723773.9963206999,6922453.210747367
1690200000004408,1690200000004408,Burg Tonckensstraat,Burgemeester Tonckensstraat,7921KA,7921KA,7,7.0,,,,,Zuidwolde,Zuidwolde,715519.708120076,6922078.642454422
1690200000005108,1690200000005108,Alb van Daatselaarstraat,Albertus van Daatselaarstraat,7926AB,7926AB,9,9.0,a,a,,,Kerkenveld,Kerkenveld,723732.982989234,6922039.62098637
1690200000005406,1690200000005406,Mevr Jans-Dijkstralaan,Mevrouw Jans-Dijkstralaan,7921KH,7921KH,26,26.0,,,,,Zuidwolde,Zuidwolde,714941.4246808542,6922093.467636187
1690200000005490,1690200000005490,Burg Tonckensstraat,Burgemeester Tonckensstraat,7921KA,7921KA,29,29.0,a,a,,,Zuidwolde,Zuidwolde,715063.922943201,6921895.1359672425
1690200000005492,1690200000005492,Burg Tonckensstraat,Burgemeester Tonckensstraat,7921KB,7921KB,45,45.0,a,a,,,Zuidwolde,Zuidwolde,714808.5535783475,6921709.485514933
1690200000005138,1690200000005138,Alb van Daatselaarstraat,Albertus van Daatselaarstraat,7926AB,7926AB,2,2.0,a,a,,,Kerkenveld,Kerkenveld,723795.3296981765,6921954.730572063
1690200000004712,1690200000004712,Burg Tonckensstraat,Burgemeester Tonckensstraat,7921KD,7921KD,34,34.0,a,a,,,Zuidwolde,Zuidwolde,714877.4121972482,6921926.232543962
1690200000010350,1690200000010350,Burg Tonckensstraat,Burgemeester Tonckensstraat,7921KB,7921KB,49,49.0,,,,,Zuidwolde,Zuidwolde,714557.606491334,6921584.407947622
1690200000003947,1690200000003947,Burg Tonckensstraat,Burgemeester Tonckensstraat,7921KA,7921KA,31,31.0,a,a,,,Zuidwolde,Zuidwolde,715013.3136998735,6921884.819256844
1690200000004158,1690200000004158,Burg Tonckensstraat,Burgemeester Tonckensstraat,7921KD,7921KD,36,36.0,,,,,Zuidwolde,Zuidwolde,714887.3941065263,6921880.737320607
1690200000002034,1690200000002034,Burg Tonckensstraat,Burgemeester Tonckensstraat,7921KB,7921KB,47,47.0,,,,,Zuidwolde,Zuidwolde,714657.8083753231,6921569.843160356
1690200000008648,1690200000008648,Burg. d.l.S. Brietweg,Burgemeester De la Saussaye Brietweg,7957AK,7957AK,26,26.0,,,,,de Wijk,de Wijk,699659.9450223042,6922917.415330552
1690200000002041,1690200000002041,Burg Tonckensstraat,Burgemeester Tonckensstraat,7921KE,7921KE,66,66.0,,,,,Zuidwolde,Zuidwolde,712734.975105561,6921796.401773012
1690200000010539,1690200000010539,Burg Tonckensstraat,Burgemeester Tonckensstraat,7921KB,7921KB,53,53.0,a,a,,,Zuidwolde,Zuidwolde,713489.6773204131,6921562.029511726
1690200000010308,1690200000010308,Burgemeester Jansstraat,Burgemeester Jansstraat,7925PW,7925PV,24,24.0,,,ts,ts,Linde,Linde,720607.2249690272,6918438.934011111
1690200000010951,1690200000010951,Burg Tonckensstraat,Burgemeester Tonckensstraat,7921KD,7921KD,56,56.0,,,ts,ts,Zuidwolde,Zuidwolde,713734.9922755909,6921652.804033687
1690200000003825,1690200000003825,Burgemeester Brouwerstr,Burgemeester Brouwerstraat,7961CH,7961CH,4,4.0,,,,,Ruinerwold,Ruinerwold,695414.3344584985,6932213.887792808
1690200000003827,1690200000003827,Burgemeester Brouwerstr,Burgemeester Brouwerstraat,7961CH,7961CH,8,8.0,,,,,Ruinerwold,Ruinerwold,695438.3251390124,6932218.344150497
1690200000003828,1690200000003828,Burgemeester Brouwerstr,Burgemeester Brouwerstraat,7961CH,7961CH,10,10.0,,,,,Ruinerwold,Ruinerwold,695480.0915737957,6932222.031589123
1690200000003829,1690200000003829,Burgemeester Brouwerstr,Burgemeester Brouwerstraat,7961CH,7961CH,12,12.0,,,,,Ruinerwold,Ruinerwold,695491.4864671744,6932224.550147849
1690200000003831,1690200000003831,Burgemeester Brouwerstr,Burgemeester Brouwerstraat,7961CH,7961CH,16,16.0,,,,,Ruinerwold,Ruinerwold,695512.9120146693,6932229.043519016
1690200000003832,1690200000003832,Burgemeester Brouwerstr,Burgemeester Brouwerstraat,7961CH,7961CH,18,18.0,,,,,Ruinerwold,Ruinerwold,695532.4792623096,6932234.958181079
1690200000003833,1690200000003833,Burgemeester Brouwerstr,Burgemeester Brouwerstraat,7961CH,7961CH,20,20.0,,,,,Ruinerwold,Ruinerwold,695544.5908678265,6932237.327698102
1690200000003834,1690200000003834,Burgemeester Brouwerstr,Burgemeester Brouwerstraat,7961CH,7961CH,22,22.0,,,,,Ruinerwold,Ruinerwold,695556.2671468403,6932239.809771051
1690200000003835,1690200000003835,Burgemeester Brouwerstr,Burgemeester Brouwerstraat,7961CH,7961CH,24,24.0,,,,,Ruinerwold,Ruinerwold,695566.8821259605,6932241.727997489
1690200000003837,1690200000003837,Burgemeester Brouwerstr,Burgemeester Brouwerstraat,7961CH,7961CH,28,28.0,,,,,Ruinerwold,Ruinerwold,695598.492477882,6932247.984270922
1690200000003912,1690200000003912,Burgemeester Brouwerstr,Burgemeester Brouwerstraat,7961CH,7961CH,30,30.0,,,,,Ruinerwold,Ruinerwold,695609.290539018,6932250.053881395
1690200000003915,1690200000003915,Burgemeester Brouwerstr,Burgemeester Brouwerstraat,7961CH,7961CH,36,36.0,,,,,Ruinerwold,Ruinerwold,695651.2027053515,6932255.996844162
1690200000003916,1690200000003916,Burgemeester Brouwerstr,Burgemeester Brouwerstraat,7961CH,7961CH,38,38.0,,,,,Ruinerwold,Ruinerwold,695662.7417169224,6932258.154986459
1690200000003917,1690200000003917,Burgemeester Brouwerstr,Burgemeester Brouwerstraat,7961CH,7961CH,40,40.0,,,,,Ruinerwold,Ruinerwold,695693.658313191,6932266.335396268
1690200000003918,1690200000003918,Burgemeester Brouwerstr,Burgemeester Brouwerstraat,7961CH,7961CH,42,42.0,,,,,Ruinerwold,Ruinerwold,695703.3229638569,6932270.501487697
1690200000003919,1690200000003919,Burgemeester Brouwerstr,Burgemeester Brouwerstraat,7961CG,7961CG,1,1.0,,,,,Ruinerwold,Ruinerwold,695383.9397758811,6932256.176924522
1690200000003921,1690200000003921,Burgemeester Brouwerstr,Burgemeester Brouwerstraat,7961CG,7961CG,5,5.0,,,,,Ruinerwold,Ruinerwold,695475.7574595788,6932274.165858995
1690200000003922,1690200000003922,Burgemeester Brouwerstr,Burgemeester Brouwerstraat,7961CG,7961CG,7,7.0,,,,,Ruinerwold,Ruinerwold,695486.5664292733,6932275.905131341
1690200000003923,1690200000003923,Burgemeester Brouwerstr,Burgemeester Brouwerstraat,7961CG,7961CG,9,9.0,,,,,Ruinerwold,Ruinerwold,695514.7209865747,6932281.852811763
1690200000003925,1690200000003925,Burgemeester Brouwerstr,Burgemeester Brouwerstraat,7961CG,7961CG,13,13.0,,,,,Ruinerwold,Ruinerwold,695549.0434929235,6932291.5508747855
1690200000003926,1690200000003926,Burgemeester Brouwerstr,Burgemeester Brouwerstraat,7961CG,7961CG,15,15.0,,,,,Ruinerwold,Ruinerwold,695559.4526480343,6932293.476538186
1690200000003927,1690200000003927,Burgemeester Brouwerstr,Burgemeester Brouwerstraat,7961CG,7961CG,17,17.0,,,,,Ruinerwold,Ruinerwold,695583.9798654362,6932298.4051490575
1690200000003928,1690200000003928,Burgemeester Brouwerstr,Burgemeester Brouwerstraat,7961CG,7961CG,19,19.0,,,,,Ruinerwold,Ruinerwold,695595.1700837521,6932300.744321835
1690200000003930,1690200000003930,Burgemeester Brouwerstr,Burgemeester Brouwerstraat,7961CG,7961CG,23,23.0,,,,,Ruinerwold,Ruinerwold,695687.7034654208,6932322.293810657
1690200000010660,1690200000010660,Burg Tonckensstraat,Burgemeester Tonckensstraat,7921KB,7921KB,49,49.0,,,ts,ts,Zuidwolde,Zuidwolde,714528.4972536796,6921539.979170204
1690200000003824,1690200000003824,Burgemeester Brouwerstr,Burgemeester Brouwerstraat,7961CH,7961CH,2,2.0,,,,,Ruinerwold,Ruinerwold,695403.3454943744,6932211.691359956
1690200000003914,1690200000003914,Burgemeester Brouwerstr,Burgemeester Brouwerstraat,7961CH,7961CH,34,34.0,,,,,Ruinerwold,Ruinerwold,695639.1549008049,6932253.454922214
1690200000003920,1690200000003920,Burgemeester Brouwerstr,Burgemeester Brouwerstraat,7961CG,7961CG,3,3.0,,,,,Ruinerwold,Ruinerwold,695393.5950630223,6932259.568755035
1690200000003830,1690200000003830,Burgemeester Brouwerstr,Burgemeester Brouwerstraat,7961CH,7961CH,14,14.0,,,,,Ruinerwold,Ruinerwold,695503.249386615,6932227.115505736
1690200000003913,1690200000003913,Burgemeester Brouwerstr,Burgemeester Brouwerstraat,7961CH,7961CH,32,32.0,,,,,Ruinerwold,Ruinerwold,695619.5460951269,6932251.953210395
1690200000003924,1690200000003924,Burgemeester Brouwerstr,Burgemeester Brouwerstraat,7961CG,7961CG,11,11.0,,,,,Ruinerwold,Ruinerwold,695525.4142148548,6932283.973352751
1690200000003929,1690200000003929,Burgemeester Brouwerstr,Burgemeester Brouwerstraat,7961CG,7961CG,21,21.0,,,,,Ruinerwold,Ruinerwold,695665.9561753239,6932313.225613027
1690200000003326,1690200000003326,Gelinck - v Kerkwijkstr,Mevrouw Gelinck-van Kerkwijkstraat,7961CE,7961CE,2,2.0,,,,,Ruinerwold,Ruinerwold,695545.9912436022,6932116.277823085
1690200000003328,1690200000003328,Gelinck - v Kerkwijkstr,Mevrouw Gelinck-van Kerkwijkstraat,7961CE,7961CE,6,6.0,,,,,Ruinerwold,Ruinerwold,695593.9311234942,6932095.686102734
1690200000003329,1690200000003329,Gelinck - v Kerkwijkstr,Mevrouw Gelinck-van Kerkwijkstraat,7961CE,7961CE,8,8.0,,,,,Ruinerwold,Ruinerwold,695605.5473472892,6932069.58169096
1690200000003330,1690200000003330,Gelinck - v Kerkwijkstr,Mevrouw Gelinck-van Kerkwijkstraat,7961CE,7961CE,8,8.0,a,a,,,Ruinerwold,Ruinerwold,695619.0266147972,6932044.541993775
1690200000003331,1690200000003331,Gelinck - v Kerkwijkstr,Mevrouw Gelinck-van Kerkwijkstraat,7961CE,7961CE,10,10.0,,,,,Ruinerwold,Ruinerwold,695662.7147488598,6932070.622747065
1690200000003332,1690200000003332,Gelinck - v Kerkwijkstr,Mevrouw Gelinck-van Kerkwijkstraat,7961CE,7961CE,12,12.0,,,,,Ruinerwold,Ruinerwold,695656.9417720437,6932105.174378686
1690200000003333,1690200000003333,Gelinck - v Kerkwijkstr,Mevrouw Gelinck-van Kerkwijkstraat,7961CE,7961CE,14,14.0,,,,,Ruinerwold,Ruinerwold,695650.9232756976,6932137.930201323
1690200000003334,1690200000003334,Gelinck - v Kerkwijkstr,Mevrouw Gelinck-van Kerkwijkstraat,7961CE,7961CE,16,16.0,,,,,Ruinerwold,Ruinerwold,695692.0765820848,6932146.752892505
1690200000003335,1690200000003335,Gelinck - v Kerkwijkstr,Mevrouw Gelinck-van Kerkwijkstraat,7961CE,7961CE,18,18.0,,,,,Ruinerwold,Ruinerwold,695696.6510141294,6932136.937256681
1690200000003337,1690200000003337,Gelinck - v Kerkwijkstr,Mevrouw Gelinck-van Kerkwijkstraat,7961CE,7961CE,22,22.0,,,,,Ruinerwold,Ruinerwold,695706.5573605215,6932104.810498038
1690200000003338,1690200000003338,Gelinck - v Kerkwijkstr,Mevrouw Gelinck-van Kerkwijkstraat,7961CE,7961CE,24,24.0,,,,,Ruinerwold,Ruinerwold,695733.1743337584,6932083.658700929
1690200000003339,1690200000003339,Gelinck - v Kerkwijkstr,Mevrouw Gelinck-van Kerkwijkstraat,7961CE,7961CE,26,26.0,,,,,Ruinerwold,Ruinerwold,695743.6191693903,6932088.183675826
1690200000003340,1690200000003340,Gelinck - v Kerkwijkstr,Mevrouw Gelinck-van Kerkwijkstraat,7961CE,7961CE,28,28.0,,,,,Ruinerwold,Ruinerwold,695750.8060553113,6932126.992459863
1690200000003341,1690200000003341,Gelinck - v Kerkwijkstr,Mevrouw Gelinck-van Kerkwijkstraat,7961CE,7961CE,30,30.0,,,,,Ruinerwold,Ruinerwold,695759.908607727,6932131.5681951
1690200000003343,1690200000003343,Gelinck - v Kerkwijkstr,Mevrouw Gelinck-van Kerkwijkstraat,7961CE,7961CE,34,34.0,,,,,Ruinerwold,Ruinerwold,695788.4582367842,6932152.026732917
1690200000003345,1690200000003345,Gelinck - v Kerkwijkstr,Mevrouw Gelinck-van Kerkwijkstraat,7961CD,7961CD,3,3.0,,,,,Ruinerwold,Ruinerwold,695522.0862386966,6932167.267524447
1690200000003346,1690200000003346,Gelinck - v Kerkwijkstr,Mevrouw Gelinck-van Kerkwijkstraat,7961CD,7961CD,5,5.0,,,,,Ruinerwold,Ruinerwold,695531.5637207987,6932169.012701245
1690200000003347,1690200000003347,Gelinck - v Kerkwijkstr,Mevrouw Gelinck-van Kerkwijkstraat,7961CD,7961CD,7,7.0,,,,,Ruinerwold,Ruinerwold,695554.5733409832,6932176.888227972
1690200000003348,1690200000003348,Gelinck - v Kerkwijkstr,Mevrouw Gelinck-van Kerkwijkstraat,7961CD,7961CD,9,9.0,,,,,Ruinerwold,Ruinerwold,695565.2788783335,6932179.223284545
1690200000003349,1690200000003349,Gelinck - v Kerkwijkstr,Mevrouw Gelinck-van Kerkwijkstraat,7961CD,7961CD,11,11.0,,,,,Ruinerwold,Ruinerwold,695588.05263177,6932183.886984274
1690200000003399,1690200000003399,Gelinck - v Kerkwijkstr,Mevrouw Gelinck-van Kerkwijkstraat,7961CD,7961CD,15,15.0,,,,,Ruinerwold,Ruinerwold,695621.6177915555,6932190.896144111
1690200000003402,1690200000003402,Gelinck - v Kerkwijkstr,Mevrouw Gelinck-van Kerkwijkstraat,7961CD,7961CD,21,21.0,,,,,Ruinerwold,Ruinerwold,695667.224928205,6932198.851400165
1690200000003403,1690200000003403,Gelinck - v Kerkwijkstr,Mevrouw Gelinck-van Kerkwijkstraat,7961CD,7961CD,23,23.0,,,,,Ruinerwold,Ruinerwold,695692.1405619854,6932204.728112948
1690200000003404,1690200000003404,Gelinck - v Kerkwijkstr,Mevrouw Gelinck-van Kerkwijkstraat,7961CD,7961CD,25,25.0,,,,,Ruinerwold,Ruinerwold,695702.5768059185,6932206.720972662
1690200000003405,1690200000003405,Gelinck - v Kerkwijkstr,Mevrouw Gelinck-van Kerkwijkstraat,7961CD,7961CD,27,27.0,,,,,Ruinerwold,Ruinerwold,695728.708803863,6932204.037821831
1690200000003400,1690200000003400,Gelinck - v Kerkwijkstr,Mevrouw Gelinck-van Kerkwijkstraat,7961CD,7961CD,17,17.0,,,,,Ruinerwold,Ruinerwold,695631.9805944866,6932192.39770902
1690200000003401,1690200000003401,Gelinck - v Kerkwijkstr,Mevrouw Gelinck-van Kerkwijkstraat,7961CD,7961CD,19,19.0,,,,,Ruinerwold,Ruinerwold,695655.4109243882,6932197.117799456
1690200000003336,1690200000003336,Gelinck - v Kerkwijkstr,Mevrouw Gelinck-van Kerkwijkstraat,7961CE,7961CE,20,20.0,,,,,Ruinerwold,Ruinerwold,695701.5187178103,6932115.216415458
1690200000003344,1690200000003344,Gelinck - v Kerkwijkstr,Mevrouw Gelinck-van Kerkwijkstraat,7961CD,7961CD,1,1.0,,,,,Ruinerwold,Ruinerwold,695495.3629838331,6932164.562020512
1690200000003350,1690200000003350,Gelinck - v Kerkwijkstr,Mevrouw Gelinck-van Kerkwijkstraat,7961CD,7961CD,13,13.0,,,,,Ruinerwold,Ruinerwold,695598.222174396,6932186.043393638
1690200000003342,1690200000003342,Gelinck - v Kerkwijkstr,Mevrouw Gelinck-van Kerkwijkstraat,7961CE,7961CE,32,32.0,,,,,Ruinerwold,Ruinerwold,695778.7047926914,6932147.315098938
1690200000003406,1690200000003406,Gelinck - v Kerkwijkstr,Mevrouw Gelinck-van Kerkwijkstraat,7961CD,7961CD,29,29.0,,,,,Ruinerwold,Ruinerwold,695740.054670566,6932205.894203341
1690200000009001,1690200000009001,Burg Schukkingstr,Burgemeester Schukkingstraat,7961CC,7961CC,4,4.0,,,,,Ruinerwold,Ruinerwold,695554.5197498489,6932075.48397459
1690200000007556,1690200000007556,Burg Schukkingstr,Burgemeester Schukkingstraat,7961CC,7961CC,22,22.0,,,,,Ruinerwold,Ruinerwold,695441.525910343,6932393.830756832
1690200000007558,1690200000007558,Burg Schukkingstr,Burgemeester Schukkingstraat,7961CC,7961CC,26,26.0,,,,,Ruinerwold,Ruinerwold,695433.013436803,6932414.122147072
1690200000007560,1690200000007560,Burg Schukkingstr,Burgemeester Schukkingstraat,7961CC,7961CC,30,30.0,,,,,Ruinerwold,Ruinerwold,695419.5804064012,6932442.880611512
1690200000007563,1690200000007563,Burg Schukkingstr,Burgemeester Schukkingstraat,7961CA,7961CA,1,1.0,,,,,Ruinerwold,Ruinerwold,695520.0069476366,6932004.904594939
1690200000007555,1690200000007555,Burg Schukkingstr,Burgemeester Schukkingstraat,7961CC,7961CC,20,20.0,,,,,Ruinerwold,Ruinerwold,695447.2613533606,6932384.61067325
1690200000007559,1690200000007559,Burg Schukkingstr,Burgemeester Schukkingstraat,7961CC,7961CC,28,28.0,,,,,Ruinerwold,Ruinerwold,695424.3276753945,6932432.035213878
1690200000009000,1690200000009000,Burg Schukkingstr,Burgemeester Schukkingstraat,7961CC,7961CC,2,2.0,,,,,Ruinerwold,Ruinerwold,695565.7405097568,6932036.204288464
1690200000007557,1690200000007557,Burg Schukkingstr,Burgemeester Schukkingstraat,7961CC,7961CC,24,24.0,,,,,Ruinerwold,Ruinerwold,695436.9634173008,6932404.274143456
1690200000007553,1690200000007553,Burg Schukkingstr,Burgemeester Schukkingstraat,7961CC,7961CC,16,16.0,,,,,Ruinerwold,Ruinerwold,695464.9386818348,6932325.713790027
1690200000007551,1690200000007551,Burg Schukkingstr,Burgemeester Schukkingstraat,7961CC,7961CC,12,12.0,,,,,Ruinerwold,Ruinerwold,695469.725172337,6932302.781061212
1690200000007552,1690200000007552,Burg Schukkingstr,Burgemeester Schukkingstraat,7961CC,7961CC,14,14.0,,,,,Ruinerwold,Ruinerwold,695467.1987692665,6932314.412545895
1690200000007561,1690200000007561,Burg Schukkingstr,Burgemeester Schukkingstraat,7961CC,7961CC,32,32.0,,,,,Ruinerwold,Ruinerwold,695415.081664703,6932453.146530889
1690200000007562,1690200000007562,Burg Schukkingstr,Burgemeester Schukkingstraat,7961CC,7961CC,34,34.0,,,,,Ruinerwold,Ruinerwold,695410.4049462485,6932463.690457042
1690200000007564,1690200000007564,Burg Schukkingstr,Burgemeester Schukkingstraat,7961CA,7961CA,3,3.0,,,,,Ruinerwold,Ruinerwold,695515.9035116223,6932014.709389288
1690200000007565,1690200000007565,Burg Schukkingstr,Burgemeester Schukkingstraat,7961CA,7961CA,5,5.0,,,,,Ruinerwold,Ruinerwold,695505.675374479,6932035.200450714
1690200000007566,1690200000007566,Burg Schukkingstr,Burgemeester Schukkingstraat,7961CA,7961CA,7,7.0,,,,,Ruinerwold,Ruinerwold,695501.6884251467,6932043.994602012
1690200000007567,1690200000007567,Burg Schukkingstr,Burgemeester Schukkingstraat,7961CA,7961CA,9,9.0,,,,,Ruinerwold,Ruinerwold,695491.5409835298,6932064.349303235
1690200000007569,1690200000007569,Burg Schukkingstr,Burgemeester Schukkingstraat,7961CA,7961CA,13,13.0,,,,,Ruinerwold,Ruinerwold,695477.2844158892,6932094.041503766
1690200000007457,1690200000007457,Burg Schukkingstr,Burgemeester Schukkingstraat,7961CA,7961CA,23,23.0,,,,,Ruinerwold,Ruinerwold,695448.0800140571,6932162.679943625
1690200000007458,1690200000007458,Burg Schukkingstr,Burgemeester Schukkingstraat,7961CA,7961CA,25,25.0,,,,,Ruinerwold,Ruinerwold,695445.4651242411,6932174.629436988
1690200000007459,1690200000007459,Burg Schukkingstr,Burgemeester Schukkingstraat,7961CA,7961CA,27,27.0,,,,,Ruinerwold,Ruinerwold,695443.9010452393,6932186.538326707
1690200000007568,1690200000007568,Burg Schukkingstr,Burgemeester Schukkingstraat,7961CA,7961CA,11,11.0,,,,,Ruinerwold,Ruinerwold,695486.5472763944,6932074.25893787
1690200000007570,1690200000007570,Burg Schukkingstr,Burgemeester Schukkingstraat,7961CA,7961CA,15,15.0,,,,,Ruinerwold,Ruinerwold,695472.8872643192,6932103.542642362
1690200000007571,1690200000007571,Burg Schukkingstr,Burgemeester Schukkingstraat,7961CA,7961CA,17,17.0,,,,,Ruinerwold,Ruinerwold,695463.6109399829,6932121.64217118
1690200000007573,1690200000007573,Burg Schukkingstr,Burgemeester Schukkingstraat,7961CA,7961CA,21,21.0,,,,,Ruinerwold,Ruinerwold,695454.1200345472,6932143.877272149
1690200000007572,1690200000007572,Burg Schukkingstr,Burgemeester Schukkingstraat,7961CA,7961CA,19,19.0,,,,,Ruinerwold,Ruinerwold,695458.9841182057,6932133.174570887
1690200000007460,1690200000007460,Burg Schukkingstr,Burgemeester Schukkingstraat,7961CB,7961CB,29,29.0,,,,,Ruinerwold,Ruinerwold,695426.4419177268,6932272.963688155
1690200000007461,1690200000007461,Burg Schukkingstr,Burgemeester Schukkingstraat,7961CB,7961CB,31,31.0,,,,,Ruinerwold,Ruinerwold,695420.5850061285,6932297.072014934
1690200000007462,1690200000007462,Burg Schukkingstr,Burgemeester Schukkingstraat,7961CB,7961CB,33,33.0,,,,,Ruinerwold,Ruinerwold,695418.7078943766,6932306.630848602
1690200000007463,1690200000007463,Burg Schukkingstr,Burgemeester Schukkingstraat,7961CB,7961CB,35,35.0,,,,,Ruinerwold,Ruinerwold,695416.5234763613,6932317.0936481375
1690200000007466,1690200000007466,Burg Schukkingstr,Burgemeester Schukkingstraat,7961CB,7961CB,41,41.0,,,,,Ruinerwold,Ruinerwold,695366.9314865683,6932314.5563565
1690200000007467,1690200000007467,Burg Schukkingstr,Burgemeester Schukkingstraat,7961CB,7961CB,43,43.0,,,,,Ruinerwold,Ruinerwold,695355.7801618393,6932312.852382025
1690200000007471,1690200000007471,Burg Schukkingstr,Burgemeester Schukkingstraat,7961CB,7961CB,51,51.0,,,,,Ruinerwold,Ruinerwold,695365.4960585065,6932357.8783125775
1690200000007474,1690200000007474,Burg Schukkingstr,Burgemeester Schukkingstraat,7961CB,7961CB,57,57.0,,,,,Ruinerwold,Ruinerwold,695403.6273050148,6932375.388201542
1690200000007476,1690200000007476,d Vos v Steenwijkstr,Commissaris De Vos van Steenwijkstraat,7961CK,7961CK,4,4.0,,,,,Ruinerwold,Ruinerwold,695507.807396885,6932345.153823648
1690200000007477,1690200000007477,d Vos v Steenwijkstr,Commissaris De Vos van Steenwijkstraat,7961CK,7961CK,6,6.0,,,,,Ruinerwold,Ruinerwold,695519.4185003968,6932346.99251645
1690200000007652,1690200000007652,d Vos v Steenwijkstr,Commissaris De Vos van Steenwijkstraat,7961CJ,7961CJ,5,5.0,,,,,Ruinerwold,Ruinerwold,695499.9062139466,6932393.994605419
1690200000007464,1690200000007464,Burg Schukkingstr,Burgemeester Schukkingstraat,7961CB,7961CB,37,37.0,,,,,Ruinerwold,Ruinerwold,695414.8869428021,6932326.930459158
1690200000007465,1690200000007465,Burg Schukkingstr,Burgemeester Schukkingstraat,7961CB,7961CB,39,39.0,,,,,Ruinerwold,Ruinerwold,695376.8646065983,6932316.777021348
1690200000007473,1690200000007473,Burg Schukkingstr,Burgemeester Schukkingstraat,7961CB,7961CB,55,55.0,,,,,Ruinerwold,Ruinerwold,695394.1292637928,6932371.650859152
1690200000007475,1690200000007475,d Vos v Steenwijkstr,Commissaris De Vos van Steenwijkstraat,7961CK,7961CK,2,2.0,,,,,Ruinerwold,Ruinerwold,695497.1743842926,6932342.560076698
1690200000007468,1690200000007468,Burg Schukkingstr,Burgemeester Schukkingstraat,7961CB,7961CB,45,45.0,,,,,Ruinerwold,Ruinerwold,695338.4876281956,6932345.34838356
1690200000007470,1690200000007470,Burg Schukkingstr,Burgemeester Schukkingstraat,7961CB,7961CB,49,49.0,,,,,Ruinerwold,Ruinerwold,695356.8329687166,6932353.539594378
1690200000007472,1690200000007472,Burg Schukkingstr,Burgemeester Schukkingstraat,7961CB,7961CB,53,53.0,,,,,Ruinerwold,Ruinerwold,695384.4551041286,6932366.818734485
1690200000007478,1690200000007478,d Vos v Steenwijkstr,Commissaris De Vos van Steenwijkstraat,7961CK,7961CK,8,8.0,,,,,Ruinerwold,Ruinerwold,695530.8717063613,6932350.242161177
1690200000007649,1690200000007649,d Vos v Steenwijkstr,Commissaris De Vos van Steenwijkstraat,7961CK,7961CK,20,20.0,,,,,Ruinerwold,Ruinerwold,695655.493081367,6932394.981774
1690200000007654,1690200000007654,d Vos v Steenwijkstr,Commissaris De Vos van Steenwijkstraat,7961CJ,7961CJ,9,9.0,,,,,Ruinerwold,Ruinerwold,695530.9875817215,6932400.480592268
1690200000007479,1690200000007479,d Vos v Steenwijkstr,Commissaris De Vos van Steenwijkstraat,7961CK,7961CK,10,10.0,,,,,Ruinerwold,Ruinerwold,695553.3615420329,6932353.85553081
1690200000007647,1690200000007647,d Vos v Steenwijkstr,Commissaris De Vos van Steenwijkstraat,7961CK,7961CK,16,16.0,,,,,Ruinerwold,Ruinerwold,695584.4090877278,6932360.83230084
1690200000007645,1690200000007645,d Vos v Steenwijkstr,Commissaris De Vos van Steenwijkstraat,7961CK,7961CK,12,12.0,,,,,Ruinerwold,Ruinerwold,695563.7402577086,6932355.708883498
1690200000007646,1690200000007646,d Vos v Steenwijkstr,Commissaris De Vos van Steenwijkstraat,7961CK,7961CK,14,14.0,,,,,Ruinerwold,Ruinerwold,695574.8734629487,6932358.790493034
1690200000007653,1690200000007653,d Vos v Steenwijkstr,Commissaris De Vos van Steenwijkstraat,7961CJ,7961CJ,7,7.0,,,,,Ruinerwold,Ruinerwold,695520.3555300551,6932398.113159713
1690200000007650,1690200000007650,d Vos v Steenwijkstr,Commissaris De Vos van Steenwijkstraat,7961CJ,7961CJ,1,1.0,,,,,Ruinerwold,Ruinerwold,695477.9408176104,6932389.453034961
1690200000007651,1690200000007651,d Vos v Steenwijkstr,Commissaris De Vos van Steenwijkstraat,7961CJ,7961CJ,3,3.0,,,,,Ruinerwold,Ruinerwold,695489.1841692148,6932391.679417658
1690200000007655,1690200000007655,d Vos v Steenwijkstr,Commissaris De Vos van Steenwijkstraat,7961CJ,7961CJ,11,11.0,,,,,Ruinerwold,Ruinerwold,695541.5393368084,6932402.746551243
1690200000007656,1690200000007656,d Vos v Steenwijkstr,Commissaris De Vos van Steenwijkstraat,7961CJ,7961CJ,13,13.0,,,,,Ruinerwold,Ruinerwold,695571.0743997946,6932409.03610958
1690200000007657,1690200000007657,d Vos v Steenwijkstr,Commissaris De Vos van Steenwijkstraat,7961CJ,7961CJ,15,15.0,,,,,Ruinerwold,Ruinerwold,695568.2432199669,6932420.526051311
1690200000007658,1690200000007658,d Vos v Steenwijkstr,Commissaris De Vos van Steenwijkstraat,7961CJ,7961CJ,17,17.0,,,,,Ruinerwold,Ruinerwold,695566.15975118,6932431.427247368
1690200000007660,1690200000007660,d Vos v Steenwijkstr,Commissaris De Vos van Steenwijkstraat,7961CJ,7961CJ,21,21.0,,,,,Ruinerwold,Ruinerwold,695561.9655584868,6932452.185984474
1690200000007663,1690200000007663,d Vos v Steenwijkstr,Commissaris De Vos van Steenwijkstraat,7961CJ,7961CJ,27,27.0,,,,,Ruinerwold,Ruinerwold,695604.7351887483,6932470.839020267
1690200000007664,1690200000007664,d Vos v Steenwijkstr,Commissaris De Vos van Steenwijkstraat,7961CJ,7961CJ,29,29.0,,,,,Ruinerwold,Ruinerwold,695609.5044519244,6932460.199702921
1690200000007666,1690200000007666,d Vos v Steenwijkstr,Commissaris De Vos van Steenwijkstraat,7961CJ,7961CJ,33,33.0,,,,,Ruinerwold,Ruinerwold,695619.0667001288,6932440.225844253
1690200000007661,1690200000007661,d Vos v Steenwijkstr,Commissaris De Vos van Steenwijkstraat,7961CJ,7961CJ,23,23.0,,,,,Ruinerwold,Ruinerwold,695560.3436699461,6932463.519470278
1690200000007662,1690200000007662,d Vos v Steenwijkstr,Commissaris De Vos van Steenwijkstraat,7961CJ,7961CJ,25,25.0,,,,,Ruinerwold,Ruinerwold,695599.9584334247,6932482.235027123
1690200000007667,1690200000007667,d Vos v Steenwijkstr,Commissaris De Vos van Steenwijkstraat,7961CJ,7961CJ,35,35.0,,,,,Ruinerwold,Ruinerwold,695623.2395910084,6932430.849154794
1690200000007665,1690200000007665,d Vos v Steenwijkstr,Commissaris De Vos van Steenwijkstraat,7961CJ,7961CJ,31,31.0,,,,,Ruinerwold,Ruinerwold,695614.4171193258,6932449.28776518
1690200000006207,1690200000006207,Burg. d.l.S. Brietweg,Burgemeester De la Saussaye Brietweg,7957AJ,7957AJ,15,15.0,,,,,de Wijk,de Wijk,699862.7046378017,6922949.900805108
1690200000010866,1690200000010866,de Vos van Steenwijkstr,De Vos van Steenwijkstraat,7957BH,7957BH,62,62.0,,,ts,ts,de Wijk,de Wijk,699596.0129417115,6922469.695834045
1690200000010462,1690200000010462,Willem Koopsweg,Willem Koopsweg,7957BP,7957BS,16,16.0,,,gb11,gb11,de Wijk,de Wijk,700219.33632272,6922760.492136915
1690200000010635,1690200000010635,Willem Koopsweg,Willem Koopsweg,7957BP,7957BS,16,16.0,,,gb17,gb17,de Wijk,de Wijk,700221.9994121636,6922790.080739038
1690200000010637,1690200000010637,Willem Koopsweg,Willem Koopsweg,7957BP,7957BS,16,16.0,,,gb19,gb19,de Wijk,de Wijk,700222.626985455,6922799.893538611
1690200000010639,1690200000010639,Willem Koopsweg,Willem Koopsweg,7957BP,7957BS,16,16.0,,,gb21,gb21,de Wijk,de Wijk,700246.6427616051,6922773.257498522
1690200000010464,1690200000010464,Willem Koopsweg,Willem Koopsweg,7957BP,7957BS,16,16.0,,,gb13,gb13,de Wijk,de Wijk,700219.9062314036,6922770.300673072
1690200000010466,1690200000010466,Willem Koopsweg,Willem Koopsweg,7957BP,7957BS,16,16.0,,,gb15,gb15,de Wijk,de Wijk,700220.9691134181,6922780.04529841
1690200000010641,1690200000010641,Willem Koopsweg,Willem Koopsweg,7957BP,7957BS,16,16.0,,,gb23,gb23,de Wijk,de Wijk,700247.8142690458,6922782.735117664
1690200000010643,1690200000010643,Willem Koopsweg,Willem Koopsweg,7957BP,7957BS,16,16.0,,,gb25,gb25,de Wijk,de Wijk,700248.6800780292,6922792.907917014
1690200000010655,1690200000010655,Willem Koopsweg,Willem Koopsweg,7957BR,7957BS,16,16.0,,,gb37,gb37,de Wijk,de Wijk,700282.2231521456,6922760.410546282
1690200000010656,1690200000010656,Willem Koopsweg,Willem Koopsweg,7957BT,7957BS,16,16.0,,,gb38,gb38,de Wijk,de Wijk,700282.639332492,6922765.144044596
1690200000010644,1690200000010644,Willem Koopsweg,Willem Koopsweg,7957BT,7957BS,16,16.0,,,gb26,gb26,de Wijk,de Wijk,700248.7382108767,6922797.5716720745
1690200000010648,1690200000010648,Willem Koopsweg,Willem Koopsweg,7957BT,7957BS,16,16.0,,,gb30,gb30,de Wijk,de Wijk,700257.3896854382,6922782.1746220365
1690200000010652,1690200000010652,Willem Koopsweg,Willem Koopsweg,7957BT,7957BS,16,16.0,,,gb34,gb34,de Wijk,de Wijk,700280.9642262295,6922745.640959521
1690200000010653,1690200000010653,Willem Koopsweg,Willem Koopsweg,7957BR,7957BS,16,16.0,,,gb35,gb35,de Wijk,de Wijk,700281.383819693,6922750.516303695
1690200000010645,1690200000010645,Willem Koopsweg,Willem Koopsweg,7957BP,7957BS,16,16.0,,,gb27,gb27,de Wijk,de Wijk,700256.5275430614,6922767.543568821
1690200000010733,1690200000010733,Willem Koopsweg,Willem Koopsweg,7957BT,7957BS,16,16.0,,,gb42,gb42,de Wijk,de Wijk,700284.2834473391,6922784.933010213
1690200000010649,1690200000010649,Willem Koopsweg,Willem Koopsweg,7957BP,7957BS,16,16.0,,,gb31,gb31,de Wijk,de Wijk,700257.2167542098,6922787.050812402
1690200000010651,1690200000010651,Willem Koopsweg,Willem Koopsweg,7957BR,7957BS,16,16.0,,,gb33,gb33,de Wijk,de Wijk,700258.4435480543,6922796.869298817
1690200000010654,1690200000010654,Willem Koopsweg,Willem Koopsweg,7957BT,7957BS,16,16.0,,,gb36,gb36,de Wijk,de Wijk,700281.8017680419,6922755.391671391
1690200000010730,1690200000010730,Willem Koopsweg,Willem Koopsweg,7957BR,7957BS,16,16.0,,,gb39,gb39,de Wijk,de Wijk,700282.9883096718,6922770.163832812
1690200000010734,1690200000010734,Willem Koopsweg,Willem Koopsweg,7957BR,7957BS,16,16.0,,,gb43,gb43,de Wijk,de Wijk,700284.6333315566,6922790.0253981855
1690200000010732,1690200000010732,Willem Koopsweg,Willem Koopsweg,7957BR,7957BS,16,16.0,,,gb41,gb41,de Wijk,de Wijk,700283.5487928916,6922780.134192341
1690200000010735,1690200000010735,Willem Koopsweg,Willem Koopsweg,7957BT,7957BS,16,16.0,,,gb44,gb44,de Wijk,de Wijk,700284.969783652,6922794.964509849
1690200000010949,1690200000010949,Burgemeester Brouwerstr,Burgemeester Brouwerstraat,7961CG,7961CG,19,19.0,,,ts,ts,Ruinerwold,Ruinerwold,695649.0989396777,6932324.866667573
1690200000010751,1690200000010751,d Vos v Steenwijkstr,Commissaris De Vos van Steenwijkstraat,7961CK,7961CK,16,16.0,,,gb2,gb2,Ruinerwold,Ruinerwold,695636.4039554988,6932350.900613007
1690200000010924,1690200000010924,d Vos v Steenwijkstr,Commissaris De Vos van Steenwijkstraat,7961CK,7961CK,16,16.0,,,gb7,gb7,Ruinerwold,Ruinerwold,695646.2394782469,6932329.536117856
1690200000010750,1690200000010750,d Vos v Steenwijkstr,Commissaris De Vos van Steenwijkstraat,7961CK,7961CK,16,16.0,,,gb1,gb1,Ruinerwold,Ruinerwold,695634.4528140944,6932355.324641865
1690200000010921,1690200000010921,d Vos v Steenwijkstr,Commissaris De Vos van Steenwijkstraat,7961CK,7961CK,16,16.0,,,gb4,gb4,Ruinerwold,Ruinerwold,695640.4587413664,6932342.405898808
1690200000010923,1690200000010923,d Vos v Steenwijkstr,Commissaris De Vos van Steenwijkstraat,7961CK,7961CK,16,16.0,,,gb6,gb6,Ruinerwold,Ruinerwold,695644.2800079223,6932333.813217072
1690200000010920,1690200000010920,d Vos v Steenwijkstr,Commissaris De Vos van Steenwijkstraat,7961CK,7961CK,16,16.0,,,gb3,gb3,Ruinerwold,Ruinerwold,695638.2306627863,6932346.544150393
1690200000010922,1690200000010922,d Vos v Steenwijkstr,Commissaris De Vos van Steenwijkstraat,7961CK,7961CK,16,16.0,,,gb5,gb5,Ruinerwold,Ruinerwold,695642.3093332368,6932337.979773926
1690200000011212,1690200000011212,Burg Tonckensstraat,Burgemeester Tonckensstraat,7921KB,7921KB,57,57.0,a,a,schr,schr,Zuidwolde,Zuidwolde,712788.4345735686,6921461.713663809
1690200000011213,1690200000011213,Burg Tonckensstraat,Burgemeester Tonckensstraat,7921KD,7921KD,48,48.0,a,a,schr,schr,Zuidwolde,Zuidwolde,714442.2802383496,6921651.948871689
1690200000011215,1690200000011215,Schoolstraat,Schoolstraat,7963NJ,7961NJ,2,2.0,,,schr,schr,Ruinerwold,Ruinerwold,699447.2430788407,6934690.932043397
1690200000012378,1690200000012378,Dorpsstraat,Dorpsstraat,7957AW,7957AW,54,56.0,,,,,de Wijk,de Wijk,699744.0353015409,6922624.138124213
1690200000009206,1690200000009206,Burg Tonckensstraat,Burgemeester Tonckensstraat,7921KA,7921KA,15,15.0,a,a,,,Zuidwolde,Zuidwolde,715364.1952586494,6922012.089221199
1690200000011219,1690200000011219,Nieuwstraat,Nieuwstraat,7927PD,7927PJ,17,17.0,a,a,schr,schr,Alteveer,Alteveer,722035.3034934888,6923589.8628289625
1690200000009893,1690200000009893,Burg Tonckensstraat,Burgemeester Tonckensstraat,7921KA,7921KA,1,1.0,,,,,Zuidwolde,Zuidwolde,715640.7159319873,6922150.903661632
1690200000009895,1690200000009895,Burg Tonckensstraat,Burgemeester Tonckensstraat,7921KA,7921KA,5,5.0,,,,,Zuidwolde,Zuidwolde,715551.9036131788,6922100.465840439
1690200000009896,1690200000009896,Burg Tonckensstraat,Burgemeester Tonckensstraat,7921KA,7921KA,5,5.0,a,a,,,Zuidwolde,Zuidwolde,715543.512744102,6922097.440648215
1690200000009894,1690200000009894,Burg Tonckensstraat,Burgemeester Tonckensstraat,7921KA,7921KA,3,3.0,,,,,Zuidwolde,Zuidwolde,715570.1692977466,6922117.017633265
1690200000011280,1690200000011280,Burg. Veenhovenplein,Burgemeester Veenhovenplein,7957BA,7957BA,1,1.0,a,a,,,de Wijk,de Wijk,699243.7370418486,6922611.675849932
1690200000011281,1690200000011281,Burg. Veenhovenplein,Burgemeester Veenhovenplein,7957BA,7957BA,1,1.0,b,b,,,de Wijk,de Wijk,699258.1212917581,6922611.497452383
1690200000011283,1690200000011283,Burg. Veenhovenplein,Burgemeester Veenhovenplein,7957BA,7957BA,1,1.0,d,d,,,de Wijk,de Wijk,699221.4856001872,6922586.775414322
1690200000011284,1690200000011284,Burg. Veenhovenplein,Burgemeester Veenhovenplein,7957BA,7957BA,1,1.0,e,e,,,de Wijk,de Wijk,699214.4181270265,6922606.906438425
1690200000011285,1690200000011285,Burg. Veenhovenplein,Burgemeester Veenhovenplein,7957BA,7957BA,1,1.0,f,f,,,de Wijk,de Wijk,699232.9460051046,6922606.676713354
1690200000011286,1690200000011286,Burg. Veenhovenplein,Burgemeester Veenhovenplein,7957BA,7957BA,1,1.0,g,g,,,de Wijk,de Wijk,699257.0670198381,6922605.154972922
1690200000011462,1690200000011462,Burg Tonckensstraat,Burgemeester Tonckensstraat,7921KD,7921KD,46,46.0,a,a,,,Zuidwolde,Zuidwolde,714765.0094648213,6921744.415491109
1690200000011413,1690200000011413,Jan Wierengaweg,Jan Wierengaweg,7963CM,7963CN,9,9.0,,,,,Ruinen,Ruinen,708125.5198227245,6939084.3244595835
1690200000011985,1690200000011985,Burg Tonckensstraat,Burgemeester Tonckensstraat,7921KD,7921KD,46,46.0,b,b,,,Zuidwolde,Zuidwolde,714700.4639438546,6921857.614444182
1690200000012196,1690200000012196,Burg. d.l.S. Brietweg,Burgemeester De la Saussaye Brietweg,7957AJ,7957AJ,1,1.0,,,,,de Wijk,de Wijk,699417.8347604454,6923020.859614437
1690200000012197,1690200000012197,Burg. d.l.S. Brietweg,Burgemeester De la Saussaye Brietweg,7957AJ,7957AJ,3,3.0,,,,,de Wijk,de Wijk,699427.4579776041,6923018.946484516
1690200000012198,1690200000012198,Burg. d.l.S. Brietweg,Burgemeester De la Saussaye Brietweg,7957AJ,7957AJ,5,5.0,,,,,de Wijk,de Wijk,699436.6902031571,6923016.960650853
1690200000012199,1690200000012199,Burg. d.l.S. Brietweg,Burgemeester De la Saussaye Brietweg,7957AJ,7957AJ,7,7.0,,,,,de Wijk,de Wijk,699490.9392058704,6923006.615629211
1690200000012200,1690200000012200,Burg. d.l.S. Brietweg,Burgemeester De la Saussaye Brietweg,7957AJ,7957AJ,9,9.0,,,,,de Wijk,de Wijk,699500.5604697467,6923004.547337346
1690200000012201,1690200000012201,Burg. d.l.S. Brietweg,Burgemeester De la Saussaye Brietweg,7957AJ,7957AJ,11,11.0,,,,,de Wijk,de Wijk,699510.3412202034,6923002.864805325
1690200000012298,1690200000012298,Buitenhof,Buitenhof,7963DJ,7961DJ,9,9.0,,,,,Ruinerwold,Ruinerwold,695787.1593178047,6931096.3653206965
1690200000012421,1690200000012421,Burg. d.l.S. Brietweg,Burgemeester De la Saussaye Brietweg,7957AK,7957AK,6,6.0,,,,,de Wijk,de Wijk,699445.9136433629,6922965.946379932
1690200000012422,1690200000012422,Burg. d.l.S. Brietweg,Burgemeester De la Saussaye Brietweg,7957AK,7957AK,6,6.0,a,a,,,de Wijk,de Wijk,699457.2945018202,6922964.154935461
1690200000012417,1690200000012417,Burg. d.l.S. Brietweg,Burgemeester De la Saussaye Brietweg,7957AK,7957AK,2,2.0,,,,,de Wijk,de Wijk,699446.793317147,6922970.5323767215
1690200000012418,1690200000012418,Burg. d.l.S. Brietweg,Burgemeester De la Saussaye Brietweg,7957AK,7957AK,2,2.0,a,a,,,de Wijk,de Wijk,699458.2926707616,6922968.739457347
1690200000012419,1690200000012419,Burg. d.l.S. Brietweg,Burgemeester De la Saussaye Brietweg,7957AK,7957AK,4,4.0,,,,,de Wijk,de Wijk,699472.128927762,6922965.856518173
1690200000012420,1690200000012420,Burg. d.l.S. Brietweg,Burgemeester De la Saussaye Brietweg,7957AK,7957AK,4,4.0,a,a,,,de Wijk,de Wijk,699485.4932382825,6922962.743471879
1690200000012424,1690200000012424,Burg. d.l.S. Brietweg,Burgemeester De la Saussaye Brietweg,7957AK,7957AK,8,8.0,a,a,,,de Wijk,de Wijk,699484.6077271746,6922957.687303799
1690200000012415,1690200000012415,Burg. d.l.S. Brietweg,Burgemeester De la Saussaye Brietweg,7957AK,7957AK,18,18.0,,,,,de Wijk,de Wijk,699534.0746946041,6922952.117227681
1690200000012416,1690200000012416,Burg. d.l.S. Brietweg,Burgemeester De la Saussaye Brietweg,7957AK,7957AK,20,20.0,,,,,de Wijk,de Wijk,699543.514245456,6922950.001657469
1690200000012425,1690200000012425,Burg. d.l.S. Brietweg,Burgemeester De la Saussaye Brietweg,7957AK,7957AK,10,10.0,,,,,de Wijk,de Wijk,699444.6568331746,6922959.47911238
1690200000012423,1690200000012423,Burg. d.l.S. Brietweg,Burgemeester De la Saussaye Brietweg,7957AK,7957AK,8,8.0,,,,,de Wijk,de Wijk,699471.4787361381,6922960.795771745
1690200000012426,1690200000012426,Burg. d.l.S. Brietweg,Burgemeester De la Saussaye Brietweg,7957AK,7957AK,10,10.0,a,a,,,de Wijk,de Wijk,699456.1459705678,6922956.861321385
1690200000012427,1690200000012427,Burg. d.l.S. Brietweg,Burgemeester De la Saussaye Brietweg,7957AK,7957AK,12,12.0,,,,,de Wijk,de Wijk,699470.8052429268,6922953.851009539
1690200000012428,1690200000012428,Burg. d.l.S. Brietweg,Burgemeester De la Saussaye Brietweg,7957AK,7957AK,12,12.0,a,a,,,de Wijk,de Wijk,699483.3569001771,6922951.573075713
1690200000012413,1690200000012413,Burg. d.l.S. Brietweg,Burgemeester De la Saussaye Brietweg,7957AK,7957AK,14,14.0,,,,,de Wijk,de Wijk,699513.810827795,6922955.241900981
1690200000012414,1690200000012414,Burg. d.l.S. Brietweg,Burgemeester De la Saussaye Brietweg,7957AK,7957AK,16,16.0,,,,,de Wijk,de Wijk,699524.7492956169,6922953.482264294
1690200000012567,1690200000012567,Meppelerweg,Meppelerweg,7963RW,7963RX,64,64.0,,,,,Ruinen,Ruinen,703436.6860127379,6938204.063311209
1690200000012404,1690200000012404,Alb van Daatselaarstraat,Albertus van Daatselaarstraat,7926AB,7926AB,9,9.0,a,a,1,1,Kerkenveld,Kerkenveld,723724.0634854304,6921976.615230942
