BAGNUMIDENTIFICATIE,B_NUMMERAANDUIDING,OPENBARERUIMTENAAM,B_OPENBARERUIMTE,POSTCODE,B_POSTCODE,HUISNUMMER,B_HUISNUMMER,HUISLETTER,B_HUISLETTER,HUISNUMMERTOEVOEGING,B_HUISNUMMERTOEVOEGING,WOONPLAATSNAAM,B_WOONPLAATSNAAM,x,y
1651200000033481,1651200000033481,Hogelandsterstraat,Hogelandsterstraat,9981GD,9981GD,1,1.0,a,A,,,Uithuizen,Uithuizen,742745.4602629344,7059083.203921376
1651200000026042,1651200000026042,Aak,Aak,9981EK,9981EK,13,13.0,d,D,,,Uithuizen,Uithuizen,743491.4036398422,7057885.427786202
1651200000030835,1651200000030835,Hoofdstraat,Hoofdstraat,9989AM,9989AM,1,1.0,a,A,,,Warffum,Warffum,730326.7888715812,7056042.99417628
53200000005969,53200000005969,Andelsterweg,Andelsterweg,9956VN,9956VN,5,5.0,a,A,,,Den Andel,Den Andel,724596.9668287829,7054323.1828384455
1651200000031057,1651200000031057,Torenweg,Torenweg,9989BD,9989BD,23,23.0,a,A,,,Warffum,Warffum,730469.7841004606,7055678.333551739
1651200000026972,1651200000026972,Havenweg,Havenweg,9981JR,9981JR,51,51.0,a,A,,,Uithuizen,Uithuizen,743129.0414566515,7057371.82026109
1651200000032785,1651200000032785,Dingeweg,Dingeweg,9981NC,9981NC,4,4.0,b,B,,,Uithuizen,Uithuizen,745338.8586454297,7059509.876105315
1651200000026082,1651200000026082,Aak,Aak,9981EL,9981EL,12,12.0,c,C,,,Uithuizen,Uithuizen,743426.805018782,7057923.503529322
1651200000026470,1651200000026470,Brouwerijstraat,Brouwerijstraat,9981JL,9981JL,32,32.0,g,G,,,Uithuizen,Uithuizen,742955.1059521559,7058214.292728842
1651200000030696,1651200000030696,Middendijk,Middendijk,9988TC,9988TC,13,13.0,a,A,,,Usquert,Usquert,736363.3097877563,7062751.949335095
1651200000027318,1651200000027318,Ripperdadrift,Ripperdadrift,9981LG,9981LG,67,67.0,a,A,,,Uithuizen,Uithuizen,741348.8140219136,7058546.222779611
1651200000032300,1651200000032300,Albert van der Zielstr,Albert van der Zielstraat,9997PE,9997PE,6,6.0,,,,,Zandeweer,Zandeweer,743502.1711059901,7055030.00936217
1651200000032293,1651200000032293,Albert van der Zielstr,Albert van der Zielstraat,9997PD,9997PD,31,31.0,,,,,Zandeweer,Zandeweer,743478.0204016324,7055176.368159655
1651200000031116,1651200000031116,Kalverstraat,Kalverstraat,9989BK,9989BK,2,2.0,b,B,,,Warffum,Warffum,730280.9316443058,7055686.669554334
53200000006074,53200000006074,Bellingeweer,Bellingeweer,9951AM,9951AM,1,1.0,b,B,,,Winsum,Winsum,725559.1672229976,7043669.006353128
53200000006075,53200000006075,Bellingeweer,Bellingeweer,9951AM,9951AM,1,1.0,c,C,,,Winsum,Winsum,725572.5569845953,7043670.470349075
53200000006078,53200000006078,Bellingeweer,Bellingeweer,9951AM,9951AM,1,1.0,f,F,,,Winsum,Winsum,725573.650013443,7043633.606102293
53200000006081,53200000006081,Bellingeweer,Bellingeweer,9951AM,9951AM,1,1.0,j,J,,,Winsum,Winsum,725581.372236152,7043593.287905375
53200000006082,53200000006082,Bellingeweer,Bellingeweer,9951AM,9951AM,1,1.0,k,K,,,Winsum,Winsum,725582.8589269372,7043581.540526936
1651200000033217,1651200000033217,Tjalk,Tjalk,9981EH,9981EH,9,9.0,a,A,,,Uithuizen,Uithuizen,743395.8282925186,7057972.017997122
53200000006084,53200000006084,Bellingeweer,Bellingeweer,9951AM,9951AM,1,1.0,n,N,,,Winsum,Winsum,725587.5289604197,7043559.693941607
1651200000031318,1651200000031318,Prof.Dr.M.W.Beyerinckstr,Prof. Dr. M. W. Beyerinckstraat,9989CB,9989CB,8,8.0,,,,,Warffum,Warffum,730251.3944035834,7056654.841743682
1651200000031007,1651200000031007,de Laan,de Laan,9989BB,9989BB,2,2.0,a,A,,,Warffum,Warffum,730045.7847854194,7055535.977893303
1651200000026468,1651200000026468,Brouwerijstraat,Brouwerijstraat,9981JL,9981JL,32,32.0,e,E,,,Uithuizen,Uithuizen,742961.1780525484,7058208.990624486
53200000006073,53200000006073,Bellingeweer,Bellingeweer,9951AM,9951AM,1,1.0,a,A,,,Winsum,Winsum,725544.1070268889,7043667.568638038
53200000006076,53200000006076,Bellingeweer,Bellingeweer,9951AM,9951AM,1,1.0,d,D,,,Winsum,Winsum,725584.2763109384,7043671.960634312
53200000006077,53200000006077,Bellingeweer,Bellingeweer,9951AM,9951AM,1,1.0,e,E,,,Winsum,Winsum,725570.5191105366,7043647.054313908
53200000006083,53200000006083,Bellingeweer,Bellingeweer,9951AM,9951AM,1,1.0,m,M,,,Winsum,Winsum,725587.6864510152,7043569.740542889
1651200000028498,1651200000028498,Koningin Wilhelminastr,Koningin Wilhelminastraat,9982GE,9982GE,11,11.0,,,,,Uithuizermeeden,Uithuizermeeden,749090.5339087055,7059866.848178269
1651200000031314,1651200000031314,Prof.Dr.M.W.Beyerinckstr,Prof. Dr. M. W. Beyerinckstraat,9989CA,9989CA,31,31.0,,,,,Warffum,Warffum,730454.1907219444,7056775.666617332
1651200000026508,1651200000026508,de Laan,de Laan,9981GR,9981GR,80,80.0,b,B,,,Uithuizen,Uithuizen,742395.6953771506,7059900.308739659
1651200000032305,1651200000032305,Albert van der Zielstr,Albert van der Zielstraat,9997PE,9997PE,16,16.0,,,,,Zandeweer,Zandeweer,743572.9062990638,7055055.572196332
1651200000026390,1651200000026390,de Laan,de Laan,9981GN,9981GN,97,97.0,a,A,,,Uithuizen,Uithuizen,742349.3337151374,7060023.652488869
53200000006215,53200000006215,Boendersgang,Boendersgang,9955VM,9955VM,4,4.0,a,A,,,Rasquert,Rasquert,725311.2824446786,7051431.277018119
53200000006216,53200000006216,Boendersgang,Boendersgang,9955VM,9955VM,4,4.0,b,B,,,Rasquert,Rasquert,725304.5679988781,7051429.706095275
53200000006230,53200000006230,Borgweg,Borgweg,9951BB,9951BB,11,11.0,a,A,,,Winsum,Winsum,725801.8385955489,7044013.561222732
53200000006236,53200000006236,Borgweg,Borgweg,9951BG,9951BG,16,16.0,a,A,,,Winsum,Winsum,725710.9590085999,7044078.64265103
1651200000026998,1651200000026998,Havendwarsweg,Havendwarsweg,9981JS,9981JS,27,27.0,a,A,,,Uithuizen,Uithuizen,743117.0677702682,7057985.222575911
1651200000026917,1651200000026917,Havenweg,Havenweg,9981JN,9981JN,17,17.0,b,B,,,Uithuizen,Uithuizen,743158.792592886,7057982.792088884
1651200000026992,1651200000026992,Havendwarsweg,Havendwarsweg,9981JS,9981JS,21,21.0,a,A,,,Uithuizen,Uithuizen,743077.4291468305,7057989.184224856
1651200000030267,1651200000030267,Zijlsterweg,Zijlsterweg,9988RK,9988RK,28,28.0,b,B,,,Usquert,Usquert,736067.782562444,7058470.327639097
1651200000026510,1651200000026510,de Laan,de Laan,9981GR,9981GR,80,80.0,d,D,,,Uithuizen,Uithuizen,742403.2256389379,7059947.166281662
1651200000030813,1651200000030813,Schoolstraat,Schoolstraat,9989AG,9989AG,1,1.0,a,A,,,Warffum,Warffum,730436.1208095071,7055871.784958799
1651200000031159,1651200000031159,Spoorstraat,Spoorstraat,9989BP,9989BP,1,1.0,a,A,,,Warffum,Warffum,730749.8572418236,7055306.407318214
1651200000026244,1651200000026244,Departementsstraat,Departementsstraat,9981GC,9981GC,40,40.0,a,A,,,Uithuizen,Uithuizen,742838.8638448792,7059529.007227483
1651200000026246,1651200000026246,Departementsstraat,Departementsstraat,9981GC,9981GC,40,40.0,c,C,,,Uithuizen,Uithuizen,742839.8620126602,7059539.54023678
1651200000032279,1651200000032279,Albert van der Zielstr,Albert van der Zielstraat,9997PD,9997PD,3,3.0,,,,,Zandeweer,Zandeweer,743458.2599030334,7055007.317872004
1651200000026233,1651200000026233,Departementsstraat,Departementsstraat,9981GC,9981GC,34,34.0,b,B,,,Uithuizen,Uithuizen,742816.7797318944,7059468.182177039
1651200000026044,1651200000026044,Aak,Aak,9981EK,9981EK,13,13.0,f,F,,,Uithuizen,Uithuizen,743474.5202300127,7057877.342354784
1651200000026512,1651200000026512,de Laan,de Laan,9981GR,9981GR,80,80.0,f,F,,,Uithuizen,Uithuizen,742416.1651316243,7060015.745409993
1651200000032290,1651200000032290,Albert van der Zielstr,Albert van der Zielstraat,9997PD,9997PD,25,25.0,,,,,Zandeweer,Zandeweer,743470.6686835027,7055139.59987068
1651200000026394,1651200000026394,de Laan,de Laan,9981GN,9981GN,97,97.0,e,E,,,Uithuizen,Uithuizen,742374.2876241915,7060108.801002455
1651200000026043,1651200000026043,Aak,Aak,9981EK,9981EK,13,13.0,e,E,,,Uithuizen,Uithuizen,743482.9469068819,7057880.546411252
1651200000028829,1651200000028829,Lange Akker,Lange Akker,9982HK,9982HK,1,1.0,c,C,,,Uithuizermeeden,Uithuizermeeden,748870.83074571,7060333.918583339
1651200000028504,1651200000028504,Koningin Wilhelminastr,Koningin Wilhelminastraat,9982GE,9982GE,6,6.0,,,,,Uithuizermeeden,Uithuizermeeden,749004.8941157731,7059853.344831257
1651200000031590,1651200000031590,Juffer Marthastraat,Juffer Marthastraat,9989EH,9989EH,26,26.0,a,A,,,Warffum,Warffum,729681.0012194704,7056305.2315950785
1651200000026707,1651200000026707,Lageweg,Lageweg,9981HE,9981HE,2,2.0,b,B,,,Uithuizen,Uithuizen,740831.0811017394,7059090.68665119
1651200000031304,1651200000031304,Prof.Dr.M.W.Beyerinckstr,Prof. Dr. M. W. Beyerinckstraat,9989CA,9989CA,11,11.0,,,,,Warffum,Warffum,730319.2745196719,7056712.447538499
1651200000026047,1651200000026047,Aak,Aak,9981EK,9981EK,13,13.0,i,I,,,Uithuizen,Uithuizen,743445.2327379916,7057830.889345407
1651200000031327,1651200000031327,Prof Dr M W Beyerinckstr,Prof. Dr. M. W. Beyerinckstraat,9989CB,9989CB,34,34.0,,,,,Warffum,Warffum,730435.0212367328,7056729.007611584
53200000007181,53200000007181,Gebr Gootjesstraat,Gebr Gootjesstraat,9953PW,9953PW,12,12.0,a,A,,,Baflo,Baflo,724821.4509303671,7050371.115476546
53200000007182,53200000007182,Gebr Gootjesstraat,Gebr Gootjesstraat,9953PW,9953PW,12,12.0,b,B,,,Baflo,Baflo,724815.0508569693,7050389.654559489
1651200000026514,1651200000026514,de Laan,de Laan,9981GR,9981GR,80,80.0,h,H,,,Uithuizen,Uithuizen,742430.480246878,7060067.5173204355
53200000007196,53200000007196,Gebr Gootjesstraat,Gebr Gootjesstraat,9953PV,9953PV,29,29.0,a,A,,,Baflo,Baflo,725037.348185521,7050168.2594738575
53200000007198,53200000007198,Gebr Gootjesstraat,Gebr Gootjesstraat,9953PV,9953PV,31,31.0,a,A,,,Baflo,Baflo,725002.2928172005,7050172.1617201
53200000007199,53200000007199,Gebr Gootjesstraat,Gebr Gootjesstraat,9953PV,9953PV,31,31.0,b,B,,,Baflo,Baflo,724990.6425556821,7050175.696845737
1651200000031303,1651200000031303,Prof.Dr.M.W.Beyerinckstr,Prof. Dr. M. W. Beyerinckstraat,9989CA,9989CA,9,9.0,,,,,Warffum,Warffum,730297.3873339926,7056704.4174457
1651200000032237,1651200000032237,Trekweg,Trekweg,9997PA,9997PA,28,28.0,a,A,,,Zandeweer,Zandeweer,742946.1643611809,7055846.807566765
1651200000028814,1651200000028814,Lijnbaan,Lijnbaan,9982HJ,9982HJ,6,6.0,a,A,,,Uithuizermeeden,Uithuizermeeden,748666.1684643631,7060366.529444785
1651200000026396,1651200000026396,de Laan,de Laan,9981GN,9981GN,97,97.0,g,G,,,Uithuizen,Uithuizen,742388.8412785134,7060173.9960347945
1651200000030996,1651200000030996,de Laan,de Laan,9989BB,9989BB,19,19.0,a,A,,,Warffum,Warffum,729804.9998429389,7055340.301439262
1651200000033152,1651200000033152,Provincialeweg,Provincialeweg,9988NX,9988NX,2,2.0,a,A,,,Usquert,Usquert,735962.54488567,7057110.17520473
1651200000031326,1651200000031326,Prof Dr M W Beyerinckstr,Prof. Dr. M. W. Beyerinckstraat,9989CB,9989CB,32,32.0,,,,,Warffum,Warffum,730426.5462912156,7056722.435934584
1651200000033723,1651200000033723,Zuiderstraat,Zuiderstraat,9981JE,,29,29.0,a,A,,,Uithuizen,Uithuizen,743068.079674076,7058499.677588523
53200000007479,53200000007479,Haven,Haven,9951ED,9951ED,1,1.0,a,A,,,Winsum,Winsum,725483.0557934557,7044676.863426396
53200000007513,53200000007513,Heerestraat,Heerestraat,9953PH,9953PH,1,1.0,a,A,,,Baflo,Baflo,725388.9258771472,7050622.033182491
53200000007514,53200000007514,Heerestraat,Heerestraat,9953PH,9953PH,1,1.0,b,B,,,Baflo,Baflo,725400.3666945568,7050605.090102306
53200000007518,53200000007518,Heerestraat,Heerestraat,9953PH,9953PH,1,1.0,f,F,,,Baflo,Baflo,725395.2198544346,7050596.789532771
1651200000030098,1651200000030098,Provincialeweg,Provincialeweg,9988NX,9988NX,17,17.0,b,B,,,Usquert,Usquert,735905.7183162714,7057206.325089427
53200000007519,53200000007519,Heerestraat,Heerestraat,9953PH,9953PH,1,1.0,g,G,,,Baflo,Baflo,725388.6110372462,7050601.922417128
1651200000028828,1651200000028828,Lange Akker,Lange Akker,9982HK,9982HK,1,1.0,b,B,,,Uithuizermeeden,Uithuizermeeden,748879.3594582393,7060338.480611358
53200000007548,53200000007548,Heerestraat,Heerestraat,9953PH,9953PH,31,31.0,a,A,,,Baflo,Baflo,724933.543580308,7050481.669480763
53200000007549,53200000007549,Heerestraat,Heerestraat,9953PH,9953PH,31,31.0,b,B,,,Baflo,Baflo,724925.2626999352,7050486.828113313
1651200000026918,1651200000026918,Havenweg,Havenweg,9981JN,9981JN,17,17.0,c,C,,,Uithuizen,Uithuizen,743152.418852192,7057983.094478299
1651200000028833,1651200000028833,Lange Akker,Lange Akker,9982HK,9982HK,1,1.0,g,G,,,Uithuizermeeden,Uithuizermeeden,748861.5111562274,7060349.235092657
1651200000028787,1651200000028787,Oudedijksterweg,Oudedijksterweg,9982HE,9982HE,14,14.0,a,A,,,Uithuizermeeden,Uithuizermeeden,748474.0731180069,7060210.663608729
53200000007674,53200000007674,Hoofdstraat O,Hoofdstraat O,9951AH,9951AH,14,14.0,a,A,,,Winsum,Winsum,725253.6894104662,7044863.0556786815
53200000011967,53200000011967,Hoofdstraat O,Hoofdstraat O,9951AG,9951AG,17,17.0,a,A,,,Winsum,Winsum,725217.6671964419,7044910.524897678
1651200000028753,1651200000028753,Oudedijksterweg,Oudedijksterweg,9982HC,9982HC,1,1.0,b,B,,,Uithuizermeeden,Uithuizermeeden,748565.9878630869,7059984.328582558
53200000007701,53200000007701,Hoofdstraat W,Hoofdstraat W,9951AA,9951AA,5,5.0,a,A,,,Winsum,Winsum,725225.7232728287,7044677.559287519
1651200000033398,1651200000033398,Streeksterweg,Streeksterweg,9988RC,9988RC,8,8.0,b,B,,,Usquert,Usquert,736441.5937894545,7058001.607885186
1651200000030266,1651200000030266,Zijlsterweg,Zijlsterweg,9988RK,9988RK,28,28.0,a,A,,,Usquert,Usquert,736063.6091057583,7058421.737916831
1651200000027714,1651200000027714,Heerdweg,Heerdweg,9981TA,9981TA,3,3.0,a,A,,,Uithuizen,Uithuizen,744420.8078982147,7057444.154528864
1651200000029819,1651200000029819,Buitenweg,Buitenweg,9984NS,9984NS,2,2.0,a,A,,,Oudeschip,Oudeschip,760292.9465219269,7061188.60047976
1651200000026080,1651200000026080,Aak,Aak,9981EL,9981EL,12,12.0,a,A,,,Uithuizen,Uithuizen,743443.3280034432,7057911.461099202
1651200000029960,1651200000029960,Oosternielandsterweg,Oosternielandsterweg,9985SC,9985SC,26,26.0,b,B,,,Oosternieland,Oosternieland,751913.8274722801,7057938.130381898
1651200000027418,1651200000027418,Hiddingariep,Hiddingariep,9981KT,9981KT,1,1.0,b,B,,,Uithuizen,Uithuizen,742087.0542711508,7058075.016833712
1651200000029605,1651200000029605,Ubbegalaan,Ubbegalaan,9983PZ,9983PZ,1,1.0,b,B,,,Roodeschool,Roodeschool,753388.7018543063,7061104.545225992
1651200000033667,1651200000033667,Heerdweg,Heerdweg,9981TA,9981TA,5,5.0,b,B,,,Uithuizen,Uithuizen,744593.8494269302,7057366.6790140495
1651200000030778,1651200000030778,Oosterstraat,Oosterstraat,9989AD,9989AD,10,10.0,b,B,,,Warffum,Warffum,730896.8701581858,7055803.844664546
1651200000032949,1651200000032949,Hooilandseweg,Hooilandseweg,9983PE,9983PE,46,46.0,a,A,,,Roodeschool,Roodeschool,753231.4612698407,7061006.611050193
1651200000025174,1651200000025174,Hoofdstraat-Oost,Hoofdstraat-Oost,9981AH,9981AH,24,24.0,a,A,,,Uithuizen,Uithuizen,743138.3579240129,7058603.051235503
1651200000025159,1651200000025159,Hoofdstraat-Oost,Hoofdstraat-Oost,9981AG,9981AG,37,37.0,b,B,,,Uithuizen,Uithuizen,743181.4365411103,7058617.550857415
1651200000031320,1651200000031320,Prof.Dr.M.W.Beyerinckstr,Prof. Dr. M. W. Beyerinckstraat,9989CB,9989CB,20,20.0,,,,,Warffum,Warffum,730342.207051177,7056681.875975445
53200000011293,53200000011293,Van Inn en Kniphuizenln,Van Inn en Kniphuizenlaan,9955VE,9955VE,1,1.0,,,,,Rasquert,Rasquert,725435.114114752,7051008.543818643
1651200000031119,1651200000031119,Kalverstraat,Kalverstraat,9989BK,9989BK,10,10.0,a,A,,,Warffum,Warffum,730203.8444754278,7055686.037151694
1651200000029778,1651200000029778,Zuster Kortestraat,Zuster Kortestraat,9983SX,9983SX,20,20.0,a,A,,,Roodeschool,Roodeschool,753399.1436247083,7060802.332568651
1651200000026692,1651200000026692,Lageweg,Lageweg,9981HC,9981HC,49,49.0,c,C,,,Uithuizen,Uithuizen,740811.9136416207,7059523.989529264
1651200000025684,1651200000025684,Noorderstraat,Noorderstraat,9981CL,,21,21.0,a,A,,,Uithuizen,Uithuizen,743321.1060896318,7058692.96500175
1651200000028053,1651200000028053,Burchtstraat,Burchtstraat,9982AP,9982AP,2,2.0,a,A,,,Uithuizermeeden,Uithuizermeeden,748301.6239808032,7059759.049829444
1651200000026398,1651200000026398,de Laan,de Laan,9981GN,9981GN,97,97.0,i,I,,,Uithuizen,Uithuizen,742397.9859110421,7060217.469634905
1651200000025226,1651200000025226,Schoolstraat,Schoolstraat,9981AL,9981AL,23,23.0,a,A,,,Uithuizen,Uithuizen,742826.6353917198,7058904.150199913
1651200000027895,1651200000027895,Hoofdstraat,Hoofdstraat,9982AD,9982AD,137,137.0,a,A,,,Uithuizermeeden,Uithuizermeeden,748997.0830993841,7060333.496540942
1651200000032880,1651200000032880,Heerdweg,Heerdweg,9981TA,9981TA,7,7.0,a,A,,,Uithuizen,Uithuizen,745612.7821432054,7056590.641538702
1651200000031569,1651200000031569,Juffer Marthastraat,Juffer Marthastraat,9989EG,9989EG,24,24.0,a,A,,,Warffum,Warffum,729775.0226294145,7056278.456508917
53200000008231,53200000008231,Kerkpad,Kerkpad,9951EP,9951EP,1,1.0,a,A,,,Winsum,Winsum,725045.8465264046,7044929.972927652
1651200000029535,1651200000029535,Westerdijkstraat,Westerdijkstraat,9983PR,9983PR,1,1.0,a,A,,,Roodeschool,Roodeschool,753147.7115347453,7061725.235597257
1651200000026397,1651200000026397,de Laan,de Laan,9981GN,9981GN,97,97.0,h,H,,,Uithuizen,Uithuizen,742394.2803159493,7060197.39566783
1651200000026039,1651200000026039,Aak,Aak,9981EK,9981EK,13,13.0,a,A,,,Uithuizen,Uithuizen,743515.0404704991,7057896.747343564
53200000012198,53200000012198,Kerkstraat,Kerkstraat,9951AD,9951AD,17,17.0,a,A,,,Winsum,Winsum,725655.6212431379,7044598.767422714
53200000008270,53200000008270,Kerspel,Kerspel,9951VC,9951VC,1,1.0,a,A,,,Winsum,Winsum,726849.8570510278,7043296.861907467
53200000008273,53200000008273,Kerspel,Kerspel,9951VC,9951VC,3,3.0,a,A,,,Winsum,Winsum,726834.3467115937,7043266.96240785
53200000008276,53200000008276,Kerspel,Kerspel,9951VC,9951VC,5,5.0,a,A,,,Winsum,Winsum,726817.1661436337,7043237.089555594
1651200000026234,1651200000026234,Departementsstraat,Departementsstraat,9981GC,9981GC,34,34.0,c,C,,,Uithuizen,Uithuizen,742820.6443234008,7059477.039254634
53200000008308,53200000008308,Kerspel,Kerspel,9951VB,9951VB,44,44.0,a,A,,,Winsum,Winsum,726843.1753387754,7043402.4809413925
1651200000025151,1651200000025151,Hoofdstraat-Oost,Hoofdstraat-Oost,9981AG,9981AG,25,25.0,a,A,,,Uithuizen,Uithuizen,743092.1179631072,7058677.885628001
53200000008310,53200000008310,Kerspel,Kerspel,9951VB,9951VB,46,46.0,a,A,,,Winsum,Winsum,726841.6375058588,7043410.879491567
53200000008312,53200000008312,Kerspel,Kerspel,9951VB,9951VB,48,48.0,a,A,,,Winsum,Winsum,726838.4292875953,7043419.304622656
53200000008314,53200000008314,Kerspel,Kerspel,9951VB,9951VB,50,50.0,a,A,,,Winsum,Winsum,726836.9709714187,7043432.726390449
53200000008316,53200000008316,Kerspel,Kerspel,9951VB,9951VB,52,52.0,a,A,,,Winsum,Winsum,726832.03933827,7043437.829309197
1651200000033483,1651200000033483,Hoofdstraat-West,Hoofdstraat-West,9981AA,9981AA,49,49.0,a,A,,,Uithuizen,Uithuizen,742477.9985603376,7058805.877927371
1651200000030367,1651200000030367,Hoofdstraat,Hoofdstraat,9988RT,9988RT,2,2.0,d,D,,,Usquert,Usquert,736120.7991002543,7057551.625278307
1651200000028974,1651200000028974,Smitsweg,Smitsweg,9982HT,9982HT,42,42.0,a,A,,,Uithuizermeeden,Uithuizermeeden,749298.7952042086,7061967.806211433
1651200000032278,1651200000032278,Albert van der Zielstr,Albert van der Zielstraat,9997PD,9997PD,1,1.0,,,,,Zandeweer,Zandeweer,743458.1097601792,7054998.934235312
1651200000030269,1651200000030269,Zijlsterweg,Zijlsterweg,9988RK,9988RK,30,30.0,a,A,,,Usquert,Usquert,736061.6871603847,7058505.669134329
1651200000032904,1651200000032904,Oosterkerkpad,Oosterkerkpad,9989AH,9989AH,7,7.0,a,A,,,Warffum,Warffum,730630.6158738637,7055726.0189346485
1651200000030021,1651200000030021,Paaptilsterweg,Paaptilsterweg,9986XP,9986XP,23,23.0,b,B,,,Oldenzijl,Oldenzijl,748406.9016988889,7056406.122080785
1651200000032288,1651200000032288,Albert van der Zielstr,Albert van der Zielstraat,9997PD,9997PD,21,21.0,,,,,Zandeweer,Zandeweer,743465.230016067,7055116.215635179
1651200000026050,1651200000026050,Aak,Aak,9981EK,9981EK,13,13.0,l,L,,,Uithuizen,Uithuizen,743420.9955117572,7057786.023483315
1651200000026078,1651200000026078,Aak,Aak,9981EL,9981EL,10,10.0,a,A,,,Uithuizen,Uithuizen,743470.3415408003,7057924.3979359865
1651200000031301,1651200000031301,Prof.Dr.M.W.Beyerinckstr,Prof. Dr. M. W. Beyerinckstraat,9989CA,9989CA,5,5.0,,,,,Warffum,Warffum,730260.4420110021,7056696.633422733
1651200000029781,1651200000029781,Zuster Kortestraat,Zuster Kortestraat,9983SX,9983SX,22,22.0,b,B,,,Roodeschool,Roodeschool,753360.6812600158,7060825.022422079
1651200000031324,1651200000031324,Prof.Dr.M.W.Beyerinckstr,Prof. Dr. M. W. Beyerinckstraat,9989CB,9989CB,28,28.0,,,,,Warffum,Warffum,730399.503023936,7056706.102538675
1651200000032876,1651200000032876,Emmaweg,Emmaweg,9981VB,9981VB,16,16.0,a,A,,,Uithuizen,Uithuizen,746940.7847555361,7065627.572156612
1651200000030868,1651200000030868,Hoofdstraat,Hoofdstraat,9989AN,9989AN,34,34.0,a,A,,,Warffum,Warffum,730539.4726430816,7055641.967691619
1651200000029598,1651200000029598,Ripperdahof,Ripperdahof,9983PX,9983PX,4,4.0,a,A,,,Roodeschool,Roodeschool,753304.3907504642,7061161.559948754
1651200000032884,1651200000032884,Hoofdstraat-West,Hoofdstraat-West,,,133,133.0,a,A,,,Uithuizen,Uithuizen,741911.9298805055,7058883.726317278
1651200000026049,1651200000026049,Aak,Aak,9981EK,9981EK,13,13.0,k,K,,,Uithuizen,Uithuizen,743429.632323855,7057800.968715288
1651200000031306,1651200000031306,Prof.Dr.M.W.Beyerinckstr,Prof. Dr. M. W. Beyerinckstraat,9989CA,9989CA,15,15.0,,,,,Warffum,Warffum,730347.9361872926,7056725.399563291
1651200000028499,1651200000028499,Koningin Wilhelminastr,Koningin Wilhelminastraat,9982GE,9982GE,13,13.0,,,,,Uithuizermeeden,Uithuizermeeden,749102.1873689882,7059863.273622255
1651200000028752,1651200000028752,Oudedijksterweg,Oudedijksterweg,9982HC,9982HC,1,1.0,a,A,,,Uithuizermeeden,Uithuizermeeden,748578.8225802131,7059990.527391267
1651200000031195,1651200000031195,Cronjestraat,Cronjestraat,9989BS,9989BS,1,1.0,a,A,,,Warffum,Warffum,730687.5480362927,7055384.585305096
1651200000029315,1651200000029315,Hooilandseweg,Hooilandseweg,9983PB,9983PB,89,89.0,a,A,,,Roodeschool,Roodeschool,753734.7085819258,7060862.603876961
1651200000031299,1651200000031299,Prof.Dr.M.W.Beyerinckstr,Prof. Dr. M. W. Beyerinckstraat,9989CA,9989CA,1,1.0,,,,,Warffum,Warffum,730118.2803069481,7056702.310792893
53200000008813,53200000008813,Marijkelaan,Marijkelaan,9953SB,9953SB,31,31.0,a,A,,,Baflo,Baflo,725371.3709895482,7049821.071989427
53200000008814,53200000008814,Marijkelaan,Marijkelaan,9953SB,9953SB,31,31.0,b,B,,,Baflo,Baflo,725362.9861598861,7049819.527715501
53200000008821,53200000008821,Marijkelaan,Marijkelaan,9953SB,9953SB,37,37.0,a,A,,,Baflo,Baflo,725235.5213474862,7049901.986692913
53200000008824,53200000008824,Marijkelaan,Marijkelaan,9953SB,9953SB,39,39.0,a,A,,,Baflo,Baflo,725202.3485381987,7049919.269437734
53200000008825,53200000008825,Marijkelaan,Marijkelaan,9953SB,9953SB,39,39.0,b,B,,,Baflo,Baflo,725190.6987324551,7049922.80474215
53200000008826,53200000008826,Marijkelaan,Marijkelaan,9953SB,9953SB,39,39.0,c,C,,,Baflo,Baflo,725172.335755532,7049924.769284369
53200000008827,53200000008827,Marijkelaan,Marijkelaan,9953SB,9953SB,39,39.0,d,D,,,Baflo,Baflo,725160.6597422305,7049926.628791611
1651200000031322,1651200000031322,Prof.Dr.M.W.Beyerinckstr,Prof. Dr. M. W. Beyerinckstraat,9989CB,9989CB,24,24.0,,,,,Warffum,Warffum,730375.8334290996,7056691.391484175
1651200000027847,1651200000027847,Hoofdstraat,Hoofdstraat,9982AA,9982AA,19,19.0,a,A,,,Uithuizermeeden,Uithuizermeeden,747016.683787227,7059351.5478896545
53200000008889,53200000008889,Meander,Meander,9951VD,9951VD,1,1.0,a,A,,,Winsum,Winsum,726556.1995992155,7043110.604054965
53200000008892,53200000008892,Meander,Meander,9951VD,9951VD,3,3.0,a,A,,,Winsum,Winsum,726553.0176473107,7043120.703096053
1651200000033724,1651200000033724,Zuiderstraat,Zuiderstraat,9981JE,,29,29.0,b,B,,,Uithuizen,Uithuizen,743072.7457617673,7058497.279885215
53200000008895,53200000008895,Meander,Meander,9951VD,9951VD,5,5.0,a,A,,,Winsum,Winsum,726551.5060108651,7043130.775637622
53200000008898,53200000008898,Meander,Meander,9951VD,9951VD,7,7.0,a,A,,,Winsum,Winsum,726544.9569479269,7043139.253381018
1651200000029718,1651200000029718,Tilweg,Tilweg,9983SR,9983SR,8,8.0,a,A,,,Roodeschool,Roodeschool,752630.9302427219,7060795.134030092
1651200000031305,1651200000031305,Prof.Dr.M.W.Beyerinckstr,Prof. Dr. M. W. Beyerinckstraat,9989CA,9989CA,13,13.0,,,,,Warffum,Warffum,730331.0683437764,7056717.287457403
53200000008901,53200000008901,Meander,Meander,9951VD,9951VD,9,9.0,a,A,,,Winsum,Winsum,726545.0891790139,7043147.62509146
1651200000026048,1651200000026048,Aak,Aak,9981EK,9981EK,13,13.0,j,J,,,Uithuizen,Uithuizen,743436.5057516457,7057810.912140414
53200000008931,53200000008931,Meander,Meander,9951VG,9951VG,38,38.0,a,A,,,Winsum,Winsum,726806.0575364415,7043168.600465922
1651200000027923,1651200000027923,Hoofdstraat,Hoofdstraat,9982AG,9982AG,2,2.0,a,A,,,Uithuizermeeden,Uithuizermeeden,746638.6163961593,7059093.363339169
53200000008937,53200000008937,Meander,Meander,9951VG,9951VG,42,42.0,a,A,,,Winsum,Winsum,726787.8163883524,7043177.264389769
1651200000031328,1651200000031328,Prof.Dr.M.W.Beyerinckstr,Prof. Dr. M. W. Beyerinckstraat,9989CB,9989CB,36,36.0,,,,,Warffum,Warffum,730445.1146972926,7056732.19760636
53200000008943,53200000008943,Meander,Meander,9951VG,9951VG,46,46.0,a,A,,,Winsum,Winsum,726771.2190411538,7043184.227374637
53200000008957,53200000008957,Meander,Meander,9951VG,9951VG,64,64.0,a,A,,,Winsum,Winsum,726680.3037615406,7043245.964330046
53200000008959,53200000008959,Meander,Meander,9951VG,9951VG,66,66.0,a,A,,,Winsum,Winsum,726673.7282681521,7043252.767935361
53200000008961,53200000008961,Meander,Meander,9951VG,9951VG,68,68.0,a,A,,,Winsum,Winsum,726662.062301183,7043254.628051401
53200000008963,53200000008963,Meander,Meander,9951VG,9951VG,70,70.0,a,A,,,Winsum,Winsum,726652.119615894,7043259.810349242
53200000008965,53200000008965,Meander,Meander,9951VG,9951VG,72,72.0,a,A,,,Winsum,Winsum,726643.8208013262,7043263.291740608
53200000008977,53200000008977,Meeden,Meeden,9951HW,9951HW,7,7.0,a,A,,,Winsum,Winsum,726774.1816857149,7043793.819870037
53200000008979,53200000008979,Meeden,Meeden,9951HW,9951HW,9,9.0,a,A,,,Winsum,Winsum,726780.439558286,7043766.922054331
1651200000032299,1651200000032299,Albert van der Zielstr,Albert van der Zielstraat,9997PE,9997PE,4,4.0,,,,,Zandeweer,Zandeweer,743501.9608411412,7055018.272241729
1651200000032291,1651200000032291,Albert van der Zielstr,Albert van der Zielstraat,9997PD,9997PD,27,27.0,,,,,Zandeweer,Zandeweer,743470.8188428613,7055147.983653227
1651200000032306,1651200000032306,Albert van der Zielstr,Albert van der Zielstraat,9997PE,9997PE,18,18.0,,,,,Zandeweer,Zandeweer,743584.6153941107,7055055.361314019
1651200000031790,1651200000031790,Noordpolder,Noordpolder,9989TE,9989TE,4,4.0,a,A,,,Warffum,Warffum,729087.1330790677,7060011.1781807225
1651200000033655,1651200000033655,Schoolstraat,Schoolstraat,9988RV,9988RV,2,2.0,a,A,,,Usquert,Usquert,736048.3060628361,7057919.811587144
53200000009065,53200000009065,Meijmaweg,Meijmaweg,9955VC,9955VC,21,21.0,a,A,,,Rasquert,Rasquert,725421.874322766,7051444.6259389175
1651200000031934,1651200000031934,Pastorieweg,Pastorieweg,9995PM,9995PM,1,1.0,a,A,,,Kantens,Kantens,738396.1182621381,7050618.052193273
53200000009938,53200000009938,Prof Dr G vd Molenstr,Prof Dr Geziena van der Molenstraat,9953SK,9953SK,1,1.0,,,,,Baflo,Baflo,725420.6041954199,7049761.632625613
53200000009939,53200000009939,Prof Dr G vd Molenstr,Prof Dr Geziena van der Molenstraat,9953SK,9953SK,2,2.0,,,,,Baflo,Baflo,725373.7439141539,7049759.017523485
53200000009940,53200000009940,Prof Dr G vd Molenstr,Prof Dr Geziena van der Molenstraat,9953SK,9953SK,3,3.0,,,,,Baflo,Baflo,725418.6963338582,7049746.577458569
53200000009941,53200000009941,Prof Dr G vd Molenstr,Prof Dr Geziena van der Molenstraat,9953SK,9953SK,4,4.0,,,,,Baflo,Baflo,725371.9148295001,7049748.989502092
53200000009942,53200000009942,Prof Dr G vd Molenstr,Prof Dr Geziena van der Molenstraat,9953SK,9953SK,5,5.0,,,,,Baflo,Baflo,725423.4490452089,7049729.741395286
53200000009943,53200000009943,Prof Dr G vd Molenstr,Prof Dr Geziena van der Molenstraat,9953SK,9953SK,6,6.0,,,,,Baflo,Baflo,725368.2566740615,7049728.933495372
53200000009944,53200000009944,Prof Dr G vd Molenstr,Prof Dr Geziena van der Molenstraat,9953SK,9953SK,7,7.0,,,,,Baflo,Baflo,725423.3178444745,7049721.362830832
53200000009945,53200000009945,Prof Dr G vd Molenstr,Prof Dr Geziena van der Molenstraat,9953SK,9953SK,8,8.0,,,,,Baflo,Baflo,725363.0842051201,7049718.958091731
53200000009946,53200000009946,Prof Dr G vd Molenstr,Prof Dr Geziena van der Molenstraat,9953SK,9953SK,9,9.0,,,,,Baflo,Baflo,725419.7907701556,7049709.685460543
53200000009947,53200000009947,Prof Dr G vd Molenstr,Prof Dr Geziena van der Molenstraat,9953SK,9953SK,10,10.0,,,,,Baflo,Baflo,725357.9379754928,7049710.658406917
53200000009948,53200000009948,Prof Dr G vd Molenstr,Prof Dr Geziena van der Molenstraat,9953SK,9953SK,11,11.0,,,,,Baflo,Baflo,725417.9878784767,7049701.333218913
1651200000028081,1651200000028081,Grote Hadderstraat,Grote Hadderstraat,9982AR,9982AR,2,2.0,f,F,,,Uithuizermeeden,Uithuizermeeden,747819.2043312051,7059730.482713483
53200000009949,53200000009949,Prof Dr G vd Molenstr,Prof Dr Geziena van der Molenstraat,9953SK,9953SK,12,12.0,,,,,Baflo,Baflo,725357.8330698791,7049703.955569403
53200000009950,53200000009950,Prof Dr G vd Molenstr,Prof Dr Geziena van der Molenstraat,9953SK,9953SK,13,13.0,,,,,Baflo,Baflo,725412.7628902678,7049688.006470806
53200000009951,53200000009951,Prof Dr G vd Molenstr,Prof Dr Geziena van der Molenstraat,9953SK,9953SK,14,14.0,,,,,Baflo,Baflo,725311.1242783203,7049604.123338778
53200000009952,53200000009952,Prof Dr G vd Molenstr,Prof Dr Geziena van der Molenstraat,9953SK,9953SK,15,15.0,,,,,Baflo,Baflo,725410.9600108605,7049679.654249975
1651200000025232,1651200000025232,Schoolstraat,Schoolstraat,9981AL,9981AL,29,29.0,a,A,,,Uithuizen,Uithuizen,742799.1598588882,7058914.90727656
53200000009953,53200000009953,Prof Dr G vd Molenstr,Prof Dr Geziena van der Molenstraat,9953SK,9953SK,16,16.0,,,,,Baflo,Baflo,725304.3065026643,7049595.850015888
53200000009954,53200000009954,Prof Dr G vd Molenstr,Prof Dr Geziena van der Molenstraat,9953SK,9953SK,17,17.0,,,,,Baflo,Baflo,725412.5005131686,7049671.249436808
53200000009955,53200000009955,Prof Dr G vd Molenstr,Prof Dr Geziena van der Molenstraat,9953SK,9953SK,18,18.0,,,,,Baflo,Baflo,725299.1604130825,7049587.5504192095
53200000009956,53200000009956,Prof Dr G vd Molenstr,Prof Dr Geziena van der Molenstraat,9953SK,9953SK,19,19.0,,,,,Baflo,Baflo,725409.0259506484,7049662.923533288
53200000009957,53200000009957,Prof Dr G vd Molenstr,Prof Dr Geziena van der Molenstraat,9953SK,9953SK,20,20.0,,,,,Baflo,Baflo,725290.6447816999,7049577.627695017
53200000009958,53200000009958,Prof Dr G vd Molenstr,Prof Dr Geziena van der Molenstraat,9953SK,9953SK,21,21.0,,,,,Baflo,Baflo,725353.774857064,7049551.493807491
53200000009959,53200000009959,Prof Dr G vd Molenstr,Prof Dr Geziena van der Molenstraat,9953SK,9953SK,22,22.0,,,,,Baflo,Baflo,725287.1441751652,7049567.626153502
53200000009960,53200000009960,Prof Dr G vd Molenstr,Prof Dr Geziena van der Molenstraat,9953SK,9953SK,23,23.0,,,,,Baflo,Baflo,725362.3167650028,7049563.092111296
53200000009961,53200000009961,Prof Dr G vd Molenstr,Prof Dr Geziena van der Molenstraat,9953SK,9953SK,24,24.0,,,,,Baflo,Baflo,725283.6959979889,7049560.975980738
53200000009963,53200000009963,Prof Dr G vd Molenstr,Prof Dr Geziena van der Molenstraat,9953SK,9953SK,25,25.0,,,,,Baflo,Baflo,725370.8849262084,7049576.366104486
53200000009964,53200000009964,Prof Dr G vd Molenstr,Prof Dr Geziena van der Molenstraat,9953SK,9953SK,26,26.0,,,,,Baflo,Baflo,725294.1394659855,7049480.359857746
53200000009965,53200000009965,Prof Dr G vd Molenstr,Prof Dr Geziena van der Molenstraat,9953SK,9953SK,27,27.0,,,,,Baflo,Baflo,725379.4006550065,7049586.2887411835
53200000009966,53200000009966,Prof Dr G vd Molenstr,Prof Dr Geziena van der Molenstraat,9953SK,9953SK,28,28.0,,,,,Baflo,Baflo,725326.4251862857,7049513.373883625
53200000009967,53200000009967,Prof Dr G vd Molenstr,Prof Dr Geziena van der Molenstraat,9953SK,9953SK,29,29.0,,,,,Baflo,Baflo,725389.6405434189,7049599.536458607
53200000009968,53200000009968,Prof Dr G vd Molenstr,Prof Dr Geziena van der Molenstraat,9953SK,9953SK,30,30.0,,,,,Baflo,Baflo,725336.3764614868,7049508.189179628
53200000009969,53200000009969,Prof Dr G vd Molenstr,Prof Dr Geziena van der Molenstraat,9953SK,9953SK,31,31.0,,,,,Baflo,Baflo,725396.484643846,7049609.4854007885
53200000009970,53200000009970,Prof Dr G vd Molenstr,Prof Dr Geziena van der Molenstraat,9953SK,9953SK,32,32.0,,,,,Baflo,Baflo,725354.5810952912,7049496.170366876
53200000009971,53200000009971,Prof Dr G vd Molenstr,Prof Dr Geziena van der Molenstraat,9953SK,9953SK,33,33.0,,,,,Baflo,Baflo,725403.3025257521,7049617.75865853
53200000009972,53200000009972,Prof Dr G vd Molenstr,Prof Dr Geziena van der Molenstraat,9953SK,9953SK,34,34.0,,,,,Baflo,Baflo,725364.506104014,7049489.309974792
53200000009973,53200000009973,Prof Dr G vd Molenstr,Prof Dr Geziena van der Molenstraat,9953SK,9953SK,35,35.0,,,,,Baflo,Baflo,725441.6461391284,7049610.450942633
53200000009974,53200000009974,Prof Dr G vd Molenstr,Prof Dr Geziena van der Molenstraat,9953SK,9953SK,37,37.0,,,,,Baflo,Baflo,725436.4736562215,7049600.475733029
53200000009975,53200000009975,Prof Dr G vd Molenstr,Prof Dr Geziena van der Molenstraat,9953SK,9953SK,39,39.0,,,,,Baflo,Baflo,725431.301186206,7049590.500532339
53200000009976,53200000009976,Prof Dr G vd Molenstr,Prof Dr Geziena van der Molenstraat,9953SK,9953SK,41,41.0,,,,,Baflo,Baflo,725422.8116284561,7049582.253629039
53200000009977,53200000009977,Prof Dr G vd Molenstr,Prof Dr Geziena van der Molenstraat,9953SK,9953SK,43,43.0,,,,,Baflo,Baflo,725417.6654255191,7049573.954123164
53200000009978,53200000009978,Prof Dr G vd Molenstr,Prof Dr Geziena van der Molenstraat,9953SK,9953SK,45,45.0,,,,,Baflo,Baflo,725410.8213294151,7049564.005242912
53200000009979,53200000009979,Prof Dr G vd Molenstr,Prof Dr Geziena van der Molenstraat,9953SK,9953SK,47,47.0,,,,,Baflo,Baflo,725404.0297210737,7049557.407724412
53200000009980,53200000009980,Prof Dr G vd Molenstr,Prof Dr Geziena van der Molenstraat,9953SK,9953SK,49,49.0,,,,,Baflo,Baflo,725395.540226338,7049549.160825673
53200000009981,53200000009981,Prof Dr G vd Molenstr,Prof Dr Geziena van der Molenstraat,9953SK,9953SK,51,51.0,,,,,Baflo,Baflo,725387.0245172548,7049539.238251734
53200000009092,53200000009092,Molenstreek,Molenstreek,9773TJ,9773TJ,3,3.0,a,A,,,Wetsinge,Wetsinge,727159.6954658221,7038818.116949353
53200000009104,53200000009104,Molenweg,Molenweg,9774PG,9774PG,7,7.0,a,A,,,Adorp,Adorp,727673.162395313,7034154.561612634
1651200000026267,1651200000026267,Kwekersweg,Kwekersweg,9981GE,9981GE,5,5.0,a,A,,,Uithuizen,Uithuizen,743448.0291942264,7059575.997774553
1651200000026511,1651200000026511,de Laan,de Laan,9981GR,9981GR,80,80.0,e,E,,,Uithuizen,Uithuizen,742415.6579390672,7059987.22329424
53200000009195,53200000009195,Netlaan,Netlaan,9951SG,9951SG,1,1.0,a,A,,,Winsum,Winsum,727546.7067945054,7044459.86095435
1651200000025100,1651200000025100,Hoofdstraat-West,Hoofdstraat-West,9981AD,9981AD,10,10.0,a,A,,,Uithuizen,Uithuizen,742783.0621164856,7058769.7393492265
1651200000026393,1651200000026393,de Laan,de Laan,9981GN,9981GN,97,97.0,d,D,,,Uithuizen,Uithuizen,742370.5821398647,7060088.72729427
1651200000030773,1651200000030773,Oosterstraat,Oosterstraat,9989AD,9989AD,2,2.0,a,A,,,Warffum,Warffum,730684.7011026184,7055620.29810086
1651200000030767,1651200000030767,Oosterstraat,Oosterstraat,9989AC,9989AC,65,65.0,b,B,,,Warffum,Warffum,730243.0566536358,7056347.987160376
1651200000029604,1651200000029604,Ubbegalaan,Ubbegalaan,9983PZ,9983PZ,1,1.0,a,A,,,Roodeschool,Roodeschool,753378.5296905247,7061098.02670144
1651200000029606,1651200000029606,Ubbegalaan,Ubbegalaan,9983PZ,9983PZ,1,1.0,c,C,,,Roodeschool,Roodeschool,753392.242540067,7061114.548486713
1651200000033218,1651200000033218,Tjalk,Tjalk,9981EH,9981EH,11,11.0,a,A,,,Uithuizen,Uithuizen,743391.9760012571,7057966.649272026
1651200000028085,1651200000028085,Grote Hadderstraat,Grote Hadderstraat,9982AR,9982AR,2,2.0,k,K,,,Uithuizermeeden,Uithuizermeeden,747835.1424468026,7059706.674712286
1651200000028395,1651200000028395,Tuinbouwweg,Tuinbouwweg,9982EJ,9982EJ,23,23.0,a,A,,,Uithuizermeeden,Uithuizermeeden,750164.5929981602,7060447.53891605
1651200000033391,1651200000033391,Hoofdstraat,Hoofdstraat,9982AK,9982AK,180,180.0,a,A,,,Uithuizermeeden,Uithuizermeeden,748645.0191888878,7059953.686117892
1651200000026994,1651200000026994,Havendwarsweg,Havendwarsweg,9981JS,9981JS,23,23.0,a,A,,,Uithuizen,Uithuizen,743089.5474943344,7057989.716716457
1651200000026730,1651200000026730,Lageweg,Lageweg,9981HG,9981HG,56,56.0,c,C,,,Uithuizen,Uithuizen,740885.1381949523,7059784.499162198
1651200000028756,1651200000028756,Oudedijksterweg,Oudedijksterweg,9982HC,9982HC,3,3.0,a,A,,,Uithuizermeeden,Uithuizermeeden,748560.9094349747,7060017.714410404
1651200000028083,1651200000028083,Grote Hadderstraat,Grote Hadderstraat,9982AR,9982AR,2,2.0,h,H,,,Uithuizermeeden,Uithuizermeeden,747814.3713362437,7059709.285277739
1651200000026399,1651200000026399,de Laan,de Laan,9981GN,9981GN,97,97.0,j,J,,,Uithuizen,Uithuizen,742403.3355050948,7060235.835925013
1651200000030365,1651200000030365,Hoofdstraat,Hoofdstraat,9988RT,9988RT,2,2.0,b,B,,,Usquert,Usquert,736097.7335699083,7057551.665146491
1651200000026236,1651200000026236,Departementsstraat,Departementsstraat,9981GC,9981GC,36,36.0,a,A,,,Uithuizen,Uithuizen,742823.5497150379,7059486.183717523
1651200000028502,1651200000028502,Koningin Wilhelminastr,Koningin Wilhelminastraat,9982GE,9982GE,2,2.0,,,,,Uithuizermeeden,Uithuizermeeden,748981.5871253533,7059860.493635598
1651200000032280,1651200000032280,Albert van der Zielstr,Albert van der Zielstraat,9997PD,9997PD,5,5.0,,,,,Zandeweer,Zandeweer,743460.0827664011,7055015.671416566
1651200000032281,1651200000032281,Albert van der Zielstr,Albert van der Zielstraat,9997PD,9997PD,7,7.0,,,,,Zandeweer,Zandeweer,743460.2329117189,7055024.055070587
1651200000028513,1651200000028513,Koningin Wilhelminastr,Koningin Wilhelminastraat,9982GE,9982GE,24,24.0,,,,,Uithuizermeeden,Uithuizermeeden,749123.0708975103,7059815.890877721
1651200000032292,1651200000032292,Albert van der Zielstr,Albert van der Zielstraat,9997PD,9997PD,29,29.0,,,,,Zandeweer,Zandeweer,743474.3745667452,7055159.660754724
1651200000032282,1651200000032282,Albert van der Zielstr,Albert van der Zielstraat,9997PD,9997PD,9,9.0,,,,,Zandeweer,Zandeweer,743458.7403625788,7055034.145567911
53200000009568,53200000009568,Oosterstraat,Oosterstraat,9951EB,9951EB,30,30.0,a,A,,,Winsum,Winsum,725390.9603572394,7044664.911776571
1651200000032294,1651200000032294,Albert van der Zielstr,Albert van der Zielstraat,9997PD,9997PD,33,33.0,,,,,Zandeweer,Zandeweer,743479.9033927982,7055188.075405079
53200000009569,53200000009569,Oosterstraat,Oosterstraat,9951EB,9951EB,30,30.0,b,B,,,Winsum,Winsum,725368.2002692628,7044705.471600606
1651200000028505,1651200000028505,Koningin Wilhelminastr,Koningin Wilhelminastraat,9982GE,9982GE,8,8.0,,,,,Uithuizermeeden,Uithuizermeeden,749016.5475952913,7059849.770406051
1651200000032296,1651200000032296,Albert van der Zielstr,Albert van der Zielstraat,9997PD,9997PD,37,37.0,,,,,Zandeweer,Zandeweer,743485.3121174432,7055209.783068072
1651200000032283,1651200000032283,Albert van der Zielstr,Albert van der Zielstraat,9997PD,9997PD,11,11.0,,,,,Zandeweer,Zandeweer,743460.743408484,7055052.55955943
53200000009626,53200000009626,Oosterweg,Oosterweg,9956PH,9956PH,18,18.0,b,B,,,Den Andel,Den Andel,725347.4723242455,7055988.667477583
53200000009627,53200000009627,Oosterweg,Oosterweg,9956PH,9956PH,18,18.0,c,C,,,Den Andel,Den Andel,725348.9615721456,7055976.9020716725
1651200000032284,1651200000032284,Albert van der Zielstr,Albert van der Zielstraat,9997PD,9997PD,13,13.0,,,,,Zandeweer,Zandeweer,743460.9836436912,7055065.973471362
1651200000028607,1651200000028607,Meidoornweg,Meidoornweg,9982GN,9982GN,18,18.0,a,A,,,Uithuizermeeden,Uithuizermeeden,749112.3932879475,7060141.684331914
1651200000028830,1651200000028830,Lange Akker,Lange Akker,9982HK,9982HK,1,1.0,d,D,,,Uithuizermeeden,Uithuizermeeden,748875.026366141,7060346.599364963
1651200000030758,1651200000030758,Oosterstraat,Oosterstraat,9989AC,9989AC,51,51.0,a,A,,,Warffum,Warffum,730413.6682081833,7056137.188313559
1651200000031219,1651200000031219,Weth. G. Reindersstraat,Weth. G. Reindersstraat,9989BV,9989BV,7,7.0,a,A,,,Warffum,Warffum,730212.6381786641,7056947.378799149
1651200000028754,1651200000028754,Oudedijksterweg,Oudedijksterweg,9982HC,9982HC,1,1.0,c,C,,,Uithuizermeeden,Uithuizermeeden,748574.4795964988,7060003.444134788
53200000009704,53200000009704,Oude Dijk,Oude Dijk,9956PD,9956PD,40,40.0,a,A,,,Den Andel,Den Andel,724864.967677552,7056167.34135056
1651200000027002,1651200000027002,Havendwarsweg,Havendwarsweg,9981JS,9981JS,31,31.0,a,A,,,Uithuizen,Uithuizen,743136.8065071913,7057985.618173928
1651200000029780,1651200000029780,Zuster Kortestraat,Zuster Kortestraat,9983SX,9983SX,22,22.0,a,A,,,Roodeschool,Roodeschool,753369.9754553337,7060819.551280207
53200000009759,53200000009759,Overtocht,Overtocht,9951LM,9951LM,2,2.0,a,A,,,Winsum,Winsum,727167.0159444755,7043383.924049389
53200000009762,53200000009762,Overtocht,Overtocht,9951LM,9951LM,4,4.0,a,A,,,Winsum,Winsum,727169.7188328783,7043343.685524219
1651200000030161,1651200000030161,Streeksterweg,Streeksterweg,9988RB,9988RB,79,79.0,a,A,,,Usquert,Usquert,738874.8150962489,7059037.750309393
1651200000028087,1651200000028087,Grote Hadderstraat,Grote Hadderstraat,9982AR,9982AR,2,2.0,m,M,,,Uithuizermeeden,Uithuizermeeden,747840.5542584393,7059729.113377958
1651200000029984,1651200000029984,Battenweg,Battenweg,9986XK,9986XK,6,6.0,a,A,,,Oldenzijl,Oldenzijl,750052.948226794,7056276.4938344825
53200000009881,53200000009881,Plantsoenweg,Plantsoenweg,9771AC,9771AC,13,13.0,a,A,,,Sauwerd,Sauwerd,727364.9471256138,7037338.6267911745
1651200000030368,1651200000030368,Hoofdstraat,Hoofdstraat,9988RT,9988RT,2,2.0,e,E,,,Usquert,Usquert,736145.9838855491,7057556.228470454
53200000010072,53200000010072,Regnerus Praediniusstr,Regnerus Praediniusstraat,9951CA,9951CA,1,1.0,,,,,Winsum,Winsum,725233.1340752464,7044617.140333411
53200000010074,53200000010074,Regnerus Praediniusstr,Regnerus Praediniusstraat,9951CB,9951CB,2,2.0,,,,,Winsum,Winsum,725154.3786081882,7044603.301444887
53200000010075,53200000010075,Regnerus Praediniusstr,Regnerus Praediniusstraat,9951CA,9951CA,3,3.0,,,,,Winsum,Winsum,725210.5227284185,7044595.411452071
53200000010076,53200000010076,Regnerus Praediniusstr,Regnerus Praediniusstraat,9951CB,9951CB,4,4.0,,,,,Winsum,Winsum,725153.7507120621,7044563.109924699
53200000010077,53200000010077,Regnerus Praediniusstr,Regnerus Praediniusstraat,9951CA,9951CA,5,5.0,,,,,Winsum,Winsum,725215.7209601788,7044572.187216752
53200000010078,53200000010078,Regnerus Praediniusstr,Regnerus Praediniusstraat,9951CB,9951CB,6,6.0,,,,,Winsum,Winsum,725160.0407684031,7044537.885423859
53200000010079,53200000010079,Regnerus Praediniusstr,Regnerus Praediniusstraat,9951CA,9951CA,7,7.0,,,,,Winsum,Winsum,725210.7045632902,7044465.063177705
53200000010080,53200000010080,Regnerus Praediniusstr,Regnerus Praediniusstraat,9951CB,9951CB,8,8.0,,,,,Winsum,Winsum,725150.8304356436,7044490.952920861
53200000010081,53200000010081,Regnerus Praediniusstr,Regnerus Praediniusstraat,9951CA,9951CA,9,9.0,,,,,Winsum,Winsum,725217.0205400384,7044441.513556481
53200000010082,53200000010082,Regnerus Praediniusstr,Regnerus Praediniusstraat,9951CA,9951CA,9,9.0,a,A,,,Winsum,Winsum,725210.4383281423,7044341.115870495
53200000010083,53200000010083,Regnerus Praediniusstr,Regnerus Praediniusstraat,9951CA,9951CA,9,9.0,b,B,,,Winsum,Winsum,725205.1386941753,7044322.774039178
53200000010084,53200000010084,Regnerus Praediniusstr,Regnerus Praediniusstraat,9951CA,9951CA,9,9.0,c,C,,,Winsum,Winsum,725206.6260657802,7044311.02566581
53200000010085,53200000010085,Regnerus Praediniusstr,Regnerus Praediniusstraat,9951CB,9951CB,10,10.0,,,,,Winsum,Winsum,725133.725860411,7044457.896582059
53200000010086,53200000010086,Regnerus Praediniusstr,Regnerus Praediniusstraat,9951CA,9951CA,11,11.0,,,,,Winsum,Winsum,725212.9942821853,7044290.825668583
53200000010087,53200000010087,Regnerus Praediniusstr,Regnerus Praediniusstraat,9951CB,9951CB,12,12.0,,,,,Winsum,Winsum,725138.4237740305,7044437.722495473
53200000010088,53200000010088,Regnerus Praediniusstr,Regnerus Praediniusstraat,9951CA,9951CA,13,13.0,,,,,Winsum,Winsum,725219.2577683128,7044263.927393569
53200000010089,53200000010089,Regnerus Praediniusstr,Regnerus Praediniusstraat,9951CA,9951CA,13,13.0,a,A,,,Winsum,Winsum,725213.4870466687,7044215.443424869
53200000010090,53200000010090,Regnerus Praediniusstr,Regnerus Praediniusstraat,9951CB,9951CB,14,14.0,,,,,Winsum,Winsum,725159.7153485075,7044196.187979903
53200000010091,53200000010091,Regnerus Praediniusstr,Regnerus Praediniusstraat,9951CA,9951CA,15,15.0,,,,,Winsum,Winsum,725242.064819741,7044119.521198579
53200000010092,53200000010092,Regnerus Praediniusstr,Regnerus Praediniusstraat,9951CB,9951CB,16,16.0,,,,,Winsum,Winsum,725162.8733123841,7044184.413573842
53200000010093,53200000010093,Regnerus Praediniusstr,Regnerus Praediniusstraat,9951CA,9951CA,17,17.0,,,,,Winsum,Winsum,725253.6800178991,7044114.313849899
53200000010094,53200000010094,Regnerus Praediniusstr,Regnerus Praediniusstraat,9951CB,9951CB,18,18.0,,,,,Winsum,Winsum,725170.9382482922,7044165.862261345
53200000010095,53200000010095,Regnerus Praediniusstr,Regnerus Praediniusstraat,9951CA,9951CA,19,19.0,,,,,Winsum,Winsum,725260.2312390317,7044105.836130558
53200000010096,53200000010096,Regnerus Praediniusstr,Regnerus Praediniusstraat,9951CA,9951CA,19,19.0,a,A,,,Winsum,Winsum,725263.4152035366,7044095.736362332
53200000010097,53200000010097,Regnerus Praediniusstr,Regnerus Praediniusstraat,9951CB,9951CB,20,20.0,,,,,Winsum,Winsum,725174.1223486931,7044155.762452949
53200000010098,53200000010098,Regnerus Praediniusstr,Regnerus Praediniusstraat,9951CA,9951CA,21,21.0,,,,,Winsum,Winsum,725259.8646857378,7044082.392503974
53200000010099,53200000010099,Regnerus Praediniusstr,Regnerus Praediniusstraat,9951CA,9951CA,21,21.0,a,A,,,Winsum,Winsum,725251.3811491665,7044074.151018139
53200000010100,53200000010100,Regnerus Praediniusstr,Regnerus Praediniusstraat,9951CB,9951CB,22,22.0,,,,,Winsum,Winsum,725177.2802757989,7044143.988100338
53200000010101,53200000010101,Regnerus Praediniusstr,Regnerus Praediniusstraat,9951CA,9951CA,23,23.0,,,,,Winsum,Winsum,725259.4195886034,7044053.9253346175
53200000010102,53200000010102,Regnerus Praediniusstr,Regnerus Praediniusstraat,9951CB,9951CB,24,24.0,,,,,Winsum,Winsum,725178.3490083483,7044105.447188673
53200000010103,53200000010103,Regnerus Praediniusstr,Regnerus Praediniusstraat,9951CA,9951CA,25,25.0,,,,,Winsum,Winsum,725264.1169545144,7044033.752186398
53200000010104,53200000010104,Regnerus Praediniusstr,Regnerus Praediniusstraat,9951CB,9951CB,26,26.0,,,,,Winsum,Winsum,725200.3943827488,7044084.959685761
53200000010105,53200000010105,Regnerus Praediniusstr,Regnerus Praediniusstraat,9951CA,9951CA,27,27.0,,,,,Winsum,Winsum,725258.6864953149,7044007.038450944
53200000010106,53200000010106,Regnerus Praediniusstr,Regnerus Praediniusstraat,9951CB,9951CB,28,28.0,,,,,Winsum,Winsum,725191.1113983515,7044066.722853931
53200000010107,53200000010107,Regnerus Praediniusstr,Regnerus Praediniusstraat,9951CA,9951CA,29,29.0,,,,,Winsum,Winsum,725260.1737321788,7043995.2905278215
53200000010108,53200000010108,Regnerus Praediniusstr,Regnerus Praediniusstraat,9951CB,9951CB,30,30.0,,,,,Winsum,Winsum,725215.0961667036,7043997.673538382
53200000009923,53200000009923,Priorstraat,Priorstraat,9951CK,9951CK,1,1.0,a,A,,,Winsum,Winsum,725151.5420168949,7044100.843155237
1651200000025307,1651200000025307,Schoolstraat,Schoolstraat,9981AP,9981AP,60,60.0,a,A,,,Uithuizen,Uithuizen,742537.4406335171,7059021.758863447
1651200000025444,1651200000025444,Kaakstraat,Kaakstraat,9981BG,9981BG,3,3.0,a,A,,,Uithuizen,Uithuizen,743048.282092047,7058754.184178406
1651200000031936,1651200000031936,Pastorieweg,Pastorieweg,9995PM,9995PM,3,3.0,a,A,,,Kantens,Kantens,738374.5871183736,7050630.160324241
1651200000029455,1651200000029455,Prinsenhof,Prinsenhof,9983PJ,9983PJ,18,18.0,a,A,,,Roodeschool,Roodeschool,752916.7699497363,7061558.444369886
1651200000026703,1651200000026703,Lageweg,Lageweg,9981HD,9981HD,77,77.0,a,A,,,Uithuizen,Uithuizen,740844.1292662765,7059927.876899686
1651200000026988,1651200000026988,Havendwarsweg,Havendwarsweg,9981JS,9981JS,17,17.0,a,A,,,Uithuizen,Uithuizen,743058.5618043948,7057989.593328181
1651200000026465,1651200000026465,Brouwerijstraat,Brouwerijstraat,9981JL,9981JL,32,32.0,b,B,,,Uithuizen,Uithuizen,742980.2070691106,7058240.770056908
1651200000028511,1651200000028511,Koningin Wilhelminastr,Koningin Wilhelminastraat,9982GE,9982GE,20,20.0,,,,,Uithuizermeeden,Uithuizermeeden,749099.7641227572,7059823.039992477
1651200000030176,1651200000030176,Streeksterweg,Streeksterweg,9988RC,9988RC,10,10.0,a,A,,,Usquert,Usquert,736451.5440980435,7058004.0164366085
53200000012306,53200000012306,Trekweg naar Onderdendam,Trekweg naar Onderdendam,9951SE,9951SE,30,48.0,a,,,,Winsum,Winsum,730560.8412907008,7045050.963632592
1651200000029959,1651200000029959,Oosternielandsterweg,Oosternielandsterweg,9985SC,9985SC,26,26.0,a,A,,,Oosternieland,Oosternieland,751912.2063426897,7057950.886487313
53200000019321,53200000019321,Rozenlaan,Rozenlaan,9951GB,9951GB,7,9.0,,,,,Winsum,Winsum,725176.0910530642,7045266.732674435
53200000019327,53200000019327,Rozenlaan,Rozenlaan,9951GB,9951GB,9,11.0,,,,,Winsum,Winsum,725178.0041330301,7045276.010049719
1651200000030777,1651200000030777,Oosterstraat,Oosterstraat,9989AD,9989AD,10,10.0,a,A,,,Warffum,Warffum,730768.87764714,7055753.946352795
1651200000032703,1651200000032703,Biewemastraat,Biewemastraat,9988RW,9988RW,1,1.0,c,C,,,Usquert,Usquert,736145.5581850808,7057759.221104476
1651200000028832,1651200000028832,Lange Akker,Lange Akker,9982HK,9982HK,1,1.0,f,F,,,Uithuizermeeden,Uithuizermeeden,748869.4538906411,7060354.340134551
1651200000028834,1651200000028834,Lange Akker,Lange Akker,9982HK,9982HK,1,1.0,h,H,,,Uithuizermeeden,Uithuizermeeden,748857.1385868321,7060371.357455522
1651200000032905,1651200000032905,Talmaweg,Talmaweg,9981CX,9981CX,59,59.0,a,A,,,Uithuizen,Uithuizen,744267.70453613,7060473.509999245
1651200000026041,1651200000026041,Aak,Aak,9981EK,9981EK,13,13.0,c,C,,,Uithuizen,Uithuizen,743499.8603830562,7057890.309155092
1651200000032782,1651200000032782,Derk Berendslaan,Derk Berendslaan,9982BB,9982BB,13,13.0,a,A,,,Uithuizermeeden,Uithuizermeeden,751032.05539516,7061795.040380922
1651200000029779,1651200000029779,Zuster Kortestraat,Zuster Kortestraat,9983SX,9983SX,20,20.0,b,B,,,Roodeschool,Roodeschool,753388.8357120879,7060808.72963105
1651200000028508,1651200000028508,Koningin Wilhelminastr,Koningin Wilhelminastraat,9982GE,9982GE,14,14.0,,,,,Uithuizermeeden,Uithuizermeeden,749058.1403177371,7059835.566443975
1651200000028090,1651200000028090,Grote Hadderstraat,Grote Hadderstraat,9982AR,9982AR,2,2.0,p,P,,,Uithuizermeeden,Uithuizermeeden,747823.308051582,7059719.694268246
53200000010329,53200000010329,Schilligehamsterweg,Schilligehamsterweg,9951CM,9951CM,1,1.0,b,B,,,Winsum,Winsum,725288.9596763327,7043912.766802103
1651200000028179,1651200000028179,Torenstraat,Torenstraat,9982AX,9982AX,20,20.0,a,A,,,Uithuizermeeden,Uithuizermeeden,746870.8220934212,7058974.976533963
1651200000026671,1651200000026671,Lageweg,Lageweg,9981HC,9981HC,1,1.0,a,A,,,Uithuizen,Uithuizen,740796.0538458541,7059098.017905994
1651200000026706,1651200000026706,Lageweg,Lageweg,9981HE,9981HE,2,2.0,a,A,,,Uithuizen,Uithuizen,740829.1715284232,7059077.295514557
1651200000028080,1651200000028080,Grote Hadderstraat,Grote Hadderstraat,9982AR,9982AR,2,2.0,e,E,,,Uithuizermeeden,Uithuizermeeden,747820.9335059158,7059741.441598086
1651200000026229,1651200000026229,Departementsstraat,Departementsstraat,9981GC,9981GC,22,22.0,b,B,,,Uithuizen,Uithuizen,742778.4975943608,7059396.704277994
53200000012075,53200000012075,Schouwerzijlsterweg,Schouwerzijlsterweg,9951TG,9951TG,6,6.0,a,A,,,Winsum,Winsum,724564.8696465996,7044842.020488762
1651200000032303,1651200000032303,Albert van der Zielstr,Albert van der Zielstraat,9997PE,9997PE,12,12.0,,,,,Zandeweer,Zandeweer,743541.1545122559,7055057.821242896
53200000010459,53200000010459,Schouwerzijlsterweg,Schouwerzijlsterweg,9951TG,9951TG,2,2.0,a,A,,,Winsum,Winsum,724755.2773525994,7044728.486779146
1651200000030369,1651200000030369,Hoofdstraat,Hoofdstraat,9988RT,9988RT,2,2.0,f,F,,,Usquert,Usquert,736149.273425528,7057552.816722204
53200000012291,53200000012291,Schouwerzijlsterweg,Schouwerzijlsterweg,9951TG,9951TG,12,12.0,a,A,,,Winsum,Winsum,723451.0360382542,7045326.715067276
1651200000026241,1651200000026241,Departementsstraat,Departementsstraat,9981GC,9981GC,38,38.0,b,B,,,Uithuizen,Uithuizen,742829.1449660182,7059521.206549479
1651200000031325,1651200000031325,Prof Dr M W Beyerinckstr,Prof. Dr. M. W. Beyerinckstraat,9989CB,9989CB,30,30.0,,,,,Warffum,Warffum,730416.4528502147,7056719.245920118
1651200000026690,1651200000026690,Lageweg,Lageweg,9981HC,9981HC,49,49.0,a,A,,,Uithuizen,Uithuizen,740790.7973196234,7059465.625731778
1651200000026804,1651200000026804,Noorderstraat,Noorderstraat,9981CK,,5,5.0,a,A,,,Uithuizen,Uithuizen,743192.0285815131,7058767.866844554
1651200000031302,1651200000031302,Prof.Dr.M.W.Beyerinckstr,Prof. Dr. M. W. Beyerinckstraat,9989CA,9989CA,7,7.0,,,,,Warffum,Warffum,730287.293966233,7056701.227274839
53200000010944,53200000010944,Tjarda v Starkenborghwg,Tjarda van Starkenborghweg,9954TS,9954TS,1,1.0,,,,,Tinallinge,Tinallinge,727398.4773548126,7049535.8390180115
53200000010945,53200000010945,Tjarda v Starkenborghwg,Tjarda van Starkenborghweg,9954TS,9954TS,2,2.0,,,,,Tinallinge,Tinallinge,727183.3350668489,7049465.526731537
53200000010946,53200000010946,Tjarda v Starkenborghwg,Tjarda van Starkenborghweg,9954TS,9954TS,3,3.0,,,,,Tinallinge,Tinallinge,727479.0997866532,7049348.506200411
53200000010947,53200000010947,Tjarda v Starkenborghwg,Tjarda van Starkenborghweg,9954TS,9954TS,4,4.0,,,,,Tinallinge,Tinallinge,727239.1540098495,7049295.354091012
53200000010948,53200000010948,Tjarda v Starkenborghwg,Tjarda van Starkenborghweg,9954TS,9954TS,6,6.0,,,,,Tinallinge,Tinallinge,727302.1217845094,7049364.74280333
53200000010949,53200000010949,Tjarda v Starkenborghwg,Tjarda van Starkenborghweg,9954TS,9954TS,7,7.0,,,,,Tinallinge,Tinallinge,727479.8647010974,7049291.50839214
53200000010950,53200000010950,Tjarda v Starkenborghwg,Tjarda van Starkenborghweg,9954TS,9954TS,8,8.0,,,,,Tinallinge,Tinallinge,727415.6584472127,7049354.548625156
53200000010951,53200000010951,Tjarda v Starkenborghwg,Tjarda van Starkenborghweg,9954TS,9954TS,9,9.0,,,,,Tinallinge,Tinallinge,727473.3299369743,7049196.0791503005
53200000010952,53200000010952,Tjarda v Starkenborghwg,Tjarda van Starkenborghweg,9954TS,9954TS,10,10.0,,,,,Tinallinge,Tinallinge,727448.6908176466,7049328.879822982
53200000010953,53200000010953,Tjarda v Starkenborghwg,Tjarda van Starkenborghweg,9954TS,9954TS,11,11.0,,,,,Tinallinge,Tinallinge,727466.2969779982,7049174.403370126
53200000010954,53200000010954,Tjarda v Starkenborghwg,Tjarda van Starkenborghweg,9954TS,9954TS,12,12.0,,,,,Tinallinge,Tinallinge,727426.2934905535,7049287.336776555
53200000010955,53200000010955,Tjarda v Starkenborghwg,Tjarda van Starkenborghweg,9954TS,9954TS,13,13.0,,,,,Tinallinge,Tinallinge,727453.9827263957,7049136.051984146
53200000010956,53200000010956,Tjarda v Starkenborghwg,Tjarda van Starkenborghweg,9954TS,9954TS,14,14.0,,,,,Tinallinge,Tinallinge,727431.2471760944,7049178.315763174
53200000010957,53200000010957,Tjarda v Starkenborghwg,Tjarda van Starkenborghweg,9954TS,9954TS,15,15.0,,,,,Tinallinge,Tinallinge,727448.6480973678,7049116.025201284
53200000010958,53200000010958,Tjarda v Starkenborghwg,Tjarda van Starkenborghweg,9954TS,9954TS,16,16.0,,,,,Tinallinge,Tinallinge,727427.557492835,7049156.58655401
53200000010959,53200000010959,Tjarda v Starkenborghwg,Tjarda van Starkenborghweg,9954TS,9954TS,17,17.0,,,,,Tinallinge,Tinallinge,727510.0870631809,7048984.315468313
53200000010960,53200000010960,Tjarda v Starkenborghwg,Tjarda van Starkenborghweg,9954TS,9954TS,18,18.0,,,,,Tinallinge,Tinallinge,727421.7964422221,7049109.750433802
53200000142283,53200000142283,Stationsweg,Stationsweg,9951BA,9951BA,2,2.0,a,A,,,Winsum,Winsum,725411.0813291176,7044146.233231071
1651200000025705,1651200000025705,Leeuwstraat,Leeuwstraat,9981CM,9981CM,2,2.0,a,A,,,Uithuizen,Uithuizen,743269.1701275395,7058594.927087721
53200000012300,53200000012300,Stationsweg,Stationsweg,9951BA,9951BA,21,21.0,a,A,,,Winsum,Winsum,725693.6450887149,7044253.112715803
53200000006743,53200000006743,De Streekweg,De Streekweg,9956PN,9956PN,23,23.0,a,A,,,Den Andel,Den Andel,724476.834897235,7055851.346610375
53200000006777,53200000006777,De Streekweg,De Streekweg,9956PP,9956PP,69,69.0,a,A,,,Den Andel,Den Andel,724626.5106702852,7054931.523640833
53200000006778,53200000006778,De Streekweg,De Streekweg,9956PP,9956PP,69,69.0,b,B,,,Den Andel,Den Andel,724628.0268820213,7054921.4367024535
53200000006779,53200000006779,De Streekweg,De Streekweg,9956PP,9956PP,69,69.0,c,C,,,Den Andel,Den Andel,724632.7842693145,7054904.590286961
53200000006780,53200000006780,De Streekweg,De Streekweg,9956PP,9956PP,69,69.0,d,D,,,Den Andel,Den Andel,724635.8688582652,7054887.770064093
1651200000031319,1651200000031319,Prof.Dr.M.W.Beyerinckstr,Prof. Dr. M. W. Beyerinckstraat,9989CB,9989CB,18,18.0,,,,,Warffum,Warffum,730332.0863994225,7056677.008733959
53200000006781,53200000006781,De Streekweg,De Streekweg,9956PP,9956PP,69,69.0,e,E,,,Den Andel,Den Andel,724637.2023664593,7054865.945681868
53200000006782,53200000006782,De Streekweg,De Streekweg,9956PP,9956PP,69,69.0,f,F,,,Den Andel,Den Andel,724641.9336035661,7054847.422596672
53200000006786,53200000006786,De Streekweg,De Streekweg,9956PP,9956PP,75,75.0,a,A,,,Den Andel,Den Andel,724662.1656557608,7054749.829817705
53200000006790,53200000006790,De Streekweg,De Streekweg,9956PP,9956PP,85,85.0,a,A,,,Den Andel,Den Andel,724674.2163060667,7054664.106194792
1651200000028079,1651200000028079,Grote Hadderstraat,Grote Hadderstraat,9982AR,9982AR,2,2.0,d,D,,,Uithuizermeeden,Uithuizermeeden,747846.8047683852,7059729.4136580285
1651200000029783,1651200000029783,Zuster Kortestraat,Zuster Kortestraat,9983SX,9983SX,24,24.0,b,B,,,Roodeschool,Roodeschool,753329.0171040682,7060839.8367471965
1651200000029784,1651200000029784,Zuster Kortestraat,Zuster Kortestraat,9983SX,9983SX,26,26.0,a,A,,,Roodeschool,Roodeschool,753312.688399452,7060848.026377971
1651200000033382,1651200000033382,Grote Hadderstraat,Grote Hadderstraat,9982AR,9982AR,2,2.0,i,I,,,Uithuizermeeden,Uithuizermeeden,747814.6084112665,7059699.541953903
1651200000026708,1651200000026708,Lageweg,Lageweg,9981HE,9981HE,2,2.0,c,C,,,Uithuizen,Uithuizen,740829.7910076822,7059112.524916539
1651200000032249,1651200000032249,Veilingweg,Veilingweg,9997PB,9997PB,1,1.0,a,A,,,Zandeweer,Zandeweer,743749.2741842283,7055145.387870468
1651200000028077,1651200000028077,Grote Hadderstraat,Grote Hadderstraat,9982AR,9982AR,2,2.0,b,B,,,Uithuizermeeden,Uithuizermeeden,747841.525848016,7059706.556322838
1651200000031323,1651200000031323,Prof.Dr.M.W.Beyerinckstr,Prof. Dr. M. W. Beyerinckstraat,9989CB,9989CB,26,26.0,,,,,Warffum,Warffum,730389.4096140856,7056702.912496361
53200000010937,53200000010937,Tinallingerweg,Tinallingerweg,9953TA,9953TA,3,3.0,a,A,,,Baflo,Baflo,725963.945306507,7050393.373318888
1651200000032287,1651200000032287,Albert van der Zielstr,Albert van der Zielstraat,9997PD,9997PD,19,19.0,,,,,Zandeweer,Zandeweer,743464.8996804748,7055097.7713974
1651200000028089,1651200000028089,Grote Hadderstraat,Grote Hadderstraat,9982AR,9982AR,2,2.0,o,O,,,Uithuizermeeden,Uithuizermeeden,747824.6256228393,7059730.939362083
1651200000033720,1651200000033720,Bergsmastraat,Bergsmastraat,9982EB,9982EB,32,32.0,a,A,,,Uithuizermeeden,Uithuizermeeden,748750.0573445173,7059705.537288979
1651200000031307,1651200000031307,Prof.Dr.M.W.Beyerinckstr,Prof. Dr. M. W. Beyerinckstraat,9989CA,9989CA,17,17.0,,,,,Warffum,Warffum,730358.0569097026,7056730.266813559
1651200000031959,1651200000031959,Pastorieweg,Pastorieweg,9995PN,9995PN,6,6.0,a,A,,,Kantens,Kantens,738308.8196064308,7050792.232284772
53200000011072,53200000011072,Trekweg naar Onderdendam,Trekweg naar Onderdendam,9951TE,9951TE,5,5.0,a,A,,,Winsum,Winsum,725714.4199662666,7044725.146199576
53200000011073,53200000011073,Trekweg naar Onderdendam,Trekweg naar Onderdendam,9951TE,9951TE,5,5.0,b,B,,,Winsum,Winsum,725719.169134331,7044708.320449448
1651200000026513,1651200000026513,de Laan,de Laan,9981GR,9981GR,80,80.0,g,G,,,Uithuizen,Uithuizen,742423.218237968,7060035.759099734
53200000011088,53200000011088,Trekweg naar Onderdendam,Trekweg naar Onderdendam,9951TE,9951TE,19,19.0,a,A,,,Winsum,Winsum,726341.6291131064,7044760.459251825
53200000011091,53200000011091,Trekweg naar Onderdendam,Trekweg naar Onderdendam,9951SE,9951SE,26,43.0,,,,,Winsum,Winsum,728634.0395452905,7044636.699347469
53200000011092,53200000011092,Trekweg naar Onderdendam,Trekweg naar Onderdendam,9951SE,9951SE,27,44.0,,,,,Winsum,Winsum,728617.9134437853,7044985.382970425
53200000011093,53200000011093,Trekweg naar Onderdendam,Trekweg naar Onderdendam,9951SE,9951SE,28,45.0,,,,,Winsum,Winsum,729219.121588927,7044960.585664902
53200000142097,53200000142097,Trekweg naar Onderdendam,Trekweg naar Onderdendam,9951SE,9951SE,29,46.0,,,,,Winsum,Winsum,730255.322746005,7045089.278026097
53200000011095,53200000011095,Trekweg naar Onderdendam,Trekweg naar Onderdendam,9951SE,9951SE,30,47.0,,,,,Winsum,Winsum,730396.1500826704,7045097.213166411
53200000011096,53200000011096,Trekweg naar Onderdendam,Trekweg naar Onderdendam,9951SE,9951SE,31,49.0,,,,,Winsum,Winsum,730568.9433661194,7045137.940129168
53200000011097,53200000011097,Trekweg naar Onderdendam,Trekweg naar Onderdendam,9951SE,9951SE,32,50.0,,,,,Winsum,Winsum,731115.3240523088,7045132.324453039
1651200000026395,1651200000026395,de Laan,de Laan,9981GN,9981GN,97,97.0,f,F,,,Uithuizen,Uithuizen,742385.1058977469,7060152.244368259
1651200000029607,1651200000029607,Ubbegalaan,Ubbegalaan,9983PZ,9983PZ,1,1.0,d,D,,,Roodeschool,Roodeschool,753390.7935378986,7061126.326343705
1651200000026333,1651200000026333,Ommelandenweg,Ommelandenweg,9981GK,9981GK,1,1.0,a,A,,,Uithuizen,Uithuizen,742571.1882120111,7059231.642267295
1651200000031644,1651200000031644,Oostervalge,Oostervalge,9989EK,9989EK,44,44.0,a,A,,,Warffum,Warffum,730662.0831896801,7056692.092219091
1651200000028501,1651200000028501,Koningin Wilhelminastr,Koningin Wilhelminastraat,9982GE,9982GE,17,17.0,,,,,Uithuizermeeden,Uithuizermeeden,749125.4630218276,7059854.446756101
1651200000026083,1651200000026083,Aak,Aak,9981EL,9981EL,12,12.0,d,D,,,Uithuizen,Uithuizen,743418.5585250341,7057930.363406361
1651200000031591,1651200000031591,Juffer Marthastraat,Juffer Marthastraat,9989EH,9989EH,26,26.0,b,B,,,Warffum,Warffum,729672.2852507768,7056298.074594074
1651200000026232,1651200000026232,Departementsstraat,Departementsstraat,9981GC,9981GC,34,34.0,a,A,,,Uithuizen,Uithuizen,742813.0462417158,7059479.164056806
1651200000025718,1651200000025718,Oosterstraat,Oosterstraat,9981CN,9981CN,1,1.0,a,A,,,Uithuizen,Uithuizen,743270.9038066195,7058565.602886106
53200000006830,53200000006830,De Vennenweg,De Vennenweg,9954TR,9954TR,1,1.0,a,A,,,Tinallinge,Tinallinge,727791.5968082607,7049442.39048693
53200000006835,53200000006835,De Vennenweg,De Vennenweg,9954TR,9954TR,7,7.0,a,A,,,Tinallinge,Tinallinge,729937.4852922544,7048450.72298563
1651200000026731,1651200000026731,Lageweg,Lageweg,9981HG,9981HG,56,56.0,d,D,,,Uithuizen,Uithuizen,740885.580905194,7059809.665207158
1651200000026469,1651200000026469,Brouwerijstraat,Brouwerijstraat,9981JL,9981JL,32,32.0,f,F,,,Uithuizen,Uithuizen,742962.4513760144,7058225.091062886
1651200000028507,1651200000028507,Koningin Wilhelminastr,Koningin Wilhelminastraat,9982GE,9982GE,12,12.0,,,,,Uithuizermeeden,Uithuizermeeden,749046.4556579068,7059837.463218432
1651200000027764,1651200000027764,Oude-Dijk,Oude-Dijk,9981TK,9981TK,6,6.0,a,A,,,Uithuizen,Uithuizen,743338.4124877736,7061122.078968482
1651200000030766,1651200000030766,Oosterstraat,Oosterstraat,9989AC,9989AC,65,65.0,a,A,,,Warffum,Warffum,730257.759569282,7056325.939232563
1651200000031052,1651200000031052,Torenweg,Torenweg,9989BD,9989BD,13,13.0,a,A,,,Warffum,Warffum,730377.8751678341,7055788.867632791
1651200000030389,1651200000030389,Biewemastraat,Biewemastraat,9988RW,9988RW,1,1.0,b,B,,,Usquert,Usquert,736121.2434442197,7057745.082979143
1651200000032301,1651200000032301,Albert van der Zielstr,Albert van der Zielstraat,9997PE,9997PE,8,8.0,,,,,Zandeweer,Zandeweer,743499.005883483,7055040.129983969
1651200000031115,1651200000031115,Kalverstraat,Kalverstraat,9989BK,9989BK,2,2.0,a,A,,,Warffum,Warffum,730288.5319446961,7055690.364704476
1651200000032295,1651200000032295,Albert van der Zielstr,Albert van der Zielstraat,9997PD,9997PD,35,35.0,,,,,Zandeweer,Zandeweer,743480.7403174142,7055199.487837525
1651200000026710,1651200000026710,Lageweg,Lageweg,9981HE,9981HE,2,2.0,e,E,,,Uithuizen,Uithuizen,740833.6986805402,7059144.340129053
1651200000032304,1651200000032304,Albert van der Zielstr,Albert van der Zielstraat,9997PE,9997PE,14,14.0,,,,,Zandeweer,Zandeweer,743554.5363400861,7055057.580286211
53200000011501,53200000011501,Wierdaweg,Wierdaweg,9951TM,9951TM,2,2.0,c,C,Kant,,Winsum,Winsum,724751.8675140927,7044080.307656793
53200000142267,53200000142267,Wierdaweg,Wierdaweg,9951TM,9951TM,14,14.0,b,B,,,Winsum,Winsum,725099.0915713222,7043549.589117973
1651200000028088,1651200000028088,Grote Hadderstraat,Grote Hadderstraat,9982AR,9982AR,2,2.0,n,N,,,Uithuizermeeden,Uithuizermeeden,747826.0718334969,7059741.624901771
1651200000032767,1651200000032767,Streeksterweg,Streeksterweg,9988RA,9988RA,5,5.0,c,C,,,Usquert,Usquert,736354.2915597205,7058077.886711811
1651200000025833,1651200000025833,Talmaweg,Talmaweg,9981CZ,9981CZ,26,26.0,b,B,,,Uithuizen,Uithuizen,743828.9858326351,7059067.361054088
1651200000026709,1651200000026709,Lageweg,Lageweg,9981HE,9981HE,2,2.0,d,D,,,Uithuizen,Uithuizen,740831.6415914926,7059122.56091815
1651200000026509,1651200000026509,de Laan,de Laan,9981GR,9981GR,80,80.0,c,C,,,Uithuizen,Uithuizen,742397.8165794541,7059925.445135488
1651200000026238,1651200000026238,Departementsstraat,Departementsstraat,9981GC,9981GC,36,36.0,c,C,,,Uithuizen,Uithuizen,742827.389642351,7059496.942654939
1651200000026391,1651200000026391,de Laan,de Laan,9981GN,9981GN,97,97.0,b,B,,,Uithuizen,Uithuizen,742363.0221074356,7060040.191118853
1651200000025812,1651200000025812,Talmaweg,Talmaweg,9981CX,9981CX,65,65.0,a,A,,,Uithuizen,Uithuizen,744385.1586099248,7060615.517778656
1651200000032285,1651200000032285,Albert van der Zielstr,Albert van der Zielstraat,9997PD,9997PD,15,15.0,,,,,Zandeweer,Zandeweer,743462.8365534098,7055076.003818231
1651200000027830,1651200000027830,Emmaweg,Emmaweg,9981VC,9981VC,64,64.0,a,A,,,Uithuizen,Uithuizen,742600.0502158608,7067430.630332514
1651200000030084,1651200000030084,Kloosterwijtwerderweg,Kloosterwijtwerderweg,9988NV,9988NV,1,1.0,a,A,,,Usquert,Usquert,736015.8517172934,7057383.96301205
1651200000025714,1651200000025714,Noorderstraat,Noorderstraat,9981CL,,21,21.0,b,B,,,Uithuizen,Uithuizen,743325.7518452457,7058689.241812294
1651200000028054,1651200000028054,Burchtstraat,Burchtstraat,9982AP,9982AP,2,2.0,b,B,,,Uithuizermeeden,Uithuizermeeden,748311.8219381176,7059775.055417713
53200000011692,53200000011692,Wilhelminalaan,Wilhelminalaan,9953RM,9953RM,73,73.0,b,B,,,Baflo,Baflo,725052.0776251222,7050040.6369377
1651200000026893,1651200000026893,Jacob Wiersumstraat,Jacob Wiersumstraat,9981JH,9981JH,1,1.0,a,A,,,Uithuizen,Uithuizen,743005.2051304312,7058404.252966827
1651200000026466,1651200000026466,Brouwerijstraat,Brouwerijstraat,9981JL,9981JL,32,32.0,c,C,,,Uithuizen,Uithuizen,742972.9030144126,7058232.197599084
53200000011768,53200000011768,Winsumerstraatweg,Winsumermeeden,9951TK,9951TH,11,1.0,,A,,,Winsum,Winsum,727427.3473050639,7040753.153996021
53200000011770,53200000011770,Winsumerweg,Winsumerweg,9953PA,9953PA,1,1.0,a,A,,,Baflo,Baflo,724797.262505832,7050213.92745597
1651200000030718,1651200000030718,Noorderdijk,Oostelijke Polder Opweg,9988TE,9988TG,16,16.0,,,,,Usquert,Usquert,738550.2561020536,7066116.313967223
1651200000026245,1651200000026245,Departementsstraat,Departementsstraat,9981GC,9981GC,40,40.0,b,B,,,Uithuizen,Uithuizen,742832.2919795502,7059542.114330693
1651200000028500,1651200000028500,Koningin Wilhelminastr,Koningin Wilhelminastraat,9982GE,9982GE,15,15.0,,,,,Uithuizermeeden,Uithuizermeeden,749113.8408188095,7059859.699050882
1651200000026237,1651200000026237,Departementsstraat,Departementsstraat,9981GC,9981GC,36,36.0,b,B,,,Uithuizen,Uithuizen,742819.2821070426,7059499.791510612
1651200000028506,1651200000028506,Koningin Wilhelminastr,Koningin Wilhelminastraat,9982GE,9982GE,10,10.0,,,,,Uithuizermeeden,Uithuizermeeden,749034.8334271059,7059842.715387367
1651200000027774,1651200000027774,Menkema's Uiterdijk,Menkema's Uiterdijk,9981TM,9981TM,4,4.0,a,A,,,Uithuizen,Uithuizen,744136.5516974669,7062111.514460408
1651200000030020,1651200000030020,Paaptilsterweg,Paaptilsterweg,9986XP,9986XP,23,23.0,a,A,,,Oldenzijl,Oldenzijl,748410.9018106158,7056427.817508679
1651200000025770,1651200000025770,Menkemaweg,Menkemaweg,9981CV,9981CV,17,17.0,a,A,,,Uithuizen,Uithuizen,743664.9976673607,7058511.525711921
1651200000028091,1651200000028091,Grote Hadderstraat,Grote Hadderstraat,9982AR,9982AR,2,2.0,q,Q,,,Uithuizermeeden,Uithuizermeeden,747820.3457041412,7059709.592376441
1651200000025228,1651200000025228,Schoolstraat,Schoolstraat,9981AL,9981AL,25,25.0,a,A,,,Uithuizen,Uithuizen,742818.3275513303,7058907.655214356
1651200000025230,1651200000025230,Schoolstraat,Schoolstraat,9981AL,9981AL,27,27.0,a,A,,,Uithuizen,Uithuizen,742804.9990984091,7058911.250170995
53200000018763,53200000018763,Prof Dr G vd Molenstr,Prof Dr Geziena van der Molenstraat,9953SK,9953SK,11,11.0,A,A,,,Baflo,Baflo,725331.3219201335,7049719.457548007
1651200000028076,1651200000028076,Grote Hadderstraat,Grote Hadderstraat,9982AR,9982AR,2,2.0,a,A,,,Uithuizermeeden,Uithuizermeeden,747841.9078111893,7059697.226521306
53200000012255,53200000012255,Regnerus Praediniusstr,Regnerus Praediniusstraat,9951CA,9951CA,15,15.0,T,T,,,Winsum,Winsum,725273.9882719063,7044130.744401553
1651200000030364,1651200000030364,Hoofdstraat,Hoofdstraat,9988RT,9988RT,2,2.0,a,A,,,Usquert,Usquert,736085.0383169993,7057552.272831466
1651200000025241,1651200000025241,Schoolstraat,Schoolstraat,9981AL,9981AL,49,49.0,a,A,,,Uithuizen,Uithuizen,742393.3056920664,7059012.588324035
1651200000030133,1651200000030133,Streeksterweg,Streeksterweg,9988RA,9988RA,23,23.0,a,A,,,Usquert,Usquert,736481.4207595845,7058087.399012629
1651200000033725,1651200000033725,Schoolstraat,Schoolstraat,9981AM,9981AM,51,51.0,a,A,,,Uithuizen,Uithuizen,742382.6572286176,7059012.800358763
1651200000026230,1651200000026230,Departementsstraat,Departementsstraat,9981GC,9981GC,22,22.0,c,C,,,Uithuizen,Uithuizen,742778.5873176119,7059401.7372115385
1651200000026242,1651200000026242,Departementsstraat,Departementsstraat,9981GC,9981GC,38,38.0,c,C,,,Uithuizen,Uithuizen,742835.786823884,7059519.0652928045
53200000142113,53200000142113,M D Teenstraweg,M D Teenstraweg,9956TC,9956TC,6,6.0,a,A,,,Den Andel,Den Andel,726132.2833374311,7059117.065825648
1651200000026081,1651200000026081,Aak,Aak,9981EL,9981EL,12,12.0,b,B,,,Uithuizen,Uithuizen,743435.0815362197,7057918.3209829135
1651200000028034,1651200000028034,Hoofdstraat,Hoofdstraat,9982AM,9982AM,270,270.0,a,A,,,Uithuizermeeden,Uithuizermeeden,749526.7631521228,7060723.045164229
53200000009196,53200000009196,Netlaan,Netlaan,9951SG,9951SG,1,1.0,b,B,,,Winsum,Winsum,727156.9183093464,7044221.535136276
1651200000027000,1651200000027000,Havendwarsweg,Havendwarsweg,9981JS,9981JS,29,29.0,a,A,,,Uithuizen,Uithuizen,743125.5464472714,7057985.2498775115
1651200000027924,1651200000027924,Hoofdstraat,Hoofdstraat,9982AG,9982AG,2,2.0,b,B,,,Uithuizermeeden,Uithuizermeeden,746668.5867766221,7059084.421322292
1651200000028827,1651200000028827,Lange Akker,Lange Akker,9982HK,9982HK,1,1.0,a,A,,,Uithuizermeeden,Uithuizermeeden,748889.6790902284,7060320.397899258
1651200000025158,1651200000025158,Hoofdstraat-Oost,Hoofdstraat-Oost,9981AG,9981AG,37,37.0,a,A,,,Uithuizen,Uithuizen,743169.8721651395,7058626.1486737905
53200000006756,53200000006756,De Streekweg,De Streekweg,9956PN,9956PN,35,35.0,a,A,,,Den Andel,Den Andel,724501.3341962808,7055705.031721015
53200000010013,53200000010013,Provincialeweg,Provincialeweg,9774PA,9774PA,19,19.0,a,A,,,Adorp,Adorp,727672.3763133899,7033686.1756262705
53200000011955,53200000011955,Hamrik,Hamrik,9951JH,9951JH,4,4.0,a,A,,,Winsum,Winsum,726001.3597062537,7043912.912887398
1651200000025199,1651200000025199,Blink,Blink,9981AJ,9981AJ,6,6.0,b,B,,,Uithuizen,Uithuizen,743194.963050204,7058505.128071681
53200000010469,53200000010469,Schouwerzijlsterweg,Schouwerzijlsterweg,9951TG,9951TG,11,11.0,b,B,,,Winsum,Winsum,724021.7837258193,7045167.089363771
1651200000026990,1651200000026990,Havendwarsweg,Havendwarsweg,9981JS,9981JS,19,19.0,a,A,,,Uithuizen,Uithuizen,743069.4405228018,7057990.540723434
53200000010938,53200000010938,Tinallingerweg,Tinallingerweg,9953TA,9953TA,3,3.0,b,B,,,Baflo,Baflo,726009.807584954,7050332.303113559
53200000018766,53200000018766,Prof Dr G vd Molenstr,Prof Dr Geziena van der Molenstraat,9953SK,9953SK,11,11.0,B,B,,,Baflo,Baflo,725331.4005829253,7049724.484685615
53200000018769,53200000018769,Prof Dr G vd Molenstr,Prof Dr Geziena van der Molenstraat,9953SK,9953SK,11,11.0,C,C,,,Baflo,Baflo,725331.47924583,7049729.511826354
53200000018772,53200000018772,Prof Dr G vd Molenstr,Prof Dr Geziena van der Molenstraat,9953SK,9953SK,11,11.0,D,D,,,Baflo,Baflo,725331.5579088475,7049734.538970221
53200000018775,53200000018775,Prof Dr G vd Molenstr,Prof Dr Geziena van der Molenstraat,9953SK,9953SK,11,11.0,E,E,,,Baflo,Baflo,725331.6365719775,7049739.56611722
53200000018778,53200000018778,Prof Dr G vd Molenstr,Prof Dr Geziena van der Molenstraat,9953SK,9953SK,11,11.0,F,F,,,Baflo,Baflo,725331.7152352204,7049744.5932673495
53200000018781,53200000018781,Prof Dr G vd Molenstr,Prof Dr Geziena van der Molenstraat,9953SK,9953SK,11,11.0,G,G,,,Baflo,Baflo,725331.7938985764,7049749.620420611
53200000018784,53200000018784,Prof Dr G vd Molenstr,Prof Dr Geziena van der Molenstraat,9953SK,9953SK,11,11.0,H,H,,,Baflo,Baflo,725331.8725620444,7049754.647577006
53200000018787,53200000018787,Prof Dr G vd Molenstr,Prof Dr Geziena van der Molenstraat,9953SK,9953SK,11,11.0,I,I,,,Baflo,Baflo,725331.9512256257,7049759.674736532
53200000018790,53200000018790,Prof Dr G vd Molenstr,Prof Dr Geziena van der Molenstraat,9953SK,9953SK,11,11.0,J,J,,,Baflo,Baflo,725332.0298893196,7049764.701899181
53200000011036,53200000011036,Torenweg,Torenweg,9774PH,9774PH,31,31.0,a,A,,,Adorp,Adorp,727104.9274220575,7033892.631775396
53200000011503,53200000011503,Wierdaweg,Wierdaweg,9951TM,9951TM,2,2.0,d,D,,,Winsum,Winsum,724957.9942953337,7044011.756837165
53200000011037,53200000011037,Torenweg,Torenweg,9774PH,9774PH,31,31.0,b,B,,,Adorp,Adorp,727083.9807373774,7033939.805346241
53200000008696,53200000008696,Lombok,Lombok,9951SC,9951SC,31,31.0,a,A,,,Winsum,Winsum,726970.3004118971,7044676.7683869945
53200000006757,53200000006757,De Streekweg,De Streekweg,9956PN,9956PN,35,35.0,b,B,,,Den Andel,Den Andel,724502.5378314095,7055674.820380068
53200000007692,53200000007692,Hoofdstraat O,Hoofdstraat O,9951AH,9951AH,38,38.0,a,A,,,Winsum,Winsum,725261.791433879,7045060.594458858
53200000012141,53200000012141,Wierdaweg,Wierdaweg,9951TM,9951TM,4,4.0,a,A,,,Winsum,Winsum,725009.2819520138,7043871.934166196
53200000011039,53200000011039,Torenweg,Torenweg,9774PH,9774PH,33,33.0,a,A,,,Adorp,Adorp,726969.0995823357,7034062.081395214
53200000142314,53200000142314,Stationsstraat,Stationsstraat,9771AG,9771AG,56,56.0,a,A,,,Sauwerd,Sauwerd,728186.5296649592,7036875.318929632
1651200000028509,1651200000028509,Koningin Wilhelminastr,Koningin Wilhelminastraat,9982GE,9982GE,16,16.0,,,,,Uithuizermeeden,Uithuizermeeden,749069.7937473607,7059831.991949245
1651200000028510,1651200000028510,Koningin Wilhelminastr,Koningin Wilhelminastraat,9982GE,9982GE,18,18.0,,,,,Uithuizermeeden,Uithuizermeeden,749081.4159395258,7059826.739736639
1651200000032993,1651200000032993,Noorderdijk,Noorderdijk,,,4,4.0,a,A,,,Usquert,Usquert,732704.8134662564,7063399.813362569
1651200000028493,1651200000028493,Koningin Wilhelminastr,Koningin Wilhelminastraat,9982GE,9982GE,1,1.0,,,,,Uithuizermeeden,Uithuizermeeden,749025.6028362478,7059886.523607038
53200000142345,53200000142345,Het Aanleg,Het Aanleg,9951SJ,9951SJ,6,6.0,c,C,,,Winsum,Winsum,724604.3265559792,7045311.465100304
53200000012288,53200000012288,Schouwerzijlsterweg,Schouwerzijlsterweg,9951TG,9951TG,11,11.0,a,A,,,Winsum,Winsum,724068.4459418332,7045050.7770212535
1651200000028512,1651200000028512,Koningin Wilhelminastr,Koningin Wilhelminastraat,9982GE,9982GE,22,22.0,,,,,Uithuizermeeden,Uithuizermeeden,749111.4175153645,7059819.465442775
1651200000028494,1651200000028494,Koningin Wilhelminastr,Koningin Wilhelminastraat,9982GE,9982GE,3,3.0,,,,,Uithuizermeeden,Uithuizermeeden,749037.25635447,7059882.949136713
1651200000030097,1651200000030097,Provincialeweg,Provincialeweg,9988NX,9988NX,17,17.0,a,A,,,Usquert,Usquert,735907.2207575921,7057196.233240444
1651200000030099,1651200000030099,Provincialeweg,Provincialeweg,9988NX,9988NX,17,17.0,c,C,,,Usquert,Usquert,735907.5907616762,7057218.037114412
1651200000028514,1651200000028514,Koningin Wilhelminastr,Koningin Wilhelminastraat,9982GE,9982GE,26,26.0,,,,,Uithuizermeeden,Uithuizermeeden,749134.7242691944,7059812.316297301
53200000009962,53200000009962,Prof Dr G vd Molenstr,Prof Dr Geziena van der Molenstraat,9953SK,9953SK,24,24.0,T,T,,,Baflo,Baflo,725275.1017885592,7049546.026242248
1651200000028495,1651200000028495,Koningin Wilhelminastr,Koningin Wilhelminastraat,9982GE,9982GE,5,5.0,,,,,Uithuizermeeden,Uithuizermeeden,749048.9098622306,7059879.374651026
53200000008674,53200000008674,Lombok,Lombok,9951SC,9951SC,5,5.0,a,A,,,Winsum,Winsum,726622.4327002772,7044764.380054035
53200000019345,53200000019345,Schaphalsterzijl,Schaphalsterzijl,9951TW,9951TW,1,1.0,a,A,,,Winsum,Winsum,720495.2968558526,7044477.425574734
53200000018940,53200000018940,Warffumerweg,Warffumerweg,9955VP,9955VP,4,4.0,a,A,,,Rasquert,Rasquert,725296.6053019573,7051989.794866989
53200000019261,53200000019261,Onderdendamsterweg,Onderdendamsterweg,9951TD,9951TD,43,43.0,a,A,,,Winsum,Winsum,725947.4936621061,7045626.0658675395
1651200000032298,1651200000032298,Albert van der Zielstr,Albert van der Zielstraat,9997PE,9997PE,2,2.0,,,,,Zandeweer,Zandeweer,743503.3932570046,7055004.828300842
53200000142374,53200000142374,Ubbo J. Mansholtplein,Ubbo J. Mansholt plein,9951BX,9951BX,1,1.0,,,,,Winsum,Winsum,725789.1156658039,7044254.357374143
1651200000026916,1651200000026916,Havenweg,Havenweg,9981JN,9981JN,17,17.0,a,A,,,Uithuizen,Uithuizen,743152.8510426544,7057995.19435571
53200000012312,53200000012312,Tulpstraat,Tulpstraat,9951GX,9951GX,86,86.0,a,A,,,Winsum,Winsum,725607.5963261013,7045798.957560964
53200000012315,53200000012315,Tulpstraat,Tulpstraat,9951GX,9951GX,86,86.0,b,B,,,Winsum,Winsum,725607.517540098,7045793.932871466
53200000012318,53200000012318,Tulpstraat,Tulpstraat,9951GX,9951GX,86,86.0,c,C,,,Winsum,Winsum,725607.4387542078,7045788.908185097
53200000012321,53200000012321,Tulpstraat,Tulpstraat,9951GX,9951GX,86,86.0,d,D,,,Winsum,Winsum,725607.3599684302,7045783.883501855
53200000012114,53200000012114,Tulpstraat,Tulpstraat,9951GX,9951GX,86,86.0,e,E,,,Winsum,Winsum,725607.3074446409,7045780.533714754
1651200000032289,1651200000032289,Albert van der Zielstr,Albert van der Zielstraat,9997PD,9997PD,23,23.0,,,,,Zandeweer,Zandeweer,743468.8157489201,7055129.569446684
53200000012117,53200000012117,Tulpstraat,Tulpstraat,9951GX,9951GX,86,86.0,f,F,,,Winsum,Winsum,725612.2675542745,7045777.104952617
53200000012330,53200000012330,Tulpstraat,Tulpstraat,9951GX,9951GX,86,86.0,g,G,,,Winsum,Winsum,725612.1887656256,7045772.080276784
53200000012123,53200000012123,Tulpstraat,Tulpstraat,9951GX,9951GX,86,86.0,h,H,,,Winsum,Winsum,725612.1099770896,7045767.055604081
53200000012126,53200000012126,Tulpstraat,Tulpstraat,9951GX,9951GX,86,86.0,i,I,,,Winsum,Winsum,725612.0311886659,7045762.030934507
53200000012129,53200000012129,Tulpstraat,Tulpstraat,9951GX,9951GX,86,86.0,j,J,,,Winsum,Winsum,725611.9524003557,7045757.006268062
53200000012132,53200000012132,Tulpstraat,Tulpstraat,9951GX,9951GX,86,86.0,k,K,,,Winsum,Winsum,725611.8736121579,7045751.981604729
53200000008969,53200000008969,Meeden,Meeden,9951HZ,9951HZ,3,3.0,a,A,,,Winsum,Winsum,726883.053839484,7044021.552234355
1651200000030179,1651200000030179,Streeksterweg,Streeksterweg,9988RC,9988RC,14,14.0,a,A,,,Usquert,Usquert,736512.042948099,7058018.0813625455
1651200000026805,1651200000026805,Noorderstraat,Noorderstraat,9981CK,,5,5.0,b,B,,,Uithuizen,Uithuizen,743198.0086312406,7058765.827980948
1651200000028496,1651200000028496,Koningin Wilhelminastr,Koningin Wilhelminastraat,9982GE,9982GE,7,7.0,,,,,Uithuizermeeden,Uithuizermeeden,749060.5633595302,7059875.800149974
53200000007600,53200000007600,Het Aanleg,Het Aanleg,9951SJ,9951SJ,9,9.0,a,A,,,Winsum,Winsum,724395.8447366483,7045256.747131306
53200000008970,53200000008970,Meeden,Meeden,9951HZ,9951HZ,3,3.0,b,B,,,Winsum,Winsum,726773.8878947987,7043986.440032158
53200000008971,53200000008971,Meeden,Meeden,9951HZ,9951HZ,3,3.0,c,C,,,Winsum,Winsum,726772.4028748306,7043998.188213673
53200000008972,53200000008972,Meeden,Meeden,9951HZ,9951HZ,3,3.0,d,D,,,Winsum,Winsum,726787.3843991371,7043994.6001151195
1651200000026691,1651200000026691,Lageweg,Lageweg,9981HC,9981HC,49,49.0,b,B,,,Uithuizen,Uithuizen,740814.6415299056,7059488.699192459
1651200000026711,1651200000026711,Lageweg,Lageweg,9981HE,9981HE,2,2.0,f,F,,,Uithuizen,Uithuizen,740835.5787773366,7059156.053772362
53200000007695,53200000007695,Hoofdstraat W,Hoofdstraat W,9951AB,9951AB,2,2.0,a,A,,,Winsum,Winsum,725184.297199332,7044699.985883955
53200000007696,53200000007696,Hoofdstraat W,Hoofdstraat W,9951AB,9951AB,2,2.0,b,B,,,Winsum,Winsum,725181.3222475763,7044723.483772563
53200000019468,53200000019468,Ubbo J. Mansholtplein,Ubbo J. Mansholt plein,9951BX,9951BX,2,2.0,,,,,Winsum,Winsum,725788.169300837,7044313.596839669
53200000018652,53200000018652,Dr.M. Noordewierstraat,Dr.M. Noordewierstraat,9953SV,9953SV,43,43.0,a,A,,,Baflo,Baflo,724911.699698175,7049831.640725828
53200000018655,53200000018655,Dr.M. Noordewierstraat,Dr.M. Noordewierstraat,9953SV,9953SV,43,43.0,b,B,,,Baflo,Baflo,724911.5690292047,7049823.262044772
53200000011973,53200000011973,Hoofdstraat W,Hoofdstraat W,9951AB,9951AB,10,10.0,a,A,,,Winsum,Winsum,725266.5206486762,7044614.9407729255
53200000019432,53200000019432,Warfstraat,Warfstraat,9951BS,9951BS,1,1.0,a,A,,,Winsum,Winsum,725781.7057629685,7043476.240818245
53200000019438,53200000019438,Warfstraat,Warfstraat,9951BS,9951BS,1,1.0,d,D,,,Winsum,Winsum,725791.72815378,7043476.082701646
53200000008688,53200000008688,Lombok,Lombok,9951SC,9951SC,17,17.0,a,A,,,Winsum,Winsum,726802.4401042284,7044734.717687784
1651200000026464,1651200000026464,Brouwerijstraat,Brouwerijstraat,9981JL,9981JL,32,32.0,a,A,,,Uithuizen,Uithuizen,742978.9134600542,7058226.629783395
53200000018664,53200000018664,Dr.M. Noordewierstraat,Dr.M. Noordewierstraat,9953SV,9953SV,43,43.0,e,E,,,Baflo,Baflo,724893.4936387128,7049843.659035831
53200000018667,53200000018667,Dr.M. Noordewierstraat,Dr.M. Noordewierstraat,9953SV,9953SV,43,43.0,f,F,,,Baflo,Baflo,724893.3629884848,7049835.280341917
1651200000028084,1651200000028084,Grote Hadderstraat,Grote Hadderstraat,9982AR,9982AR,2,2.0,j,J,,,Uithuizermeeden,Uithuizermeeden,747835.518411513,7059696.928814797
1651200000030714,1651200000030714,Noorderdijk,Oostelijke Polder Opweg,9988TE,9988TG,15,15.0,,,,,Usquert,Usquert,738352.4540786741,7066111.352949848
1651200000029785,1651200000029785,Zuster Kortestraat,Zuster Kortestraat,9983SX,9983SX,26,26.0,b,B,,,Roodeschool,Roodeschool,753301.9936146883,7060854.689294272
53200000019279,53200000019279,Ringoven,Ringoven,9951SB,9951SB,2,2.0,a,A,,,Winsum,Winsum,730805.0074154234,7045164.224316361
53200000008188,53200000008188,Karspelweg,Karspelweg,9773TL,9773TL,2,2.0,a,A,,,Wetsinge,Wetsinge,726671.2803238167,7039400.046679237
53200000019174,53200000019174,Hoofdstraat W,Hoofdstraat W,9951AB,9951AB,2,2.0,c,C,,,Winsum,Winsum,725156.1576862823,7044717.178505236
53200000018814,53200000018814,Kruisweg,Kruisweg,9956PK,9956PK,6,6.0,c,C,,,Den Andel,Den Andel,725171.9284375341,7055785.105628236
1651200000026729,1651200000026729,Lageweg,Lageweg,9981HG,9981HG,56,56.0,b,B,,,Uithuizen,Uithuizen,740879.9694517716,7059776.199249917
53200000019135,53200000019135,Het Aanleg,Het Aanleg,9951SJ,9951SJ,13,13.0,a,A,,,Winsum,Winsum,724283.9625933516,7045154.630623252
53200000142147,53200000142147,Lombok,Lombok,9951SC,9951SC,35,35.0,a,A,,,Winsum,Winsum,727098.3768277564,7044769.522789924
1651200000031308,1651200000031308,Prof.Dr.M.W.Beyerinckstr,Prof. Dr. M. W. Beyerinckstraat,9989CA,9989CA,19,19.0,,,,,Warffum,Warffum,730374.8975035152,7056736.701726919
1651200000028497,1651200000028497,Koningin Wilhelminastr,Koningin Wilhelminastraat,9982GE,9982GE,9,9.0,,,,,Uithuizermeeden,Uithuizermeeden,749080.5541421444,7059870.391417309
53200000142116,53200000142116,Hoofdstraat O,Hoofdstraat O,9951AG,9951AG,17,17.0,b,B,,,Winsum,Winsum,725220.1633196996,7044886.330420505
53200000142117,53200000142117,Hoofdstraat O,Hoofdstraat O,9951AG,9951AG,17,17.0,c,C,,,Winsum,Winsum,725217.1869372786,7044893.91186295
1651200000028811,1651200000028811,Lijnbaan,Lijnbaan,9982HJ,9982HJ,2,2.0,a,A,,,Uithuizermeeden,Uithuizermeeden,748778.4291734288,7060280.515498796
53200000142140,53200000142140,Lombok,Trekweg naar Onderdendam,9951SC,9951SE,25,27.0,,,,,Winsum,Winsum,726890.5009599634,7044843.6071948605
53200000142312,53200000142312,Eenrumerweg,Eenrumerweg,9953TD,9953TD,2,2.0,a,A,,,Baflo,Baflo,724756.7670452056,7050652.839260844
1651200000032975,1651200000032975,Raadhuisstraat,Raadhuisstraat,9988RE,9988RE,3,3.0,a,A,,,Usquert,Usquert,735685.7410495477,7058246.920125693
1651200000029782,1651200000029782,Zuster Kortestraat,Zuster Kortestraat,9983SX,9983SX,24,24.0,a,A,,,Roodeschool,Roodeschool,753339.9581212401,7060832.65544649
1651200000028078,1651200000028078,Grote Hadderstraat,Grote Hadderstraat,9982AR,9982AR,2,2.0,c,C,,,Uithuizermeeden,Uithuizermeeden,747843.531204798,7059717.510048061
53200000142269,53200000142269,De Vennenweg,De Vennenweg,9954TR,9954TR,9,9.0,a,A,,,Tinallinge,Tinallinge,731082.7643364073,7047606.754310978
1651200000031594,1651200000031594,Juffer Marthastraat,Juffer Marthastraat,9989EH,9989EH,28,28.0,b,B,,,Warffum,Warffum,729569.7984027114,7056213.0183592
1651200000026728,1651200000026728,Lageweg,Lageweg,9981HG,9981HG,56,56.0,a,A,,,Uithuizen,Uithuizen,740882.7856604567,7059745.940963076
1651200000026228,1651200000026228,Departementsstraat,Departementsstraat,9981GC,9981GC,22,22.0,a,A,,,Uithuizen,Uithuizen,742776.7342358519,7059391.701326716
1651200000033926,1651200000033926,Oosterstraat,Oosterstraat,9989AE,9989AE,50,50.0,a,A,,,Warffum,Warffum,730385.7155549937,7056243.930859954
1651200000026240,1651200000026240,Departementsstraat,Departementsstraat,9981GC,9981GC,38,38.0,a,A,,,Uithuizen,Uithuizen,742830.4969215689,7059510.084356478
53200000142149,53200000142149,Schouwerzijlsterweg,Schouwerzijlsterweg,9951TG,9951TG,11,11.0,d,D,,,Winsum,Winsum,724213.9353359805,7044965.977256346
53200000142150,53200000142150,Schouwerzijlsterweg,Schouwerzijlsterweg,9951TG,9951TG,11,11.0,e,E,,,Winsum,Winsum,724209.8542366244,7044961.435896487
53200000142151,53200000142151,Schouwerzijlsterweg,Schouwerzijlsterweg,9951TG,9951TG,11,11.0,f,F,,,Winsum,Winsum,724204.2432802432,7044964.280582876
53200000142152,53200000142152,Schouwerzijlsterweg,Schouwerzijlsterweg,9951TG,9951TG,11,11.0,g,G,,,Winsum,Winsum,724199.8252133896,7044959.885179776
53200000142153,53200000142153,Schouwerzijlsterweg,Schouwerzijlsterweg,9951TG,9951TG,11,11.0,h,H,,,Winsum,Winsum,724194.2430077306,7044963.829973729
53200000142154,53200000142154,Schouwerzijlsterweg,Schouwerzijlsterweg,9951TG,9951TG,11,11.0,i,I,,,Winsum,Winsum,724189.9336234537,7044958.791296428
53200000142155,53200000142155,Schouwerzijlsterweg,Schouwerzijlsterweg,9951TG,9951TG,11,11.0,j,J,,,Winsum,Winsum,724184.4839193346,7044962.767521643
53200000142156,53200000142156,Schouwerzijlsterweg,Schouwerzijlsterweg,9951TG,9951TG,11,11.0,k,K,,,Winsum,Winsum,724180.1047335232,7044958.0766795585
53200000142163,53200000142163,Havenstraat,Havenstraat,9951AE,9951AE,1,1.0,a,A,,,Winsum,Winsum,725371.6333497807,7044564.1423321515
1651200000032908,1651200000032908,Uithuizerweg,Uithuizerweg,9982ND,9982ND,11,11.0,a,A,,,Uithuizermeeden,Uithuizermeeden,745776.322489576,7059689.886285653
53200000142270,53200000142270,Eenrumerweg,Eenrumerweg,9953TD,9953TD,14,14.0,a,A,,,Baflo,Baflo,724379.0632047993,7050643.420419174
53200000142271,53200000142271,Eenrumerweg,Eenrumerweg,9953TD,9953TD,14,14.0,b,B,,,Baflo,Baflo,724379.0883215911,7050648.160644687
53200000142272,53200000142272,Eenrumerweg,Eenrumerweg,9953TD,9953TD,14,14.0,c,C,,,Baflo,Baflo,724379.0991908073,7050652.629532109
53200000142273,53200000142273,Eenrumerweg,Eenrumerweg,9953TD,9953TD,14,14.0,d,D,,,Baflo,Baflo,724379.454021333,7050656.7410282465
53200000018697,53200000018697,Eenrumerweg,Eenrumerweg,9953TD,9953TD,14,14.0,e,E,,,Baflo,Baflo,724379.5048602133,7050661.199238826
53200000142274,53200000142274,Eenrumerweg,Eenrumerweg,9953TD,9953TD,14,14.0,f,F,,,Baflo,Baflo,724380.2878539626,7050665.3141160235
53200000142275,53200000142275,Eenrumerweg,Eenrumerweg,9953TD,9953TD,14,14.0,g,G,,,Baflo,Baflo,724380.7633364513,7050669.656744274
53200000142276,53200000142276,Eenrumerweg,Eenrumerweg,9953TD,9953TD,14,14.0,h,H,,,Baflo,Baflo,724380.8859502295,7050673.890891383
53200000142277,53200000142277,Eenrumerweg,Eenrumerweg,9953TD,9953TD,14,14.0,i,I,,,Baflo,Baflo,724381.028667871,7050678.77346334
53200000142278,53200000142278,Eenrumerweg,Eenrumerweg,9953TD,9953TD,14,14.0,j,J,,,Baflo,Baflo,724344.2451515469,7050672.239764857
53200000142279,53200000142279,Eenrumerweg,Eenrumerweg,9953TD,9953TD,14,14.0,k,K,,,Baflo,Baflo,724344.0909633185,7050677.388473976
53200000142280,53200000142280,Eenrumerweg,Eenrumerweg,9953TD,9953TD,14,14.0,l,L,,,Baflo,Baflo,724343.9295156323,7050682.06960577
53200000142281,53200000142281,Eenrumerweg,Eenrumerweg,9953TD,9953TD,14,14.0,m,M,,,Baflo,Baflo,724343.6635822236,7050687.453073253
1651200000029459,1651200000029459,Prinsenhof,Prinsenhof,9983PJ,9983PJ,24,24.0,a,A,,,Roodeschool,Roodeschool,753043.7334677223,7061629.869005501
53200000142307,53200000142307,Hoofdstraat W,Hoofdstraat W,9951AB,9951AB,51,51.0,a,A,,,Winsum,Winsum,725373.7731038402,7044284.659252995
53200000142157,53200000142157,Schouwerzijlsterweg,Schouwerzijlsterweg,9951TG,9951TG,11,11.0,l,L,,,Winsum,Winsum,724174.2858936088,7044961.849255404
53200000142158,53200000142158,Schouwerzijlsterweg,Schouwerzijlsterweg,9951TG,9951TG,11,11.0,m,M,,,Winsum,Winsum,724169.9728231676,7044957.326567001
53200000142159,53200000142159,Schouwerzijlsterweg,Schouwerzijlsterweg,9951TG,9951TG,11,11.0,n,N,,,Winsum,Winsum,724164.9229274354,7044960.467360031
53200000142160,53200000142160,Schouwerzijlsterweg,Schouwerzijlsterweg,9951TG,9951TG,11,11.0,o,O,,,Winsum,Winsum,724160.0507875856,7044956.100785821
53200000142161,53200000142161,Schouwerzijlsterweg,Schouwerzijlsterweg,9951TG,9951TG,11,11.0,p,P,,,Winsum,Winsum,724155.0885773035,7044959.508227843
1651200000026467,1651200000026467,Brouwerijstraat,Brouwerijstraat,9981JL,9981JL,32,32.0,d,D,,,Uithuizen,Uithuizen,742969.8318938081,7058218.161372281
1651200000028028,1651200000028028,Hoofdstraat,Hoofdstraat,9982AM,9982AM,252,252.0,a,A,,,Uithuizermeeden,Uithuizermeeden,749400.3608683534,7060589.460018247
1651200000026040,1651200000026040,Aak,Aak,9981EK,9981EK,13,13.0,b,B,,,Uithuizen,Uithuizen,743508.2870835381,7057893.51318987
1651200000026417,1651200000026417,Jacob Wiersumstraat,Jacob Wiersumstraat,9981JJ,9981JJ,2,2.0,b,B,,,Uithuizen,Uithuizen,742963.7287147093,7058425.132676639
1651200000033216,1651200000033216,Tjalk,Tjalk,9981EH,9981EH,7,7.0,a,A,,,Uithuizen,Uithuizen,743400.7792060481,7057980.502929906
1651200000028503,1651200000028503,Koningin Wilhelminastr,Koningin Wilhelminastraat,9982GE,9982GE,4,4.0,,,,,Uithuizermeeden,Uithuizermeeden,748993.2406257935,7059856.919241102
1651200000032302,1651200000032302,Albert van der Zielstr,Albert van der Zielstraat,9997PE,9997PE,10,10.0,,,,,Zandeweer,Zandeweer,743500.9489477171,7055055.1905019535
1651200000031315,1651200000031315,Prof.Dr.M.W.Beyerinckstr,Prof. Dr. M. W. Beyerinckstraat,9989CA,9989CA,2,2.0,,,,,Warffum,Warffum,730129.9922381281,7056702.119575309
1651200000029214,1651200000029214,Dwarsweg,Dwarsweg,9982TW,9982TW,14,14.0,a,A,,,Uithuizermeeden,Uithuizermeeden,754258.2655486958,7065470.4766317895
1651200000031316,1651200000031316,Prof.Dr.M.W.Beyerinckstr,Prof. Dr. M. W. Beyerinckstraat,9989CB,9989CB,4,4.0,,,,,Warffum,Warffum,730211.1458533991,7056653.961071334
1651200000032297,1651200000032297,Albert van der Zielstr,Albert van der Zielstraat,9997PD,9997PD,41,41.0,,,,,Zandeweer,Zandeweer,743487.6882920037,7055243.323485623
1651200000031309,1651200000031309,Prof Dr M W Beyerinckstr,Prof. Dr. M. W. Beyerinckstraat,9989CA,9989CA,21,21.0,,,,,Warffum,Warffum,730386.7187029879,7056743.218727243
1651200000031310,1651200000031310,Prof.Dr.M.W.Beyerinckstr,Prof. Dr. M. W. Beyerinckstraat,9989CA,9989CA,23,23.0,,,,,Warffum,Warffum,730403.5593467071,7056749.65359028
1651200000031317,1651200000031317,Prof.Dr.M.W.Beyerinckstr,Prof. Dr. M. W. Beyerinckstraat,9989CB,9989CB,6,6.0,,,,,Warffum,Warffum,730241.355667777,7056655.005796801
1651200000031311,1651200000031311,Prof.Dr.M.W.Beyerinckstr,Prof. Dr. M. W. Beyerinckstraat,9989CA,9989CA,25,25.0,,,,,Warffum,Warffum,730415.3805883669,7056756.170558461
1651200000026742,1651200000026742,Ossegang,Ossegang,9981HH,9981HH,12,12.0,a,A,,,Uithuizen,Uithuizen,740766.586197985,7058850.181570681
1651200000031312,1651200000031312,Prof.Dr.M.W.Beyerinckstr,Prof. Dr. M. W. Beyerinckstraat,9989CA,9989CA,27,27.0,,,,,Warffum,Warffum,730435.6222041434,7056765.904914579
1651200000031313,1651200000031313,Prof.Dr.M.W.Beyerinckstr,Prof. Dr. M. W. Beyerinckstraat,9989CA,9989CA,29,29.0,,,,,Warffum,Warffum,730444.0698844632,7056770.799461991
1651200000025489,1651200000025489,Oosterstationsstraat,Oosterstationsstraat,9981CE,9981CE,13,13.0,a,A,,,Uithuizen,Uithuizen,743185.5869151567,7059036.9918850865
1651200000025198,1651200000025198,Blink,Blink,9981AJ,9981AJ,6,6.0,a,A,,,Uithuizen,Uithuizen,743200.8959909396,7058513.29233171
1651200000030388,1651200000030388,Biewemastraat,Biewemastraat,9988RW,9988RW,1,1.0,a,A,,,Usquert,Usquert,736109.7766402158,7057746.587501572
1651200000031574,1651200000031574,Juffer Marthastraat,Juffer Marthastraat,9989EH,9989EH,29,29.0,b,B,,,Warffum,Warffum,729520.6023433877,7056171.880999678
1651200000028092,1651200000028092,Grote Hadderstraat,Grote Hadderstraat,9982AR,9982AR,2,2.0,r,R,,,Uithuizermeeden,Uithuizermeeden,747821.1418981747,7059700.117274088
1651200000030768,1651200000030768,Oosterstraat,Oosterstraat,9989AC,9989AC,65,65.0,c,C,,,Warffum,Warffum,730225.0075306694,7056370.089795409
1651200000030366,1651200000030366,Hoofdstraat,Hoofdstraat,9988RT,9988RT,2,2.0,c,C,,,Usquert,Usquert,736117.5095486026,7057555.0370143885
1651200000030227,1651200000030227,Raadhuisstraat,Raadhuisstraat,9988RG,9988RG,28,28.0,a,A,,,Usquert,Usquert,736048.8870011969,7058047.812954014
1651200000032573,1651200000032573,Oudedijksterweg,Oudedijksterweg,9982HC,9982HC,3,3.0,b,B,,,Uithuizermeeden,Uithuizermeeden,748542.3427451754,7060009.66879977
1651200000032286,1651200000032286,Albert van der Zielstr,Albert van der Zielstraat,9997PD,9997PD,17,17.0,,,,,Zandeweer,Zandeweer,743463.0467630168,7055087.741023977
1651200000030180,1651200000030180,Streeksterweg,Streeksterweg,9988RC,9988RC,14,14.0,b,B,,,Usquert,Usquert,736523.7851919946,7058019.55811832
1651200000025291,1651200000025291,Schoolstraat,Schoolstraat,9981AN,9981AN,20,20.0,h,H,,,Uithuizen,Uithuizen,742909.029963931,7058918.989356883
1651200000025283,1651200000025283,Schoolstraat,Schoolstraat,9981AN,9981AN,18,18.0,l,L,,,Uithuizen,Uithuizen,742887.391133362,7058921.441324023
1651200000025276,1651200000025276,Schoolstraat,Schoolstraat,9981AN,9981AN,18,18.0,e,E,,,Uithuizen,Uithuizen,742961.7513910106,7058900.03816927
1651200000025274,1651200000025274,Schoolstraat,Schoolstraat,9981AN,9981AN,18,18.0,c,C,,,Uithuizen,Uithuizen,742968.9388050322,7058922.58178579
1651200000025273,1651200000025273,Schoolstraat,Schoolstraat,9981AN,9981AN,18,18.0,b,B,,,Uithuizen,Uithuizen,742973.2439891744,7058935.024742155
1651200000025278,1651200000025278,Schoolstraat,Schoolstraat,9981AN,9981AN,18,18.0,g,G,,,Uithuizen,Uithuizen,742937.2754065578,7058902.039406311
1651200000025272,1651200000025272,Schoolstraat,Schoolstraat,9981AN,9981AN,18,18.0,a,A,,,Uithuizen,Uithuizen,742976.4866860417,7058944.77834209
1651200000025290,1651200000025290,Schoolstraat,Schoolstraat,9981AN,9981AN,20,20.0,g,G,,,Uithuizen,Uithuizen,742917.9188905059,7058912.775471921
1651200000025279,1651200000025279,Schoolstraat,Schoolstraat,9981AN,9981AN,18,18.0,h,H,,,Uithuizen,Uithuizen,742927.9748951267,7058904.981720348
1651200000025277,1651200000025277,Schoolstraat,Schoolstraat,9981AN,9981AN,18,18.0,f,F,,,Uithuizen,Uithuizen,742957.6408721453,7058892.496782443
1651200000025287,1651200000025287,Schoolstraat,Schoolstraat,9981AN,9981AN,20,20.0,d,D,,,Uithuizen,Uithuizen,742956.7375521095,7058904.539757856
1651200000025285,1651200000025285,Schoolstraat,Schoolstraat,9981AN,9981AN,20,20.0,b,B,,,Uithuizen,Uithuizen,742963.6142669065,7058925.152456932
1651200000025275,1651200000025275,Schoolstraat,Schoolstraat,9981AN,9981AN,18,18.0,d,D,,,Uithuizen,Uithuizen,742965.7005850833,7058913.828265035
1651200000025284,1651200000025284,Schoolstraat,Schoolstraat,9981AN,9981AN,20,20.0,a,A,,,Uithuizen,Uithuizen,742965.9761717613,7058937.801439362
1651200000025288,1651200000025288,Schoolstraat,Schoolstraat,9981AN,9981AN,20,20.0,e,E,,,Uithuizen,Uithuizen,742941.3641836836,7058907.706788437
1651200000025286,1651200000025286,Schoolstraat,Schoolstraat,9981AN,9981AN,20,20.0,c,C,,,Uithuizen,Uithuizen,742960.052284438,7058915.611006101
1651200000025281,1651200000025281,Schoolstraat,Schoolstraat,9981AN,9981AN,18,18.0,j,J,,,Uithuizen,Uithuizen,742905.7960456028,7058913.100220569
1651200000025280,1651200000025280,Schoolstraat,Schoolstraat,9981AN,9981AN,18,18.0,i,I,,,Uithuizen,Uithuizen,742916.002932876,7058908.789147268
1651200000025282,1651200000025282,Schoolstraat,Schoolstraat,9981AN,9981AN,18,18.0,k,K,,,Uithuizen,Uithuizen,742896.1748403027,7058917.961262265
1651200000027417,1651200000027417,Hiddingariep,Hiddingariep,9981KT,9981KT,1,1.0,a,A,,,Uithuizen,Uithuizen,742180.2266719578,7058043.153271295
1651200000025559,1651200000025559,Borgweg,Borgweg,9981CJ,9981CJ,32,32.0,a,A,,,Uithuizen,Uithuizen,743473.2673948363,7058633.944901496
1651200000025576,1651200000025576,Borgweg,Borgweg,9981CJ,9981CJ,64,64.0,a,A,,,Uithuizen,Uithuizen,743612.6463498923,7058651.341383363
1651200000032725,1651200000032725,Breede,Breede,9989TA,9989TA,1,1.0,b,B,,,Warffum,Warffum,728158.3919083384,7054685.877404991
1651200000026912,1651200000026912,Havenweg,Havenweg,9981JN,9981JN,7,7.0,a,A,,,Uithuizen,Uithuizen,743165.4807074806,7058187.277732949
1651200000033694,1651200000033694,Schoolstraat,Schoolstraat,,,18,18.0,n,N,,,Uithuizen,Uithuizen,742917.244441098,7058971.609496566
1651200000026944,1651200000026944,Havenweg,Havenweg,9981JN,9981JN,6,6.0,a,A,,,Uithuizen,Uithuizen,743165.7205701274,7058200.696869162
1651200000025289,1651200000025289,Schoolstraat,Schoolstraat,9981AN,9981AN,20,20.0,f,F,,,Uithuizen,Uithuizen,742929.4749466961,7058909.676934967
1651200000026046,1651200000026046,Aak,Aak,9981EK,9981EK,13,13.0,h,H,,,Uithuizen,Uithuizen,743455.5129119487,7057844.127202232
1651200000026071,1651200000026071,Aak,Aak,9981EK,9981EK,53,53.0,a,A,,,Uithuizen,Uithuizen,743392.5328904077,7057598.618930015
1651200000026045,1651200000026045,Aak,Aak,9981EK,9981EK,13,13.0,g,G,,,Uithuizen,Uithuizen,743463.9996334106,7057850.685903495
1651200000028398,1651200000028398,Tuinbouwweg,Tuinbouwweg,9982EJ,9982EJ,27,27.0,a,A,,,Uithuizermeeden,Uithuizermeeden,750236.7502098434,7060545.206574123
1651200000026104,1651200000026104,Klipper,Klipper,9981EM,9981EM,5,5.0,a,A,,,Uithuizen,Uithuizen,743334.9441396246,7057467.108962187
1651200000033693,1651200000033693,Schoolstraat,Schoolstraat,,,18,18.0,m,M,,,Uithuizen,Uithuizen,742914.8529102795,7058967.522593391
1651200000033712,1651200000033712,Barmerweg,Barmerweg,9997NH,9997NH,16,16.0,a,A,,,Zandeweer,Zandeweer,742091.9598364023,7055596.889747745
1651200000033674,1651200000033674,Spijksterweg,Spijksterweg,9983NN,9983NN,1,1.0,a,A,,,Roodeschool,Roodeschool,756391.7818209375,7060080.198192989
1651200000029670,1651200000029670,Laanweg,Laanweg,9983RG,9983RG,1,1.0,a,A,,,Roodeschool,Roodeschool,753600.8744199531,7060991.353763492
1651200000033265,1651200000033265,Kaapweg,Kaapweg,9982EG,9982EG,2,2.0,a,A,,,Uithuizermeeden,Uithuizermeeden,749472.2380981323,7059702.144857208
1651200000032825,1651200000032825,Oosterstationsstraat,Oosterstationsstraat,9981CE,9981CE,21,21.0,a,A,,,Uithuizen,Uithuizen,743099.2052458671,7059022.377950573
1651200000028066,1651200000028066,Koningin Wilhelminastr,Koningin Wilhelminastraat,,,7,7.0,A,A,,,Uithuizermeeden,Uithuizermeeden,749077.8155890508,7059922.236675319
1651200000032689,1651200000032689,Kaakstraat,Kaakstraat,9981BG,9981BG,8,8.0,a,A,,,Uithuizen,Uithuizen,743086.0506716812,7058749.814589631
1651200000027812,1651200000027812,Emmaweg,Emmaweg,9981VC,9981VC,48,48.0,b,B,,,Uithuizen,Uithuizen,744538.0825478018,7065759.016838633
1651200000033551,1651200000033551,Schildweg,Schildweg,9979XR,9979XR,18,18.0,a,A,,,Eemshaven,Eemshaven,759288.9859206742,7065514.310704815
1651200000031647,1651200000031647,Oostervalge,Oostervalge,9989EK,9989EK,36,36.0,a,A,,,Warffum,Warffum,731481.2577115622,7057253.697263214
1651200000032591,1651200000032591,Oosternielandsterweg,Oosternielandsterweg,9985SC,9985SC,20,20.0,a,A,,,Oosternieland,Oosternieland,751488.3083851875,7058106.609724255
1651200000033928,1651200000033928,Prinses Beatrixstraat,Prinses Beatrixstraat,,,24,24.0,a,A,,,Uithuizermeeden,Uithuizermeeden,749119.5703041382,7060067.442782811
1651200000028440,1651200000028440,Beukenhof,Beukenhof,9982EL,9982EL,6,6.0,a,A,,,Uithuizermeeden,Uithuizermeeden,749770.7557546648,7060070.599609801
1651200000031458,1651200000031458,Rottumeroog,Rottumeroog,9989CP,9989CP,6,6.0,a,A,,,Warffum,Warffum,729550.8259520408,7055247.1538658
1651200000031799,1651200000031799,Onderdendamsterweg,Onderdendamsterweg,9989TG,9989TG,7,7.0,a,A,,,Warffum,Warffum,731275.4532952912,7052242.144146842
1651200000032307,1651200000032307,Albert van der Zielstr,Albert van der Zielstraat,9997PE,9997PE,20,20.0,,,,,Zandeweer,Zandeweer,743517.0849822867,7055115.282287213
1651200000028410,1651200000028410,Tuinbouwweg,Tuinbouwweg,9982EJ,9982EJ,9,9.0,b,B,,,Uithuizermeeden,Uithuizermeeden,749983.4379379709,7060162.26664173
1651200000032897,1651200000032897,Snik,Snik,9981EE,9981EE,49,49.0,a,A,,,Uithuizen,Uithuizen,743267.116315649,7058009.299572458
1651200000026923,1651200000026923,Havenweg,Havenweg,9981JN,9981JN,1,1.0,a,A,,,Uithuizen,Uithuizen,743155.7536698828,7058398.194692318
1651200000032701,1651200000032701,Tuinbouwpad,Tuinbouwpad,9988RD,9988RD,2,2.0,b,B,,,Usquert,Usquert,736740.291127093,7058418.3491774835
1651200000026392,1651200000026392,de Laan,de Laan,9981GN,9981GN,97,97.0,c,C,,,Uithuizen,Uithuizen,742365.1432466833,7060065.327959603
1651200000028082,1651200000028082,Grote Hadderstraat,Grote Hadderstraat,9982AR,9982AR,2,2.0,g,G,,,Uithuizermeeden,Uithuizermeeden,747816.7780146283,7059719.397475485
1651200000031300,1651200000031300,Prof Dr M W Beyerinckstr,Prof. Dr. M. W. Beyerinckstraat,9989CA,9989CA,3,3.0,,,,,Warffum,Warffum,730252.0490763232,7056695.093004691
1651200000031321,1651200000031321,Prof Dr M W Beyerinckstr,Prof. Dr. M. W. Beyerinckstraat,9989CB,9989CB,22,22.0,,,,,Warffum,Warffum,730362.3937889206,7056688.256151601
53200000012171,53200000012171,Het Aanleg,Het Aanleg,9951SJ,9951SJ,9,9.0,b,B,,,Winsum,Winsum,724358.8796965327,7045243.92226936
1651200000030630,1651200000030630,Wadwerderweg,Wadwerderweg,9988SV,9988SV,91,91.0,a,A,,,Usquert,Usquert,733864.6681671917,7057664.787010548
1651200000028411,1651200000028411,Tuinbouwweg,Tuinbouwweg,9982EJ,9982EJ,9,9.0,c,C,,,Uithuizermeeden,Uithuizermeeden,749995.6255571299,7060187.212737434
1651200000032687,1651200000032687,Jacob Tilbusscherweg,Jacob Tilbusscherweg,9998XB,9998XB,15,15.0,a,A,,,Rottum,Rottum,736828.9993362646,7053963.281465175
1651200000030802,1651200000030802,Oosterstraat,Oosterstraat,9989AE,9989AE,56,56.0,b,B,,,Warffum,Warffum,730294.3944012374,7056417.603942875
1651200000030803,1651200000030803,Oosterstraat,Oosterstraat,9989AE,9989AE,56,56.0,c,C,,,Warffum,Warffum,730289.3751822684,7056417.685994909
1651200000030804,1651200000030804,Oosterstraat,Oosterstraat,9989AE,9989AE,56,56.0,d,D,,,Warffum,Warffum,730289.4297518326,7056421.040160062
1651200000030805,1651200000030805,Oosterstraat,Oosterstraat,9989AE,9989AE,56,56.0,e,E,,,Warffum,Warffum,730299.0083352007,7056435.400919254
1651200000030806,1651200000030806,Oosterstraat,Oosterstraat,9989AE,9989AE,56,56.0,f,F,,,Warffum,Warffum,730289.4843214487,7056424.394326611
1651200000030807,1651200000030807,Oosterstraat,Oosterstraat,9989AE,9989AE,56,56.0,g,G,,,Warffum,Warffum,730297.3642181288,7056437.105330028
1651200000030808,1651200000030808,Oosterstraat,Oosterstraat,9989AE,9989AE,56,56.0,h,H,,,Warffum,Warffum,730294.3671154267,7056415.926860869
1651200000030809,1651200000030809,Oosterstraat,Oosterstraat,9989AE,9989AE,56,56.0,k,K,,,Warffum,Warffum,730287.6475404397,7056414.359181099
1651200000030810,1651200000030810,Oosterstraat,Oosterstraat,9989AE,9989AE,56,56.0,l,L,,,Warffum,Warffum,730294.3125438449,7056412.572697878
1651200000030811,1651200000030811,Oosterstraat,Oosterstraat,9989AE,9989AE,56,56.0,m,M,,,Warffum,Warffum,730286.056320301,7056419.417776942
1651200000032593,1651200000032593,Oosterstraat,Oosterstraat,9989AE,9989AE,56,56.0,n,N,,,Warffum,Warffum,730309.1014001402,7056438.592648837
1651200000025371,1651200000025371,Spoorstraat,Spoorstraat,9981AT,9981AT,7,7.0,a,A,,,Uithuizen,Uithuizen,742527.3975137881,7059115.912658745
1651200000028750,1651200000028750,Torenstraat,Torenstraat,9982AX,9982AX,24,24.0,b,B,,,Uithuizermeeden,Uithuizermeeden,746907.9217304611,7058811.417862111
1651200000032598,1651200000032598,Westervalge,Westervalge,9989EB,9989EB,5,5.0,a,A,,,Warffum,Warffum,729520.0597273142,7055809.710904993
1651200000026930,1651200000026930,Havenweg,Havenweg,9981JN,9981JN,1,1.0,l,L,,,Uithuizen,Uithuizen,743154.8542236374,7058347.871813188
1651200000028409,1651200000028409,Tuinbouwweg,Tuinbouwweg,9982EJ,9982EJ,9,9.0,a,A,,,Uithuizermeeden,Uithuizermeeden,749969.6080537088,7060139.029856344
1651200000026935,1651200000026935,Havenweg,Havenweg,9981JN,9981JN,1,1.0,q,Q,,,Uithuizen,Uithuizen,743143.6499544424,7058376.598437917
1651200000026931,1651200000026931,Havenweg,Havenweg,9981JN,9981JN,1,1.0,m,M,,,Uithuizen,Uithuizen,743148.2205194796,7058351.346871897
1651200000026933,1651200000026933,Havenweg,Havenweg,9981JN,9981JN,1,1.0,o,O,,,Uithuizen,Uithuizen,743145.083541132,7058363.148957272
1651200000026936,1651200000026936,Havenweg,Havenweg,9981JN,9981JN,1,1.0,r,R,,,Uithuizen,Uithuizen,743142.096447623,7058383.33821193
1651200000026939,1651200000026939,Havenweg,Havenweg,9981JN,9981JN,1,1.0,u,U,,,Uithuizen,Uithuizen,743144.06966358,7058400.082493512
1651200000032574,1651200000032574,Oudedijksterweg,Oudedijksterweg,9982HC,9982HC,17,17.0,a,A,,,Uithuizermeeden,Uithuizermeeden,748433.834978915,7060117.425128516
1651200000032575,1651200000032575,Oudedijksterweg,Oudedijksterweg,9982HC,9982HC,17,17.0,b,B,,,Uithuizermeeden,Uithuizermeeden,748437.2757782238,7060122.396092346
1651200000028749,1651200000028749,Torenstraat,Torenstraat,9982AX,9982AX,24,24.0,a,A,,,Uithuizermeeden,Uithuizermeeden,746882.2712912592,7058828.187966125
1651200000032671,1651200000032671,Oosternielandsterweg,Oosternielandsterweg,9985SC,9985SC,46,46.0,a,A,,,Oosternieland,Oosternieland,751878.4204139526,7057228.385989582
1651200000032602,1651200000032602,Noorderweg,Noorderweg,9997PP,9997PP,8,8.0,a,A,,,Zandeweer,Zandeweer,744231.1325837728,7055090.654746463
1651200000026932,1651200000026932,Havenweg,Havenweg,9981JN,9981JN,1,1.0,n,N,,,Uithuizen,Uithuizen,743146.6670212789,7058358.086625644
1651200000032892,1651200000032892,R.P. Dojesweg,R.P. Dojesweg,9981GG,9981GG,1,1.0,a,A,,,Uithuizen,Uithuizen,743401.3924625946,7059762.265476517
1651200000030202,1651200000030202,Tuinbouwpad,Tuinbouwpad,9988RD,9988RD,2,2.0,a,A,,,Usquert,Usquert,736749.4993604856,7058396.575737803
1651200000031513,1651200000031513,Westervalge,Westervalge,9989EC,9989EC,45,45.0,b,B,,,Warffum,Warffum,729025.5418885016,7055877.970838321
1651200000031514,1651200000031514,Westervalge,Westervalge,9989EC,9989EC,45,45.0,c,C,,,Warffum,Warffum,728991.7584279809,7055858.388747197
1651200000025191,1651200000025191,Blink,Blink,9981AJ,9981AJ,1,1.0,a,A,,,Uithuizen,Uithuizen,743270.7291559754,7058502.40409703
1651200000032628,1651200000032628,Havenweg,Havenweg,9981JN,9981JN,16,16.0,a,A,,,Uithuizen,Uithuizen,743082.8057146651,7058014.955753715
1651200000032629,1651200000032629,Havenweg,Havenweg,9981JN,9981JN,16,16.0,b,B,,,Uithuizen,Uithuizen,743087.6014827429,7058028.828073067
1651200000032630,1651200000032630,Havenweg,Havenweg,9981JN,9981JN,16,16.0,c,C,,,Uithuizen,Uithuizen,743101.3929917186,7058042.339254773
1651200000032631,1651200000032631,Havenweg,Havenweg,9981JN,9981JN,16,16.0,d,D,,,Uithuizen,Uithuizen,743111.6874975472,7058047.965004078
1651200000032632,1651200000032632,Havenweg,Havenweg,9981JN,9981JN,16,16.0,e,E,,,Uithuizen,Uithuizen,743079.4436424522,7058014.623474973
1651200000032633,1651200000032633,Havenweg,Havenweg,9981JN,9981JN,16,16.0,f,F,,,Uithuizen,Uithuizen,743084.7055710205,7058031.259312531
1651200000032635,1651200000032635,Havenweg,Havenweg,9981JN,9981JN,16,16.0,h,H,,,Uithuizen,Uithuizen,743111.3389413448,7058053.1895326115
1651200000032638,1651200000032638,Havenweg,Havenweg,9981JN,9981JN,16,16.0,k,K,,,Uithuizen,Uithuizen,743097.4478847709,7058049.380072115
1651200000033601,1651200000033601,Kaakstraat,Kaakstraat,9981BG,9981BG,4,4.0,a,A,,,Uithuizen,Uithuizen,743074.2296858093,7058740.127989931
1651200000031608,1651200000031608,Juffer Marthastraat,Juffer Marthastraat,9989EH,9989EH,32,32.0,a,A,,,Warffum,Warffum,729526.2550473899,7056004.043352767
1651200000031606,1651200000031606,Juffer Marthastraat,Juffer Marthastraat,9989EH,9989EH,32,32.0,b,B,,,Warffum,Warffum,729502.8060652255,7056002.74695885
1651200000031609,1651200000031609,Juffer Marthastraat,Juffer Marthastraat,9989EH,9989EH,32,32.0,c,C,,,Warffum,Warffum,729475.9839975847,7055999.827853955
1651200000031607,1651200000031607,Juffer Marthastraat,Juffer Marthastraat,9989EH,9989EH,32,32.0,d,D,,,Warffum,Warffum,729454.3977842751,7056010.243139647
1651200000031610,1651200000031610,Juffer Marthastraat,Juffer Marthastraat,9989EH,9989EH,32,32.0,e,E,,,Warffum,Warffum,729436.2117124492,7056023.958049448
1651200000025669,1651200000025669,Borgweg,Borgweg,9981CJ,9981CJ,106,106.0,a,A,,,Uithuizen,Uithuizen,743659.4645987786,7058687.609063899
1651200000025756,1651200000025756,Oosterstraat,Oosterstraat,9981CP,9981CP,6,6.0,c,C,,,Uithuizen,Uithuizen,743322.9615868733,7058452.30336779
1651200000032640,1651200000032640,Hoofdstraat,Hoofdstraat,9982AL,9982AL,186,186.0,b,B,,,Uithuizermeeden,Uithuizermeeden,748740.2485150443,7060027.796636956
1651200000032641,1651200000032641,Hoofdstraat,Hoofdstraat,9982AL,9982AL,186,186.0,c,C,,,Uithuizermeeden,Uithuizermeeden,748757.266343663,7060042.58403213
1651200000032642,1651200000032642,Hoofdstraat,Hoofdstraat,9982AL,9982AL,186,186.0,d,D,,,Uithuizermeeden,Uithuizermeeden,748750.633694642,7060046.064467586
1651200000032643,1651200000032643,Hoofdstraat,Hoofdstraat,9982AL,9982AL,186,186.0,e,E,,,Uithuizermeeden,Uithuizermeeden,748745.674783057,7060049.513666712
1651200000032644,1651200000032644,Hoofdstraat,Hoofdstraat,9982AL,9982AL,186,186.0,f,F,,,Uithuizermeeden,Uithuizermeeden,748733.6158707533,7060031.277051882
1651200000032645,1651200000032645,Hoofdstraat,Hoofdstraat,9982AL,9982AL,186,186.0,g,G,,,Uithuizermeeden,Uithuizermeeden,748732.0355962942,7060036.341523123
1651200000032646,1651200000032646,Hoofdstraat,Hoofdstraat,9982AL,9982AL,186,186.0,h,H,,,Uithuizermeeden,Uithuizermeeden,748735.5077003272,7060042.990056619
1651200000032649,1651200000032649,Hoofdstraat,Hoofdstraat,9982AL,9982AL,186,186.0,k,K,,,Uithuizermeeden,Uithuizermeeden,748752.1516407278,7060037.644490197
1651200000032650,1651200000032650,Hoofdstraat,Hoofdstraat,9982AL,9982AL,186,186.0,l,L,,,Uithuizermeeden,Uithuizermeeden,748747.1615767726,7060039.415938202
53200000009481,53200000009481,Onderdendamsterweg,Onderdendamsterweg,9951TD,9951TD,34,34.0,a,A,,,Winsum,Winsum,725996.230400071,7045218.214079265
53200000142391,53200000142391,Het Aanleg,Het Aanleg,9951SJ,9951SJ,13,13.0,b,B,,,Winsum,Winsum,724241.6922711761,7045150.74807765
1651200000030801,1651200000030801,Oosterstraat,Oosterstraat,9989AE,9989AE,56,56.0,a,A,,,Warffum,Warffum,730297.282358619,7056432.074072907
1651200000032423,1651200000032423,Noorderweg,Noorderweg,9997PP,9997PP,8,8.0,d,D,,,Zandeweer,Zandeweer,744319.3432102615,7055142.413072115
1651200000026929,1651200000026929,Havenweg,Havenweg,9981JN,9981JN,1,1.0,k,K,,,Uithuizen,Uithuizen,743159.9644187087,7058352.813925868
1651200000026925,1651200000026925,Havenweg,Havenweg,9981JN,9981JN,1,1.0,e,E,,,Uithuizen,Uithuizen,743157.037330175,7058376.35801928
1651200000026926,1651200000026926,Havenweg,Havenweg,9981JN,9981JN,1,1.0,f,F,,,Uithuizen,Uithuizen,743158.6208053341,7058371.295677027
1651200000026934,1651200000026934,Havenweg,Havenweg,9981JN,9981JN,1,1.0,p,P,,,Uithuizen,Uithuizen,743145.1734792719,7058368.181240733
1651200000026927,1651200000026927,Havenweg,Havenweg,9981JN,9981JN,1,1.0,g,G,,,Uithuizen,Uithuizen,743158.5308587203,7058366.263391811
1651200000026928,1651200000026928,Havenweg,Havenweg,9981JN,9981JN,1,1.0,h,H,,,Uithuizen,Uithuizen,743158.4109301023,7058359.55368308
1651200000026938,1651200000026938,Havenweg,Havenweg,9981JN,9981JN,1,1.0,t,T,,,Uithuizen,Uithuizen,743142.2463419602,7058391.725373841
1651200000032634,1651200000032634,Havenweg,Havenweg,9981JN,9981JN,16,16.0,g,G,,,Uithuizen,Uithuizen,743098.8994868023,7058045.83881286
1651200000026947,1651200000026947,Havenweg,Havenweg,9981JN,9981JN,16,16.0,l,L,,,Uithuizen,Uithuizen,743110.5476095949,7058056.304501583
1651200000025193,1651200000025193,Blink,Blink,9981AJ,9981AJ,1,1.0,c,C,,,Uithuizen,Uithuizen,743262.2371600437,7058480.32500077
1651200000025754,1651200000025754,Oosterstraat,Oosterstraat,9981CP,9981CP,6,6.0,a,A,,,Uithuizen,Uithuizen,743309.2614824994,7058465.4785701055
1651200000025755,1651200000025755,Oosterstraat,Oosterstraat,9981CP,9981CP,6,6.0,b,B,,,Uithuizen,Uithuizen,743315.6045824037,7058458.765006078
1651200000025757,1651200000025757,Oosterstraat,Oosterstraat,9981CP,9981CP,6,6.0,d,D,,,Uithuizen,Uithuizen,743328.7975166194,7058445.874112286
1651200000025670,1651200000025670,Borgweg,Borgweg,9981CJ,9981CJ,110,110.0,a,A,,,Uithuizen,Uithuizen,743622.2369584009,7058712.030850657
1651200000025668,1651200000025668,Borgweg,Borgweg,9981CJ,9981CJ,108,108.0,a,A,,,Uithuizen,Uithuizen,743672.0980581699,7058671.161501303
1651200000032704,1651200000032704,Oostervalge,Oostervalge,9989EK,9989EK,36,36.0,b,B,,,Warffum,Warffum,731570.9742901805,7057260.205943906
1651200000032604,1651200000032604,Noorderweg,Noorderweg,9997PP,9997PP,8,8.0,c,C,,,Zandeweer,Zandeweer,744290.3728602016,7055128.160476276
1651200000025671,1651200000025671,Borgweg,Borgweg,9981CJ,9981CJ,112,112.0,a,A,,,Uithuizen,Uithuizen,743691.8767330291,7058651.4791221535
1651200000025672,1651200000025672,Borgweg,Borgweg,9981CJ,9981CJ,114,114.0,a,A,,,Uithuizen,Uithuizen,743701.0247096688,7058637.733948214
1651200000032605,1651200000032605,Noorderweg,Noorderweg,9997PP,9997PP,8,8.0,e,E,,,Zandeweer,Zandeweer,744351.1051409201,7055155.575115886
1651200000032702,1651200000032702,Streeksterweg,Streeksterweg,9988RA,9988RA,5,5.0,d,D,,,Usquert,Usquert,736325.0183301459,7058076.976346742
1651200000032308,1651200000032308,Albert van der Zielstr,Albert van der Zielstraat,9997PE,9997PE,22,22.0,,,,,Zandeweer,Zandeweer,743522.6139279701,7055143.696751077
1651200000032603,1651200000032603,Noorderweg,Noorderweg,9997PP,9997PP,8,8.0,b,B,,,Zandeweer,Zandeweer,744263.397644211,7055116.907599133
1651200000032577,1651200000032577,De Bommel,De Bommel,9982HV,9982HV,1,1.0,b,B,,,Uithuizermeeden,Uithuizermeeden,748540.5726982421,7060378.996666372
1651200000032309,1651200000032309,Albert van der Zielstr,Albert van der Zielstraat,9997PE,9997PE,24,24.0,,,,,Zandeweer,Zandeweer,743519.5688556761,7055160.524559892
1651200000032594,1651200000032594,Oosterstraat,Oosterstraat,9989AE,9989AE,56,56.0,o,O,,,Warffum,Warffum,730296.0674742007,7056417.576591505
1651200000032647,1651200000032647,Hoofdstraat,Hoofdstraat,9982AL,9982AL,186,186.0,i,I,,,Uithuizermeeden,Uithuizermeeden,748740.5600827764,7060044.574113094
1651200000032648,1651200000032648,Hoofdstraat,Hoofdstraat,9982AL,9982AL,186,186.0,j,J,,,Uithuizermeeden,Uithuizermeeden,748738.761714699,7060037.894349664
1651200000032576,1651200000032576,De Bommel,De Bommel,9982HV,9982HV,1,1.0,a,A,,,Uithuizermeeden,Uithuizermeeden,748534.1450202418,7060370.526396955
1651200000025773,1651200000025773,Menkemaweg,Menkemaweg,9981CV,9981CV,11,11.0,a,A,,,Uithuizen,Uithuizen,743583.580954504,7058471.245876678
1651200000025774,1651200000025774,Menkemaweg,Menkemaweg,9981CV,9981CV,11,11.0,b,B,,,Uithuizen,Uithuizen,743579.2738387977,7058478.438137112
1651200000025776,1651200000025776,Menkemaweg,Menkemaweg,9981CV,9981CV,13,13.0,a,A,,,Uithuizen,Uithuizen,743595.657851975,7058477.173126655
1651200000025779,1651200000025779,Menkemaweg,Menkemaweg,9981CV,9981CV,13,13.0,b,B,,,Uithuizen,Uithuizen,743592.6880649695,7058484.354732312
1651200000025778,1651200000025778,Menkemaweg,Menkemaweg,9981CV,9981CV,15,15.0,a,A,,,Uithuizen,Uithuizen,743604.1230638996,7058485.009543331
1651200000027798,1651200000027798,Emmaweg,Emmaweg,9981VA,9981VA,17,17.0,a,A,,,Uithuizen,Uithuizen,740184.7166987628,7064821.434475105
1651200000025242,1651200000025242,Schoolstraat,Schoolstraat,9981AL,9981AL,35,35.0,a,A,,,Uithuizen,Uithuizen,742685.2016052196,7058966.631080703
1651200000025243,1651200000025243,Schoolstraat,Schoolstraat,9981AL,9981AL,35,35.0,b,B,,,Uithuizen,Uithuizen,742677.462584529,7058968.71283963
1651200000032853,1651200000032853,Leeuwstraat,Leeuwstraat,9981CM,9981CM,2,2.0,b,B,,,Uithuizen,Uithuizen,743281.0119822846,7058598.105505305
1651200000026924,1651200000026924,Havenweg,Havenweg,9981JN,9981JN,1,1.0,b,B,,,Uithuizen,Uithuizen,743155.6637246775,7058393.162390287
1651200000025747,1651200000025747,Oosterstraat,Oosterstraat,9981CP,9981CP,4,4.0,a,A,,,Uithuizen,Uithuizen,743304.4566776868,7058485.566586721
1651200000025748,1651200000025748,Oosterstraat,Oosterstraat,9981CP,9981CP,4,4.0,b,B,,,Uithuizen,Uithuizen,743310.3325672258,7058480.245751916
1651200000025749,1651200000025749,Oosterstraat,Oosterstraat,9981CP,9981CP,4,4.0,c,C,,,Uithuizen,Uithuizen,743317.5443893411,7058472.966175255
1651200000025750,1651200000025750,Oosterstraat,Oosterstraat,9981CP,9981CP,4,4.0,d,D,,,Uithuizen,Uithuizen,743323.5775192905,7058467.45289904
1651200000025751,1651200000025751,Oosterstraat,Oosterstraat,9981CP,9981CP,4,4.0,e,E,,,Uithuizen,Uithuizen,743330.7789326538,7058460.71549843
1651200000025752,1651200000025752,Oosterstraat,Oosterstraat,9981CP,9981CP,4,4.0,f,F,,,Uithuizen,Uithuizen,743338.2009527402,7058455.361823604
1651200000033396,1651200000033396,Hoofdstraat,Hoofdstraat,9982AC,9982AC,121,121.0,a,A,,,Uithuizermeeden,Uithuizermeeden,748758.9068745893,7060210.515755313
1651200000028067,1651200000028067,Koningin Wilhelminastr,Koningin Wilhelminastraat,,,7,7.0,B,B,,,Uithuizermeeden,Uithuizermeeden,749080.5658469754,7059914.827549002
1651200000028068,1651200000028068,Koningin Wilhelminastr,Koningin Wilhelminastraat,,,7,7.0,C,C,,,Uithuizermeeden,Uithuizermeeden,749087.5038394736,7059919.039566052
1651200000032999,1651200000032999,Pieter Bieremastraat,Pieter Bieremastraat,,,16,16.0,b,B,,,Usquert,Usquert,736532.2734753803,7057585.592530003
1651200000032946,1651200000032946,Prinses Christinastraat,Prinses Christinastraat,9982GR,,9,9.0,w,W,,,Uithuizermeeden,Uithuizermeeden,749347.1652236627,7060060.35557619
1651200000032945,1651200000032945,Prinses Christinastraat,Prinses Christinastraat,9982GR,,9,9.0,v,V,,,Uithuizermeeden,Uithuizermeeden,749354.5597395627,7060061.020954789
1651200000032944,1651200000032944,Prinses Christinastraat,Prinses Christinastraat,9982GR,,9,9.0,u,U,,,Uithuizermeeden,Uithuizermeeden,749354.0831443596,7060054.497803987
1651200000032936,1651200000032936,Prinses Christinastraat,Prinses Christinastraat,9982GR,,9,9.0,p,P,,,Uithuizermeeden,Uithuizermeeden,749366.5769280756,7060041.746695777
1651200000032938,1651200000032938,Prinses Christinastraat,Prinses Christinastraat,9982GR,,9,9.0,s,S,,,Uithuizermeeden,Uithuizermeeden,749360.2270198592,7060047.805296811
1651200000032937,1651200000032937,Prinses Christinastraat,Prinses Christinastraat,9982GR,,9,9.0,r,R,,,Uithuizermeeden,Uithuizermeeden,749366.7501947642,7060048.344331103
1651200000032932,1651200000032932,Prinses Christinastraat,Prinses Christinastraat,9982GR,,9,9.0,h,H,,,Uithuizermeeden,Uithuizermeeden,749380.6456555794,7060028.4273300255
1651200000032935,1651200000032935,Prinses Christinastraat,Prinses Christinastraat,9982GR,,9,9.0,n,N,,,Uithuizermeeden,Uithuizermeeden,749373.0653866462,7060041.771127048
1651200000032934,1651200000032934,Prinses Christinastraat,Prinses Christinastraat,9982GR,,9,9.0,m,M,,,Uithuizermeeden,Uithuizermeeden,749373.192168238,7060035.461582454
1651200000032933,1651200000032933,Prinses Christinastraat,Prinses Christinastraat,9982GR,,9,9.0,k,K,,,Uithuizermeeden,Uithuizermeeden,749380.8435279041,7060036.343661101
1651200000032925,1651200000032925,Prinses Christinastraat,Prinses Christinastraat,,,9,9.0,a,A,,,Uithuizermeeden,Uithuizermeeden,749411.6477017665,7060007.35224725
1651200000032931,1651200000032931,Prinses Christinastraat,Prinses Christinastraat,9982GR,,9,9.0,g,G,,,Uithuizermeeden,Uithuizermeeden,749388.5570778662,7060028.88997956
1651200000032926,1651200000032926,Prinses Christinastraat,Prinses Christinastraat,,,9,9.0,b,B,,,Uithuizermeeden,Uithuizermeeden,749403.1285568856,7060005.904087567
1651200000032930,1651200000032930,Prinses Christinastraat,Prinses Christinastraat,9982GR,,9,9.0,f,F,,,Uithuizermeeden,Uithuizermeeden,749388.2903880982,7060021.144456675
1651200000032929,1651200000032929,Prinses Christinastraat,Prinses Christinastraat,9982GR,,9,9.0,e,E,,,Uithuizermeeden,Uithuizermeeden,749395.8986215922,7060021.330821347
1651200000032927,1651200000032927,Prinses Christinastraat,Prinses Christinastraat,,,9,9.0,c,C,,,Uithuizermeeden,Uithuizermeeden,749404.4001940596,7060014.5655878
1651200000032947,1651200000032947,Prinses Christinastraat,Prinses Christinastraat,,,9,9.0,x,X,,,Uithuizermeeden,Uithuizermeeden,749347.0480255521,7060067.00062742
1651200000025244,1651200000025244,Schoolstraat,Schoolstraat,9981AL,9981AL,37,37.0,a,A,,,Uithuizen,Uithuizen,742681.228542691,7058961.906220715
1651200000025917,1651200000025917,Molenerf,Molenerf,9981EA,9981EA,2,2.0,a,A,,,Uithuizen,Uithuizen,743244.8586644139,7058326.119378545
1651200000033168,1651200000033168,Borkumweg,Borkumweg,9979XJ,9979XJ,3,3.0,b,B,,,Eemshaven,Eemshaven,759112.8023174803,7066079.935939111
1651200000032939,1651200000032939,Prinses Christinastraat,Prinses Christinastraat,9982GR,,9,9.0,t,T,,,Uithuizermeeden,Uithuizermeeden,749360.3010927505,7060054.381299106
1651200000025021,1651200000025021,Eemshornweg,Eemshornweg,9979XK,9979XK,3,3.0,a,A,,,Eemshaven,Eemshaven,759221.1220037714,7066408.711208663
1651200000033596,1651200000033596,Raadhuisstraat,Raadhuisstraat,,,17,17.0,a,A,,,Usquert,Usquert,735922.8421744484,7058138.710462631
1651200000032868,1651200000032868,Edama,Edama,9981ND,9981ND,6,6.0,a,A,,,Uithuizen,Uithuizen,744882.2115698382,7060459.83619206
1651200000033018,1651200000033018,J. Cohenstraat,J. Cohenstraat,,,23,23.0,c,C,1,1,Uithuizen,Uithuizen,742974.2920571376,7058084.30072327
1651200000033019,1651200000033019,J. Cohenstraat,J. Cohenstraat,,,23,23.0,c,C,2,2,Uithuizen,Uithuizen,742966.0137659865,7058083.877035209
1651200000033020,1651200000033020,J. Cohenstraat,J. Cohenstraat,,,23,23.0,c,C,3,3,Uithuizen,Uithuizen,742968.167039277,7058076.692212105
1651200000033021,1651200000033021,J. Cohenstraat,J. Cohenstraat,,,23,23.0,c,C,4,4,Uithuizen,Uithuizen,742960.4491627938,7058075.686301631
1651200000033022,1651200000033022,J. Cohenstraat,J. Cohenstraat,,,23,23.0,c,C,5,5,Uithuizen,Uithuizen,742962.3162945787,7058068.506619264
1651200000033023,1651200000033023,J. Cohenstraat,J. Cohenstraat,,,23,23.0,d,D,1,1,Uithuizen,Uithuizen,742977.9020560636,7058062.794024549
1651200000033024,1651200000033024,J. Cohenstraat,J. Cohenstraat,,,23,23.0,d,D,2,2,Uithuizen,Uithuizen,742978.6091927085,7058054.490827569
1651200000033025,1651200000033025,J. Cohenstraat,J. Cohenstraat,,,23,23.0,d,D,3,3,Uithuizen,Uithuizen,742986.3372621326,7058056.068699123
1651200000033026,1651200000033026,J. Cohenstraat,J. Cohenstraat,,,23,23.0,d,D,4,4,Uithuizen,Uithuizen,742986.7701004915,7058048.340914441
1651200000033027,1651200000033027,J. Cohenstraat,J. Cohenstraat,,,23,23.0,d,D,5,5,Uithuizen,Uithuizen,742994.2085744388,7058049.637050945
1651200000033028,1651200000033028,J. Cohenstraat,J. Cohenstraat,,,23,23.0,d,D,6,6,Uithuizen,Uithuizen,742994.3450797952,7058041.34410233
1651200000033029,1651200000033029,J. Cohenstraat,J. Cohenstraat,,,23,23.0,d,D,7,7,Uithuizen,Uithuizen,743001.7835484402,7058042.640230689
1651200000033030,1651200000033030,J. Cohenstraat,J. Cohenstraat,,,23,23.0,d,D,8,8,Uithuizen,Uithuizen,743001.925137026,7058034.632440315
1651200000033031,1651200000033031,J. Cohenstraat,J. Cohenstraat,,,23,23.0,d,D,9,9,Uithuizen,Uithuizen,743009.3754867418,7058036.500510298
1651200000033032,1651200000033032,J. Cohenstraat,J. Cohenstraat,,,23,23.0,d,D,10,10,Uithuizen,Uithuizen,743010.0927714884,7058028.767639619
1651200000033485,1651200000033485,Klinkenborgerweg,Klinkenborgerweg,9995NE,9995NE,5,5.0,a,A,,,Kantens,Kantens,739483.8370255802,7053053.53413827
1651200000027612,1651200000027612,Edama,Edama,9981ND,9981ND,8,8.0,a,A,,,Uithuizen,Uithuizen,744855.6054549891,7060505.665400419
1651200000032870,1651200000032870,Edama,Edama,9981ND,9981ND,10,10.0,a,A,,,Uithuizen,Uithuizen,744875.8759532205,7060531.497105778
1651200000032637,1651200000032637,Havenweg,Havenweg,9981JN,9981JN,16,16.0,j,J,,,Uithuizen,Uithuizen,743082.2164335733,7058033.129544151
1651200000032583,1651200000032583,Lange Drift,Lange Drift,9982JE,9982JE,1,1.0,b,B,,,Uithuizermeeden,Uithuizermeeden,749057.395812066,7060515.31569915
1651200000032582,1651200000032582,Lange Drift,Lange Drift,9982JE,9982JE,1,1.0,a,A,,,Uithuizermeeden,Uithuizermeeden,749083.8336899299,7060496.35857289
1651200000033084,1651200000033084,Middelstumerweg,Middelstumerweg,9995PZ,9995PZ,42,42.0,b,B,,,Kantens,Kantens,738735.0591541551,7050033.046095237
1651200000033083,1651200000033083,Middelstumerweg,Middelstumerweg,9995PZ,9995PZ,42,42.0,a,A,,,Kantens,Kantens,738710.5864740214,7050083.562606954
1651200000032820,1651200000032820,Stoitswegje,Stoitswegje,9983PJ,9983PJ,3,3.0,a,A,,,Roodeschool,Roodeschool,752567.7446373921,7061017.435035834
1651200000033034,1651200000033034,J. Cohenstraat,J. Cohenstraat,,,23,23.0,e,E,1,1,Uithuizen,Uithuizen,743024.6376324631,7058028.793599721
1651200000033035,1651200000033035,J. Cohenstraat,J. Cohenstraat,,,23,23.0,e,E,2,2,Uithuizen,Uithuizen,743031.8069311957,7058030.951932571
1651200000033036,1651200000033036,J. Cohenstraat,J. Cohenstraat,,,23,23.0,e,E,3,3,Uithuizen,Uithuizen,743033.944794853,7058022.908332368
1651200000033037,1651200000033037,J. Cohenstraat,J. Cohenstraat,,,23,23.0,e,E,4,4,Uithuizen,Uithuizen,743040.5639086067,7058026.220852659
1651200000033038,1651200000033038,J. Cohenstraat,J. Cohenstraat,,,23,23.0,e,E,5,5,Uithuizen,Uithuizen,743042.9964464909,7058018.744128541
1651200000033039,1651200000033039,J. Cohenstraat,J. Cohenstraat,,,23,23.0,e,E,6,6,Uithuizen,Uithuizen,743049.8949069681,7058021.764706589
1651200000025020,1651200000025020,Talmaweg,Talmaweg,9981CX,9981CX,77,77.0,a,A,,,Uithuizen,Uithuizen,744562.7966626921,7060990.448703627
1651200000030741,1651200000030741,Heuvelderij,Heuvelderij,9982TX,9982TX,5,5.0,a,A,,,Uithuizermeeden,Uithuizermeeden,753889.8971080849,7065515.134026941
1651200000033652,1651200000033652,Bovenhuizen,Bovenhuizen,,,16,16.0,a,A,,,Uithuizen,Uithuizen,740944.7599278688,7059147.797347869
1651200000032854,1651200000032854,Leeuwstraat,Leeuwstraat,9981CM,9981CM,2,2.0,c,C,,,Uithuizen,Uithuizen,743277.628446436,7058602.670117305
1651200000033666,1651200000033666,Wadwerderweg,Wadwerderweg,,,6,6.0,a,A,,,Usquert,Usquert,735496.9573685356,7058018.093522229
1651200000033166,1651200000033166,Molenhorn,Molenhorn,9997PN,9997PN,22,22.0,a,A,,,Zandeweer,Zandeweer,744164.7438811345,7054856.466716374
1651200000030875,1651200000030875,Hoofdstraat,Hoofdstraat,9982AL,9982AL,224,224.0,a,A,,,Uithuizermeeden,Uithuizermeeden,749065.6723965207,7060310.997658991
1651200000033608,1651200000033608,Derk Luddesweg,Derk Luddesweg,9984XB,9984XB,6,6.0,a,A,,,Oudeschip,Oudeschip,758846.9530891968,7061994.637626978
1651200000032661,1651200000032661,Schoolstraat,Schoolstraat,9981AP,9981AP,64,64.0,a,A,,,Uithuizen,Uithuizen,742502.6512734975,7059034.740124775
1651200000032662,1651200000032662,Schoolstraat,Schoolstraat,9981AP,9981AP,66,66.0,b,B,,,Uithuizen,Uithuizen,742497.3067754967,7059040.435505472
1651200000032592,1651200000032592,Schoolstraat,Schoolstraat,9981AP,9981AP,66,66.0,a,A,,,Uithuizen,Uithuizen,742490.3255433387,7059036.375115338
1651200000033850,1651200000033850,Oosterstraat,Oosterstraat,9981CN,9981CN,15,15.0,b,B,,,Uithuizen,Uithuizen,743319.4205941323,7058520.751913043
1651200000032562,1651200000032562,Koningin Julianastraat,Koningin Julianastraat,9982GL,9982GL,4,4.0,a,A,,,Uithuizermeeden,Uithuizermeeden,748806.1441450606,7060038.942773153
1651200000032563,1651200000032563,Koningin Julianastraat,Koningin Julianastraat,9982GL,9982GL,4,4.0,b,B,,,Uithuizermeeden,Uithuizermeeden,748808.205480845,7060041.569480239
1651200000032564,1651200000032564,Koningin Julianastraat,Koningin Julianastraat,9982GL,9982GL,4,4.0,c,C,,,Uithuizermeeden,Uithuizermeeden,748810.4856512682,7060044.259235605
1651200000032565,1651200000032565,Koningin Julianastraat,Koningin Julianastraat,9982GL,9982GL,4,4.0,d,D,,,Uithuizermeeden,Uithuizermeeden,748817.2798051925,7060030.098206297
1651200000032566,1651200000032566,Koningin Julianastraat,Koningin Julianastraat,9982GL,9982GL,4,4.0,e,E,,,Uithuizermeeden,Uithuizermeeden,748819.8066288921,7060032.726287179
1651200000032567,1651200000032567,Koningin Julianastraat,Koningin Julianastraat,9982GL,9982GL,4,4.0,f,F,,,Uithuizermeeden,Uithuizermeeden,748821.8662722523,7060035.441971783
1651200000032568,1651200000032568,Koningin Julianastraat,Koningin Julianastraat,9982GL,9982GL,4,4.0,g,G,,,Uithuizermeeden,Uithuizermeeden,748824.5815061036,7060023.429836071
1651200000032569,1651200000032569,Koningin Julianastraat,Koningin Julianastraat,9982GL,9982GL,4,4.0,h,H,,,Uithuizermeeden,Uithuizermeeden,748826.8825292559,7060026.34073057
1651200000032571,1651200000032571,Koningin Julianastraat,Koningin Julianastraat,9982GL,9982GL,4,4.0,j,J,,,Uithuizermeeden,Uithuizermeeden,748834.5098520602,7060017.643892355
1651200000032572,1651200000032572,Koningin Julianastraat,Koningin Julianastraat,9982GL,9982GL,4,4.0,k,K,,,Uithuizermeeden,Uithuizermeeden,748837.9113588175,7060021.390180285
1651200000032570,1651200000032570,Koningin Julianastraat,Koningin Julianastraat,9982GL,9982GL,4,4.0,i,I,,,Uithuizermeeden,Uithuizermeeden,748830.128035546,7060030.071476843
1651200000033187,1651200000033187,Oostervalge,Oostervalge,9989EL,9989EL,52,52.0,a,A,,,Warffum,Warffum,730391.9963923887,7056351.35440693
1651200000032964,1651200000032964,Veilingweg,Veilingweg,9997PC,9997PC,14,14.0,a,A,,,Zandeweer,Zandeweer,743828.6005449756,7055325.016739686
1651200000033406,1651200000033406,Menkemahof,Menkemahof,,,16,16.0,a,A,,,Uithuizen,Uithuizen,743530.1854555252,7058485.4132939195
1651200000033405,1651200000033405,Menkemahof,Menkemahof,,,16,16.0,b,B,,,Uithuizen,Uithuizen,743528.2496782417,7058489.767302645
1651200000033408,1651200000033408,Menkemahof,Menkemahof,,,16,16.0,c,C,,,Uithuizen,Uithuizen,743520.4826378081,7058502.8595908405
1651200000033407,1651200000033407,Menkemahof,Menkemahof,,,16,16.0,d,D,,,Uithuizen,Uithuizen,743517.848081916,7058507.080202154
1651200000032607,1651200000032607,Biewemastraat,Biewemastraat,9988RW,9988RW,15,15.0,a,A,,,Usquert,Usquert,736239.2902495926,7057826.439004589
1651200000032608,1651200000032608,Biewemastraat,Biewemastraat,9988RW,9988RW,17,17.0,a,A,,,Usquert,Usquert,736245.7553260365,7057812.905817458
1651200000032610,1651200000032610,Biewemastraat,Biewemastraat,9988RW,9988RW,19,19.0,a,A,,,Usquert,Usquert,736250.5755828521,7057801.078595493
1651200000032616,1651200000032616,Biewemastraat,Biewemastraat,9988RW,9988RW,23,23.0,a,A,,,Usquert,Usquert,736278.8795570319,7057792.205556954
1651200000032618,1651200000032618,Biewemastraat,Biewemastraat,9988RW,9988RW,25,25.0,a,A,,,Usquert,Usquert,736288.919552086,7057792.033887597
1651200000032620,1651200000032620,Biewemastraat,Biewemastraat,9988RW,9988RW,27,27.0,a,A,,,Usquert,Usquert,736299.0166393337,7057795.216888009
1651200000032622,1651200000032622,Biewemastraat,Biewemastraat,9988RW,9988RW,29,29.0,a,A,,,Usquert,Usquert,736310.758519404,7057796.693917876
1651200000032624,1651200000032624,Biewemastraat,Biewemastraat,9988RW,9988RW,31,31.0,a,A,,,Usquert,Usquert,736322.5004037112,7057798.170930725
1651200000032626,1651200000032626,Biewemastraat,Biewemastraat,9988RW,9988RW,33,33.0,a,A,,,Usquert,Usquert,736332.5975117951,7057801.353891022
1651200000032906,1651200000032906,Treubweg,Treubweg,9981EB,9981EB,11,11.0,a,A,,,Uithuizen,Uithuizen,743481.9826856647,7057550.987247172
1651200000033685,1651200000033685,Hooilandseweg,Hooilandseweg,9983PG,9983PG,72,72.0,a,A,,,Roodeschool,Roodeschool,754134.4788652222,7060577.541161458
1651200000033183,1651200000033183,Engersmastraat,Engersmastraat,,,1,1.0,a,A,,,Uithuizen,Uithuizen,742935.919370334,7058986.085487249
1651200000032653,1651200000032653,Eikenlaan,Eikenlaan,9982LM,9982LM,7,7.0,a,A,,,Uithuizermeeden,Uithuizermeeden,749683.0646894492,7060583.81903455
1651200000032654,1651200000032654,Eikenlaan,Eikenlaan,9982LM,9982LM,9,9.0,a,A,,,Uithuizermeeden,Uithuizermeeden,749652.7866337398,7060656.89839397
1651200000032712,1651200000032712,Eikenlaan,Eikenlaan,9982LM,9982LM,11,11.0,a,A,,,Uithuizermeeden,Uithuizermeeden,749688.7817016125,7060677.112679709
1651200000032696,1651200000032696,Eikenlaan,Eikenlaan,9982LM,9982LM,13,13.0,a,A,,,Uithuizermeeden,Uithuizermeeden,749724.8028569939,7060697.010814108
1651200000033051,1651200000033051,Stationsstraat,Stationsstraat,9983ST,9983ST,1,1.0,a,A,,,Roodeschool,Roodeschool,752745.1687045166,7060982.41354753
1651200000033085,1651200000033085,Lutjewegje,Lutjewegje,9982TT,9982TT,20,20.0,a,A,,,Uithuizermeeden,Uithuizermeeden,748848.4058163927,7061783.4932793
1651200000032658,1651200000032658,Hooilandseweg,Hooilandseweg,9983PG,9983PG,96,96.0,a,A,,,Roodeschool,Roodeschool,754530.0754295003,7060495.587479726
1651200000033660,1651200000033660,Wadwerderweg,Wadwerderweg,9988SV,9988SV,85,85.0,b,B,,,Usquert,Usquert,734335.4558805827,7057614.288664139
1651200000031753,1651200000031753,Breede,Breede,9989TA,9989TA,1,1.0,a,A,,,Warffum,Warffum,728293.7853737879,7055094.9097727295
1651200000033160,1651200000033160,Schildweg,Schildweg,9979XR,9979XR,2,2.0,b,B,,,Eemshaven,Eemshaven,758204.5399436977,7065696.061159414
1651200000033715,1651200000033715,Schildweg,Schildweg,9979XR,9979XR,2,2.0,a,A,,,Eemshaven,Eemshaven,758112.0494990757,7065709.575930474
1651200000032599,1651200000032599,Juffer Marthastraat,Juffer Marthastraat,9989EG,9989EG,9,9.0,a,A,,,Warffum,Warffum,730058.8103919969,7056444.937202116
1651200000033607,1651200000033607,Dwarsweg,Dwarsweg,9982TW,9982TW,30,30.0,a,A,,,Uithuizermeeden,Uithuizermeeden,750887.655909547,7065554.382216709
1651200000032918,1651200000032918,Smeltenspad,Smeltenspad,,,8,8.0,b,B,,,Warffum,Warffum,729908.9521211968,7056220.288342161
1651200000032982,1651200000032982,Schoolstraat,Schoolstraat,9981AN,9981AN,14,14.0,a,A,,,Uithuizen,Uithuizen,742990.7341216307,7058873.291681605
1651200000032983,1651200000032983,Schoolstraat,Schoolstraat,9981AN,9981AN,14,14.0,b,B,,,Uithuizen,Uithuizen,742998.9793121343,7058869.284204136
1651200000033713,1651200000033713,Zuster Kortestraat,Zuster Kortestraat,9983SZ,9983SZ,42,42.0,a,A,,,Roodeschool,Roodeschool,753205.4286511472,7060957.658323042
1651200000033124,1651200000033124,Lageweg,Lageweg,9981HG,9981HG,58,58.0,a,A,,,Uithuizen,Uithuizen,740887.4258458405,7059870.2851632815
1651200000033708,1651200000033708,Paaptilsterweg,Paaptilsterweg,9982XR,9982XR,18,18.0,a,A,,,Uithuizermeeden,Uithuizermeeden,747519.0697458949,7058006.499465295
1651200000028751,1651200000028751,Torenstraat,Torenstraat,9982AX,9982AX,24,24.0,c,C,,,Uithuizermeeden,Uithuizermeeden,746941.0432664189,7058797.653011819
1651200000032978,1651200000032978,Engersmastraat,Engersmastraat,9981CC,9981CC,2,2.0,b,B,,,Uithuizen,Uithuizen,743012.0073808017,7058891.439318828
1651200000032977,1651200000032977,Engersmastraat,Engersmastraat,9981CC,9981CC,2,2.0,a,A,,,Uithuizen,Uithuizen,743003.244252545,7058909.662716804
1651200000032979,1651200000032979,Engersmastraat,Engersmastraat,9981CC,9981CC,2,2.0,c,C,,,Uithuizen,Uithuizen,743017.9328456817,7058904.148474778
1651200000032980,1651200000032980,Engersmastraat,Engersmastraat,9981CC,9981CC,2,2.0,d,D,,,Uithuizen,Uithuizen,743007.3926596123,7058900.47800547
1651200000032981,1651200000032981,Engersmastraat,Engersmastraat,9981CC,9981CC,2,2.0,e,E,,,Uithuizen,Uithuizen,742996.8386757304,7058896.034178438
1651200000033074,1651200000033074,Zijlsterweg,Zijlsterweg,9988RK,9988RK,26,26.0,a,A,,,Usquert,Usquert,736060.6376385263,7058368.914637093
1651200000033734,1651200000033734,Havenweg,Havenweg,9982EE,9982EE,56,56.0,a,B,,,Uithuizermeeden,Uithuizermeeden,749236.1725523208,7059064.027281801
1651200000033733,1651200000033733,Havenweg,Havenweg,9982EE,9982EE,56,56.0,b,B,,,Uithuizermeeden,Uithuizermeeden,749236.2817923815,7059050.212576285
1651200000033653,1651200000033653,Eppenhuizerweg,Eppenhuizerweg,9996VD,,6,6.0,a,A,,,Eppenhuizen,Eppenhuizen,745362.4965610483,7053678.46065574
1651200000032883,1651200000032883,Hoofdstraat-Oost,Hoofdstraat-Oost,9981AG,9981AG,37,37.0,c,C,,,Uithuizen,Uithuizen,743189.4936081723,7058629.914087968
1651200000025156,1651200000025156,Hoofdstraat-Oost,Hoofdstraat-Oost,9981AG,9981AG,35,35.0,a,A,,,Uithuizen,Uithuizen,743150.090293957,7058643.284177799
1651200000032826,1651200000032826,Hoofdstraat,Hoofdstraat,9982AL,9982AL,232,232.0,a,A,,,Uithuizermeeden,Uithuizermeeden,749191.9410085174,7060415.2891735155
1651200000033705,1651200000033705,Barmerweg,Barmerweg,9997NH,9997NH,7,7.0,a,A,,,Zandeweer,Zandeweer,742698.739539529,7055785.015278154
1651200000030722,1651200000030722,Noorderstraat,Noorderstraat,9989AA,9989AA,1,1.0,a,A,,,Warffum,Warffum,730471.5992372034,7056077.151527684
1651200000033129,1651200000033129,Noorderweg,Noorderweg,9997PP,9997PP,15,15.0,a,A,,,Zandeweer,Zandeweer,744300.4707747297,7055245.179608757
1651200000033658,1651200000033658,Bovenhuizen,Bovenhuizen,9981HB,9981HB,32,32.0,a,A,,,Uithuizen,Uithuizen,740783.5285657672,7059055.944113697
1651200000033657,1651200000033657,Bovenhuizen,Bovenhuizen,9981HB,9981HB,32,32.0,b,B,,,Uithuizen,Uithuizen,740787.185342676,7059050.7378167175
1651200000033162,1651200000033162,Robbenplaatweg,Robbenplaatweg,9979XL,9979XL,15,15.0,c,C,,,Eemshaven,Eemshaven,764474.544779201,7063180.730834988
1651200000028196,1651200000028196,Torenstraat,Torenstraat,9982AZ,9982AZ,78,78.0,a,A,,,Uithuizermeeden,Uithuizermeeden,747229.3550202159,7059354.335419715
1651200000028197,1651200000028197,Torenstraat,Torenstraat,9982AZ,9982AZ,78,78.0,b,B,,,Uithuizermeeden,Uithuizermeeden,747234.2833217628,7059349.209845387
1651200000028198,1651200000028198,Torenstraat,Torenstraat,9982AZ,9982AZ,78,78.0,c,C,,,Uithuizermeeden,Uithuizermeeden,747240.8852206612,7059344.053357674
1651200000028199,1651200000028199,Torenstraat,Torenstraat,9982AZ,9982AZ,78,78.0,d,D,,,Uithuizermeeden,Uithuizermeeden,747230.5968961054,7059330.817955303
1651200000028200,1651200000028200,Torenstraat,Torenstraat,9982AZ,9982AZ,78,78.0,e,E,,,Uithuizermeeden,Uithuizermeeden,747222.3213993489,7059336.005336093
1651200000028201,1651200000028201,Torenstraat,Torenstraat,9982AZ,9982AZ,78,78.0,f,F,,,Uithuizermeeden,Uithuizermeeden,747217.3930981875,7059341.13089465
1651200000033704,1651200000033704,Breede,Breede,9989TA,9989TA,1,1.0,c,C,,,Warffum,Warffum,728131.1932728079,7054833.129858052
1651200000032776,1651200000032776,Zijlsterweg,Zijlsterweg,9988RK,9988RK,14,14.0,a,A,,,Usquert,Usquert,736250.0858598772,7058203.23276363
1651200000032753,1651200000032753,Breede,Breede,9989TA,9989TA,3,3.0,a,A,,,Warffum,Warffum,728205.7656635088,7054305.035731737
1651200000032962,1651200000032962,Oldorpsterweg,Oldorpsterweg,9981NL,9981NL,1,1.0,f,F,,,Uithuizen,Uithuizen,741672.289561382,7058257.609614616
1651200000032970,1651200000032970,Oldorpsterweg,Oldorpsterweg,9981NL,9981NL,1,1.0,g,G,,,Uithuizen,Uithuizen,741662.6004159122,7058254.840390557
1651200000033112,1651200000033112,Oldorpsterweg,Oldorpsterweg,9981NL,9981NL,1,1.0,h,H,,,Uithuizen,Uithuizen,741640.7219121776,7058250.18866315
1651200000033113,1651200000033113,Oldorpsterweg,Oldorpsterweg,9981NL,9981NL,1,1.0,i,I,,,Uithuizen,Uithuizen,741630.612762379,7058247.426866345
1651200000033114,1651200000033114,Oldorpsterweg,Oldorpsterweg,9981NL,9981NL,1,1.0,j,J,,,Uithuizen,Uithuizen,741607.0500749775,7058242.382136312
1651200000033115,1651200000033115,Oldorpsterweg,Oldorpsterweg,9981NL,9981NL,1,1.0,k,K,,,Uithuizen,Uithuizen,741596.9483898724,7058240.04132915
1651200000033116,1651200000033116,Oldorpsterweg,Oldorpsterweg,9981NL,9981NL,1,1.0,l,L,,,Uithuizen,Uithuizen,741574.2389731638,7058235.821995326
1651200000033117,1651200000033117,Oldorpsterweg,Oldorpsterweg,9981NL,9981NL,1,1.0,m,M,,,Uithuizen,Uithuizen,741565.3717330946,7058232.197418428
1651200000032958,1651200000032958,Oldorpsterweg,Oldorpsterweg,9981NL,9981NL,1,1.0,b,B,,,Uithuizen,Uithuizen,741758.2875612666,7058275.474319044
1651200000032959,1651200000032959,Oldorpsterweg,Oldorpsterweg,9981NL,9981NL,1,1.0,c,C,,,Uithuizen,Uithuizen,741746.9360092833,7058273.548557424
1651200000032960,1651200000032960,Oldorpsterweg,Oldorpsterweg,9981NL,9981NL,1,1.0,d,D,,,Uithuizen,Uithuizen,741724.9182324011,7058268.505208802
1651200000032961,1651200000032961,Oldorpsterweg,Oldorpsterweg,9981NL,9981NL,1,1.0,e,E,,,Uithuizen,Uithuizen,741712.1526700037,7058266.604540723
1651200000032764,1651200000032764,Robbenplaatweg,Robbenplaatweg,9979XL,9979XL,15,15.0,e,E,,,Eemshaven,Eemshaven,764496.0484634379,7063148.256356254
1651200000033648,1651200000033648,M.J. Bultenastraat,M.J. Bultenastraat,9981JB,9981JB,6,6.0,a,A,,,Uithuizen,Uithuizen,742736.5912626731,7058538.975630142
1651200000031804,1651200000031804,Bergsmastraat,Bergsmastraat,9982EB,9982EB,10,10.0,a,A,,,Uithuizermeeden,Uithuizermeeden,748497.4975759181,7059634.342207833
1651200000033187,1651200000033187,Oostervalge,Oostervalge,9989EL,9989EL,52,52.0,a,A,,,Warffum,Warffum,730391.9963923887,7056351.35440693
1651200000028718,1651200000028718,Prinses Irenestraat,Prinses Irenestraat,9982GZ,9982GZ,1,1.0,a,A,,,Uithuizermeeden,Uithuizermeeden,748861.9223946059,7059908.043282527
1651200000033695,1651200000033695,Emmaweg,Emmaweg,9981VA,9981VA,1,1.0,a,A,,,Uithuizen,Uithuizen,746721.7420204881,7065544.345465688
1651200000033516,1651200000033516,Robbenplaatweg,Robbenplaatweg,9979XL,9979XL,11,11.0,b,B,,,Eemshaven,Eemshaven,764188.7936523365,7063606.68530644
1651200000033651,1651200000033651,Oostereemsweg,Oostereemsweg,9979XV,9979XV,4,4.0,a,A,,,Eemshaven,Eemshaven,762433.2424917844,7064707.979846266
1651200000033269,1651200000033269,J. Cohenstraat,J. Cohenstraat,9981JD,9981JD,1,1.0,a,A,,,Uithuizen,Uithuizen,743156.3862050172,7058060.840630211
1651200000033273,1651200000033273,J. Cohenstraat,J. Cohenstraat,9981JD,9981JD,3,3.0,a,A,,,Uithuizen,Uithuizen,743156.8343361072,7058070.460394189
1651200000033277,1651200000033277,J. Cohenstraat,J. Cohenstraat,9981JD,9981JD,5,5.0,a,A,,,Uithuizen,Uithuizen,743156.5070440031,7058081.087416539
1651200000033281,1651200000033281,J. Cohenstraat,J. Cohenstraat,9981JD,9981JD,7,7.0,a,A,,,Uithuizen,Uithuizen,743157.4715870161,7058091.691252496
1651200000033285,1651200000033285,J. Cohenstraat,J. Cohenstraat,9981JD,9981JD,9,9.0,a,A,,,Uithuizen,Uithuizen,743123.0991220517,7058091.56349294
1651200000033289,1651200000033289,J. Cohenstraat,J. Cohenstraat,9981JD,9981JD,11,11.0,a,A,,,Uithuizen,Uithuizen,743111.6173449476,7058087.319826407
1651200000033292,1651200000033292,J. Cohenstraat,J. Cohenstraat,9981JD,9981JD,13,13.0,a,A,,,Uithuizen,Uithuizen,743096.5635023973,7058086.824956414
1651200000033295,1651200000033295,J. Cohenstraat,J. Cohenstraat,9981JD,9981JD,15,15.0,a,A,,,Uithuizen,Uithuizen,743082.0590729417,7058086.538324259
1651200000033298,1651200000033298,J. Cohenstraat,J. Cohenstraat,9981JD,9981JD,17,17.0,a,A,,,Uithuizen,Uithuizen,743064.3998102845,7058086.746222261
1651200000033301,1651200000033301,J. Cohenstraat,J. Cohenstraat,9981JD,9981JD,19,19.0,a,A,,,Uithuizen,Uithuizen,743049.3498658045,7058086.469321445
1651200000033304,1651200000033304,J. Cohenstraat,J. Cohenstraat,9981JD,9981JD,21,21.0,a,A,,,Uithuizen,Uithuizen,743034.408720703,7058086.192117915
1651200000033270,1651200000033270,J. Cohenstraat,J. Cohenstraat,9981JD,9981JD,1,1.0,b,B,,,Uithuizen,Uithuizen,743147.6039003739,7058060.593973657
1651200000033271,1651200000033271,J. Cohenstraat,J. Cohenstraat,9981JD,9981JD,1,1.0,c,C,,,Uithuizen,Uithuizen,743138.816202455,7058060.607479234
1651200000033274,1651200000033274,J. Cohenstraat,J. Cohenstraat,9981JD,9981JD,3,3.0,b,B,,,Uithuizen,Uithuizen,743149.0787242622,7058070.341277879
1651200000033275,1651200000033275,J. Cohenstraat,J. Cohenstraat,9981JD,9981JD,3,3.0,c,C,,,Uithuizen,Uithuizen,743139.2611316656,7058070.517578675
1651200000033278,1651200000033278,J. Cohenstraat,J. Cohenstraat,9981JD,9981JD,5,5.0,b,B,,,Uithuizen,Uithuizen,743147.9720093521,7058080.722221048
1651200000033279,1651200000033279,J. Cohenstraat,J. Cohenstraat,9981JD,9981JD,5,5.0,c,C,,,Uithuizen,Uithuizen,743138.9291699018,7058080.884608361
1651200000033282,1651200000033282,J. Cohenstraat,J. Cohenstraat,9981JD,9981JD,7,7.0,b,B,,,Uithuizen,Uithuizen,743149.720571421,7058091.830451702
1651200000033283,1651200000033283,J. Cohenstraat,J. Cohenstraat,9981JD,9981JD,7,7.0,c,C,,,Uithuizen,Uithuizen,743140.4153751988,7058091.73747631
1651200000033286,1651200000033286,J. Cohenstraat,J. Cohenstraat,9981JD,9981JD,9,9.0,b,B,,,Uithuizen,Uithuizen,743123.1172808609,7058086.490849252
1651200000033287,1651200000033287,J. Cohenstraat,J. Cohenstraat,9981JD,9981JD,9,9.0,c,C,,,Uithuizen,Uithuizen,743123.7429140336,7058081.128768965
1651200000033290,1651200000033290,J. Cohenstraat,J. Cohenstraat,9981JD,9981JD,11,11.0,b,B,,,Uithuizen,Uithuizen,743111.731421895,7058081.525641305
1651200000033293,1651200000033293,J. Cohenstraat,J. Cohenstraat,9981JD,9981JD,13,13.0,b,B,,,Uithuizen,Uithuizen,743096.5805392002,7058081.688575658
1651200000033296,1651200000033296,J. Cohenstraat,J. Cohenstraat,9981JD,9981JD,15,15.0,b,B,,,Uithuizen,Uithuizen,743082.0741713108,7058081.29291468
1651200000033299,1651200000033299,J. Cohenstraat,J. Cohenstraat,9981JD,9981JD,17,17.0,b,B,,,Uithuizen,Uithuizen,743064.5295310791,7058081.8259473685
1651200000033302,1651200000033302,J. Cohenstraat,J. Cohenstraat,9981JD,9981JD,19,19.0,b,B,,,Uithuizen,Uithuizen,743049.481543093,7058081.658075913
1651200000033305,1651200000033305,J. Cohenstraat,J. Cohenstraat,9981JD,9981JD,21,21.0,b,B,,,Uithuizen,Uithuizen,743034.6530695509,7058081.596979024
1651200000033308,1651200000033308,J. Cohenstraat,J. Cohenstraat,9981JD,9981JD,23,23.0,b,B,,,Uithuizen,Uithuizen,743018.6155371992,7058080.945111608
1651200000033307,1651200000033307,J. Cohenstraat,J. Cohenstraat,9981JD,9981JD,23,23.0,a,A,,,Uithuizen,Uithuizen,743018.111231161,7058085.325107753
1651200000032754,1651200000032754,Oude-Dijk,Oude-Dijk,9981TJ,9981TJ,53,53.0,a,A,,,Uithuizen,Uithuizen,742147.2248176119,7060494.14840271
1651200000033474,1651200000033474,Laanweg,Laanweg,9983RH,9983RH,12,12.0,a,A,,,Roodeschool,Roodeschool,753775.0569474207,7061138.019937836
1651200000027814,1651200000027814,Fivelingoweg,Fivelingoweg,,,2,2.0,a,A,,,Uithuizen,Uithuizen,742725.1533173949,7059537.802293958
1651200000025442,1651200000025442,Fivelingoweg,Fivelingoweg,,,2,2.0,c,C,,,Uithuizen,Uithuizen,742715.1078702877,7059541.358719607
1651200000025441,1651200000025441,Fivelingoweg,Fivelingoweg,,,2,2.0,d,D,,,Uithuizen,Uithuizen,742707.9428476761,7059535.376646023
1651200000025440,1651200000025440,Fivelingoweg,Fivelingoweg,,,2,2.0,e,E,,,Uithuizen,Uithuizen,742705.6993930045,7059544.5831918325
1651200000025439,1651200000025439,Fivelingoweg,Fivelingoweg,,,2,2.0,f,F,,,Uithuizen,Uithuizen,742698.2170661578,7059538.927326026
1651200000025438,1651200000025438,Fivelingoweg,Fivelingoweg,,,2,2.0,g,G,,,Uithuizen,Uithuizen,742695.9724333497,7059547.974464045
1651200000033475,1651200000033475,Ausmaweg,Ausmaweg,9981CD,9981CD,1,1.0,a,A,,,Uithuizen,Uithuizen,743070.3285961155,7058890.7887548795
1651200000033471,1651200000033471,Schildweg,Schildweg,9979XR,9979XR,4,4.0,a,A,1,1,Eemshaven,Eemshaven,758049.667892391,7065644.375985198
1651200000033469,1651200000033469,Schildweg,Schildweg,9979XR,9979XR,4,4.0,a,A,2,2,Eemshaven,Eemshaven,758050.9919253988,7065654.583071887
1651200000033470,1651200000033470,Schildweg,Schildweg,9979XR,9979XR,4,4.0,a,A,3,3,Eemshaven,Eemshaven,758053.2583946583,7065664.066081621
1651200000033468,1651200000033468,Schildweg,Schildweg,9979XR,9979XR,4,4.0,a,A,4,4,Eemshaven,Eemshaven,758055.0872336292,7065674.29677307
1651200000033467,1651200000033467,Schildweg,Schildweg,9979XR,9979XR,4,4.0,a,A,5,5,Eemshaven,Eemshaven,758063.7569957039,7065646.90643898
1651200000033466,1651200000033466,Schildweg,Schildweg,9979XR,9979XR,4,4.0,a,A,6,6,Eemshaven,Eemshaven,758067.6864411604,7065667.298574797
1651200000033512,1651200000033512,Lamerisstraat,Lamerisstraat,9989EA,9989EA,1,1.0,a,A,,,Warffum,Warffum,730001.1598563892,7055913.447899578
1651200000033477,1651200000033477,Schoolstraat,Schoolstraat,9981AN,9981AN,6,6.0,a,A,,,Uithuizen,Uithuizen,743052.0263064285,7058858.280730402
1651200000031806,1651200000031806,Brouwerijstraat,Brouwerijstraat,9981JL,9981JL,6,6.0,b,B,,,Uithuizen,Uithuizen,743112.7855392431,7058417.821659255
1651200000033494,1651200000033494,Kolholsterweg,Kolholsterweg,9983NS,9983NS,7,7.0,a,A,,,Roodeschool,Roodeschool,757645.8295110881,7058992.66040573
1651200000027606,1651200000027606,Edama,Edama,9981ND,9981ND,13,13.0,a,A,,,Uithuizen,Uithuizen,744909.3820300545,7060210.809339299
1651200000033425,1651200000033425,Leeuwstraat,Leeuwstraat,9981CM,9981CM,15,15.0,a,A,,,Uithuizen,Uithuizen,743365.6558231446,7058721.052962012
1651200000033426,1651200000033426,Leeuwstraat,Leeuwstraat,9981CM,9981CM,15,15.0,b,B,,,Uithuizen,Uithuizen,743371.3337860956,7058727.673071241
1651200000033427,1651200000033427,Leeuwstraat,Leeuwstraat,9981CM,9981CM,15,15.0,c,C,,,Uithuizen,Uithuizen,743359.6436219901,7058725.406538052
1651200000033428,1651200000033428,Leeuwstraat,Leeuwstraat,9981CM,9981CM,15,15.0,d,D,,,Uithuizen,Uithuizen,743365.7697515691,7058732.374339595
1651200000033430,1651200000033430,Leeuwstraat,Leeuwstraat,9981CM,9981CM,17,17.0,a,A,,,Uithuizen,Uithuizen,743388.4090167497,7058739.927762174
1651200000033431,1651200000033431,Leeuwstraat,Leeuwstraat,9981CM,9981CM,17,17.0,b,B,,,Uithuizen,Uithuizen,743377.0197162648,7058734.737720216
1651200000033432,1651200000033432,Leeuwstraat,Leeuwstraat,9981CM,9981CM,17,17.0,c,C,,,Uithuizen,Uithuizen,743384.6643010447,7058742.738727227
1651200000033436,1651200000033436,Hoofdstraat-West,Hoofdstraat-West,9981AB,9981AB,71,71.0,a,A,,,Uithuizen,Uithuizen,742347.27092024,7058827.93747064
1651200000033438,1651200000033438,Hoofdstraat-West,Hoofdstraat-West,9981AB,9981AB,73,73.0,a,A,,,Uithuizen,Uithuizen,742329.1877827434,7058833.21066434
1651200000033440,1651200000033440,Hoofdstraat-West,Hoofdstraat-West,9981AB,9981AB,75,75.0,a,A,,,Uithuizen,Uithuizen,742306.6500168358,7058845.364540685
1651200000033441,1651200000033441,Hoofdstraat-West,Hoofdstraat-West,9981AB,9981AB,75,75.0,b,B,,,Uithuizen,Uithuizen,742296.5138957589,7058847.547427476
1651200000033442,1651200000033442,Hoofdstraat-West,Hoofdstraat-West,9981AB,9981AB,75,75.0,c,C,,,Uithuizen,Uithuizen,742285.5051609766,7058850.648677486
1651200000033443,1651200000033443,Hoofdstraat-West,Hoofdstraat-West,9981AB,9981AB,75,75.0,d,D,,,Uithuizen,Uithuizen,742270.024444635,7058854.094867998
1651200000033444,1651200000033444,Hoofdstraat-West,Hoofdstraat-West,9981AB,9981AB,75,75.0,e,E,,,Uithuizen,Uithuizen,742250.7961370521,7058839.385811507
1651200000033445,1651200000033445,Hoofdstraat-West,Hoofdstraat-West,9981AB,9981AB,75,75.0,f,F,,,Uithuizen,Uithuizen,742247.1986485509,7058829.6803392675
1651200000033446,1651200000033446,Hoofdstraat-West,Hoofdstraat-West,9981AB,9981AB,75,75.0,g,G,,,Uithuizen,Uithuizen,742244.3692958102,7058818.640537736
1651200000033447,1651200000033447,Hoofdstraat-West,Hoofdstraat-West,9981AB,9981AB,75,75.0,h,H,,,Uithuizen,Uithuizen,742241.8308173376,7058809.179644482
1651200000033448,1651200000033448,Hoofdstraat-West,Hoofdstraat-West,9981AB,9981AB,75,75.0,i,I,,,Uithuizen,Uithuizen,742239.0044831894,7058798.403269869
1651200000033450,1651200000033450,Hoofdstraat-West,Hoofdstraat-West,9981AB,9981AB,77,77.0,a,A,,,Uithuizen,Uithuizen,742305.9006099523,7058842.098984104
1651200000033451,1651200000033451,Hoofdstraat-West,Hoofdstraat-West,9981AB,9981AB,77,77.0,b,B,,,Uithuizen,Uithuizen,742295.9227503649,7058843.861206039
1651200000033452,1651200000033452,Hoofdstraat-West,Hoofdstraat-West,9981AB,9981AB,77,77.0,c,C,,,Uithuizen,Uithuizen,742285.68985722,7058846.156558451
1651200000033453,1651200000033453,Hoofdstraat-West,Hoofdstraat-West,9981AB,9981AB,77,77.0,d,D,,,Uithuizen,Uithuizen,742277.036765334,7058848.42369973
1651200000033454,1651200000033454,Hoofdstraat-West,Hoofdstraat-West,9981AB,9981AB,77,77.0,e,E,,,Uithuizen,Uithuizen,742265.4774102799,7058850.214113686
1651200000033455,1651200000033455,Hoofdstraat-West,Hoofdstraat-West,9981AB,9981AB,77,77.0,f,F,,,Uithuizen,Uithuizen,742250.4565053636,7058849.95360408
1651200000033456,1651200000033456,Hoofdstraat-West,Hoofdstraat-West,9981AB,9981AB,77,77.0,g,G,,,Uithuizen,Uithuizen,742247.3955573457,7058840.767133638
1651200000033457,1651200000033457,Hoofdstraat-West,Hoofdstraat-West,9981AB,9981AB,77,77.0,h,H,,,Uithuizen,Uithuizen,742242.7407202524,7058830.815393415
1651200000033458,1651200000033458,Hoofdstraat-West,Hoofdstraat-West,9981AB,9981AB,77,77.0,i,I,,,Uithuizen,Uithuizen,742240.4479162793,7058820.29460251
1651200000033459,1651200000033459,Hoofdstraat-West,Hoofdstraat-West,9981AB,9981AB,77,77.0,j,J,,,Uithuizen,Uithuizen,742237.6262871142,7058809.783261443
1651200000033460,1651200000033460,Hoofdstraat-West,Hoofdstraat-West,9981AB,9981AB,77,77.0,k,K,,,Uithuizen,Uithuizen,742235.3364997152,7058799.525897307
1651200000033462,1651200000033462,Hoofdstraat-West,Hoofdstraat-West,9981AB,9981AB,79,79.0,a,A,,,Uithuizen,Uithuizen,742276.1905990909,7058845.270618585
1651200000033463,1651200000033463,Hoofdstraat-West,Hoofdstraat-West,9981AB,9981AB,79,79.0,b,B,,,Uithuizen,Uithuizen,742264.3715097687,7058847.329122458
1651200000033464,1651200000033464,Hoofdstraat-West,Hoofdstraat-West,9981AB,9981AB,79,79.0,c,C,,,Uithuizen,Uithuizen,742245.4777867734,7058851.363090839
1651200000033465,1651200000033465,Hoofdstraat-West,Hoofdstraat-West,9981AB,9981AB,79,79.0,d,D,,,Uithuizen,Uithuizen,742243.4601052376,7058841.629409756
1651200000033542,1651200000033542,Schildweg,Schildweg,9979XR,9979XR,16,16.0,b,B,,,Eemshaven,Eemshaven,759227.7078072589,7065445.782389123
1651200000033543,1651200000033543,Schildweg,Schildweg,9979XR,9979XR,16,16.0,c,C,,,Eemshaven,Eemshaven,759223.0188882762,7065468.995885116
1651200000033544,1651200000033544,Schildweg,Schildweg,9979XR,9979XR,16,16.0,d,D,,,Eemshaven,Eemshaven,759221.7930379016,7065463.632570115
1651200000033545,1651200000033545,Schildweg,Schildweg,9979XR,9979XR,16,16.0,e,E,,,Eemshaven,Eemshaven,759220.8094708362,7065459.162944781
1651200000033546,1651200000033546,Schildweg,Schildweg,9979XR,9979XR,16,16.0,f,F,,,Eemshaven,Eemshaven,759219.6042770467,7065454.922800244
1651200000033551,1651200000033551,Schildweg,Schildweg,9979XR,9979XR,18,18.0,a,A,,,Eemshaven,Eemshaven,759288.9859206742,7065514.310704815
1651200000033552,1651200000033552,Schildweg,Schildweg,9979XR,9979XR,18,18.0,b,B,,,Eemshaven,Eemshaven,759291.0801357348,7065522.64284322
1651200000033550,1651200000033550,Schildweg,Schildweg,9979XR,9979XR,18,18.0,c,C,,,Eemshaven,Eemshaven,759293.1615662214,7065530.331995517
1651200000033549,1651200000033549,Schildweg,Schildweg,9979XR,9979XR,18,18.0,d,D,,,Eemshaven,Eemshaven,759294.9927565834,7065538.412441852
1651200000033547,1651200000033547,Schildweg,Schildweg,9979XR,9979XR,18,18.0,e,E,,,Eemshaven,Eemshaven,759297.2014490458,7065546.0973853795
1651200000033548,1651200000033548,Schildweg,Schildweg,9979XR,9979XR,18,18.0,f,F,,,Eemshaven,Eemshaven,759311.2747953819,7065542.85346206
1651200000033555,1651200000033555,Schildweg,Schildweg,9979XR,9979XR,18,18.0,g,G,,,Eemshaven,Eemshaven,759309.451268457,7065535.159147546
1651200000033553,1651200000033553,Schildweg,Schildweg,9979XR,9979XR,18,18.0,h,H,,,Eemshaven,Eemshaven,759307.609845581,7065526.564984358
1651200000033556,1651200000033556,Schildweg,Schildweg,9979XR,9979XR,18,18.0,i,I,,,Eemshaven,Eemshaven,759303.8441000107,7065511.694370391
1651200000033557,1651200000033557,Schildweg,Schildweg,9979XR,9979XR,18,18.0,j,J,,,Eemshaven,Eemshaven,759305.6808707312,7065518.454596493
1651200000033728,1651200000033728,Tilweg,Tilweg,9983SR,9983SR,2,2.0,a,A,,,Roodeschool,Roodeschool,752705.8969954082,7060884.975492922
1651200000033681,1651200000033681,Havenweg,Havenweg,9981JN,9981JN,1,1.0,c,C,,,Uithuizen,Uithuizen,743158.9428183691,7058385.846274086
1651200000033721,1651200000033721,Talmaweg,Talmaweg,9981CX,9981CX,69,69.0,a,A,,,Uithuizen,Uithuizen,744409.1084906751,7060713.981406506
1651200000033756,1651200000033756,Borkumweg,Borkumweg,9979XH,,2,2.0,a,A,,,Eemshaven,Eemshaven,759126.8729955326,7066347.719659041
1651200000033974,1651200000033974,Borkumkade,Borkumkade,,,9,9.0,b,B,,,Eemshaven,Eemshaven,758687.7610712718,7069024.38318537
1651200000033729,1651200000033729,Industrieweg,Industrieweg,9981HJ,9981HJ,14,14.0,b,B,,,Uithuizen,Uithuizen,743318.5812891651,7059162.959398723
1651200000033736,1651200000033736,Hoofdstraat-West,Hoofdstraat-West,9981AD,9981AD,38,38.0,a,A,,,Uithuizen,Uithuizen,742433.9030285379,7058863.329117367
1651200000033749,1651200000033749,Lijnbaan,Lijnbaan,9982HJ,9982HJ,4,4.0,a,A,,,Uithuizermeeden,Uithuizermeeden,748746.6322446469,7060329.167786097
1651200000033750,1651200000033750,Lijnbaan,Lijnbaan,9982HJ,9982HJ,4,4.0,b,B,,,Uithuizermeeden,Uithuizermeeden,748733.7231854483,7060337.305495179
1651200000033751,1651200000033751,Lijnbaan,Lijnbaan,9982HJ,9982HJ,4,4.0,c,C,,,Uithuizermeeden,Uithuizermeeden,748720.2085084681,7060346.283616807
1651200000033752,1651200000033752,Lijnbaan,Lijnbaan,9982HJ,9982HJ,4,4.0,d,D,,,Uithuizermeeden,Uithuizermeeden,748706.1499802907,7060359.429257238
1651200000033753,1651200000033753,Lijnbaan,Lijnbaan,9982HJ,9982HJ,4,4.0,e,E,,,Uithuizermeeden,Uithuizermeeden,748693.0564221498,7060368.817421546
1651200000033742,1651200000033742,De Bommel,De Bommel,9982HV,9982HV,2,2.0,a,A,,,Uithuizermeeden,Uithuizermeeden,748659.1463011403,7060440.515273716
1651200000033738,1651200000033738,Zuiderstraat,Zuiderstraat,9981JE,9981JE,25,25.0,a,A,,,Uithuizen,Uithuizen,743044.6182939274,7058504.149326249
1651200000033739,1651200000033739,Zuiderstraat,Zuiderstraat,9981JE,9981JE,25,25.0,b,B,,,Uithuizen,Uithuizen,743046.3763526994,7058507.638210606
1651200000033865,1651200000033865,Kerkstraat,Kerkstraat,9982GA,9982GA,2,2.0,a,A,,,Uithuizermeeden,Uithuizermeeden,748682.3988243453,7059960.945867797
1651200000033808,1651200000033808,Hoofdstraat,Hoofdstraat,9982AB,9982AB,61,61.0,a,A,1,1,Uithuizermeeden,Uithuizermeeden,747816.1441500577,7059669.356943391
1651200000033830,1651200000033830,Hoofdstraat,Hoofdstraat,9982AB,9982AB,61,61.0,a,A,106,106,Uithuizermeeden,Uithuizermeeden,747827.8893868424,7059622.391614469
1651200000033833,1651200000033833,Hoofdstraat,Hoofdstraat,9982AB,9982AB,61,61.0,a,A,111,111,Uithuizermeeden,Uithuizermeeden,747828.6883267604,7059602.0902540535
1651200000033835,1651200000033835,Hoofdstraat,Hoofdstraat,9982AB,9982AB,61,61.0,a,A,113,113,Uithuizermeeden,Uithuizermeeden,747829.3011986993,7059587.672922079
1651200000033809,1651200000033809,Hoofdstraat,Hoofdstraat,9982AB,9982AB,61,61.0,a,A,2,2,Uithuizermeeden,Uithuizermeeden,747816.3014292906,7059662.003294757
1651200000033837,1651200000033837,Hoofdstraat,Hoofdstraat,9982AB,9982AB,61,61.0,a,A,130,130,Uithuizermeeden,Uithuizermeeden,747838.0475330309,7059616.618042322
1651200000033838,1651200000033838,Hoofdstraat,Hoofdstraat,9982AB,9982AB,61,61.0,a,A,131,131,Uithuizermeeden,Uithuizermeeden,747838.488516712,7059608.671796226
1651200000033810,1651200000033810,Hoofdstraat,Hoofdstraat,9982AB,9982AB,61,61.0,a,A,3,3,Uithuizermeeden,Uithuizermeeden,747816.4749941716,7059655.532108836
1651200000033811,1651200000033811,Hoofdstraat,Hoofdstraat,9982AB,9982AB,61,61.0,a,A,4,4,Uithuizermeeden,Uithuizermeeden,747816.653977115,7059649.3545206515
1651200000033841,1651200000033841,Hoofdstraat,Hoofdstraat,9982AB,9982AB,61,61.0,a,A,134,134,Uithuizermeeden,Uithuizermeeden,747841.0501819572,7059588.63146718
1651200000033812,1651200000033812,Hoofdstraat,Hoofdstraat,9982AB,9982AB,61,61.0,a,A,5,5,Uithuizermeeden,Uithuizermeeden,747817.1438104628,7059644.053929599
1651200000033815,1651200000033815,Hoofdstraat,Hoofdstraat,9982AB,9982AB,61,61.0,a,A,11,11,Uithuizermeeden,Uithuizermeeden,747823.4964096529,7059606.8906346755
1651200000033816,1651200000033816,Hoofdstraat,Hoofdstraat,9982AB,9982AB,61,61.0,a,A,12,12,Uithuizermeeden,Uithuizermeeden,747823.686254329,7059601.301942886
1651200000033817,1651200000033817,Hoofdstraat,Hoofdstraat,9982AB,9982AB,61,61.0,a,A,13,13,Uithuizermeeden,Uithuizermeeden,747824.4147221444,7059593.056690555
1651200000033818,1651200000033818,Hoofdstraat,Hoofdstraat,9982AB,9982AB,61,61.0,a,A,14,14,Uithuizermeeden,Uithuizermeeden,747825.1794758135,7059586.868287017
1651200000033819,1651200000033819,Hoofdstraat,Hoofdstraat,9982AB,9982AB,61,61.0,a,A,29,29,Uithuizermeeden,Uithuizermeeden,747842.8635614214,7059623.290349584
1651200000033820,1651200000033820,Hoofdstraat,Hoofdstraat,9982AB,9982AB,61,61.0,a,A,30,30,Uithuizermeeden,Uithuizermeeden,747843.0208154971,7059615.936742565
1651200000033821,1651200000033821,Hoofdstraat,Hoofdstraat,9982AB,9982AB,61,61.0,a,A,31,31,Uithuizermeeden,Uithuizermeeden,747843.46179422,7059607.990496893
1651200000033822,1651200000033822,Hoofdstraat,Hoofdstraat,9982AB,9982AB,61,61.0,a,A,32,32,Uithuizermeeden,Uithuizermeeden,747844.1994381546,7059600.334126225
1651200000033823,1651200000033823,Hoofdstraat,Hoofdstraat,9982AB,9982AB,61,61.0,a,A,33,33,Uithuizermeeden,Uithuizermeeden,747845.2641594245,7059594.433842493
1651200000033824,1651200000033824,Hoofdstraat,Hoofdstraat,9982AB,9982AB,61,61.0,a,A,34,34,Uithuizermeeden,Uithuizermeeden,747845.7360081169,7059588.250868286
1651200000033825,1651200000033825,Hoofdstraat,Hoofdstraat,9982AB,9982AB,61,61.0,a,A,101,101,Uithuizermeeden,Uithuizermeeden,747821.4320640682,7059669.846271965
1651200000033863,1651200000033863,Hoofdstraat,Hoofdstraat,9982AK,9982AK,182,182.0,a,A,,,Uithuizermeeden,Uithuizermeeden,748661.4883210064,7059974.5609884495
1651200000033889,1651200000033889,Oudedijksterweg,Oudedijksterweg,9982HC,9982HC,1,1.0,f,F,,,Uithuizermeeden,Uithuizermeeden,748546.1023847137,7059983.7123276
1651200000033887,1651200000033887,Oudedijksterweg,Oudedijksterweg,9982HC,9982HC,1,1.0,d,D,,,Uithuizermeeden,Uithuizermeeden,748569.519528134,7059994.196728132
1651200000033888,1651200000033888,Oudedijksterweg,Oudedijksterweg,9982HC,9982HC,1,1.0,e,E,,,Uithuizermeeden,Uithuizermeeden,748558.9574393407,7059988.932328706
1651200000033920,1651200000033920,Eppenhuizerweg,Eppenhuizerweg,9996VC,9996VC,17,17.0,a,A,,,Eppenhuizen,Eppenhuizen,746423.6677772563,7053516.478772226
1651200000033902,1651200000033902,Torenstraat,Torenstraat,9988SP,9988SP,1,1.0,a,A,,,Usquert,Usquert,735984.9171390231,7058016.395725652
1651200000033897,1651200000033897,Westlob,Westlob,9979XJ,9979XJ,2,2.0,b,B,,,Eemshaven,Eemshaven,760355.6334829206,7067087.492579816
1651200000033884,1651200000033884,Borkumkade,Borkumkade,,,1,1.0,w,W,,,Eemshaven,Eemshaven,759390.9029757151,7071234.207081767
1651200000033905,1651200000033905,Hoofdstraat-Oost,Hoofdstraat-Oost,9981AG,9981AG,33,33.0,a,A,,,Uithuizen,Uithuizen,743138.5638859033,7058662.815316508
1651200000033908,1651200000033908,Borkumweg,Borkumweg,,,3,3.0,a,A,,,Eemshaven,Eemshaven,759155.4432954993,7066141.909235237
1651200000033909,1651200000033909,Westerdijkstraat,Westerdijkstraat,9983PR,9983PR,19,19.0,a,A,,,Roodeschool,Roodeschool,753328.5533840125,7061642.528549032
1651200000033913,1651200000033913,Borkumkade,Borkumkade,,,9,9.0,a,A,,,Eemshaven,Eemshaven,758662.4192846428,7068965.809412558
1651200000030876,1651200000030876,Hoofdstraat,Hoofdstraat,9982AL,9982AL,224,224.0,b,B,,,Uithuizermeeden,Uithuizermeeden,749068.3881935348,7060322.690554594
1651200000032940,1651200000032940,Tilweg,Tilweg,9983SR,9983SR,20,20.0,a,A,,,Roodeschool,Roodeschool,751843.7292009962,7059448.290360378
1651200000033254,1651200000033254,Molenweg,Molenweg,,,2,2.0,a,A,,,Warffum,Warffum,729474.2436035692,7049962.550508462
1651200000026715,1651200000026715,Lageweg,Lageweg,9981HE,9981HE,10,10.0,a,A,,,Uithuizen,Uithuizen,740879.1492371046,7059274.349282788
1651200000033945,1651200000033945,Robbenplaatweg,Robbenplaatweg,9979XL,9979XL,17,17.0,a,A,,,Eemshaven,Eemshaven,765778.8004140008,7064467.133750666
1651200000033597,1651200000033597,Industrieweg,Industrieweg,9981HJ,9981HJ,16,16.0,a,A,,,Uithuizen,Uithuizen,743368.7229092623,7059171.092756614
1651200000033982,1651200000033982,Juffer Marthastraat,Juffer Marthastraat,9989EG,9989EG,13,13.0,a,A,,,Warffum,Warffum,729958.8956373016,7056528.546826315
1651200000034030,1651200000034030,Hoofdstraat,Hoofdstraat,9982AJ,9982AJ,132,132.0,a,A,,,Uithuizermeeden,Uithuizermeeden,748235.828719855,7059612.672813029
1651200000034031,1651200000034031,Hoofdstraat,Hoofdstraat,9982AJ,9982AJ,132,132.0,b,B,,,Uithuizermeeden,Uithuizermeeden,748235.828719855,7059612.672813029
1651200000034020,1651200000034020,Engersmastraat,Engersmastraat,9981CC,9981CC,1,1.0,r,R,,,Uithuizen,Uithuizen,742971.5059313609,7058948.227210658
1651200000033729,1651200000033729,Industrieweg,Industrieweg,9981HJ,9981HJ,14,14.0,b,B,,,Uithuizen,Uithuizen,743318.5812891651,7059162.959398723
1651200000033603,1651200000033603,J F Kennedylaan,J F Kennedylaan,9981KC,9981KC,50,50.0,a,A,,,Uithuizen,Uithuizen,741872.0937175466,7058530.932431794
1651200000027813,1651200000027813,Fivelingoweg,Fivelingoweg,,,2,2.0,b,B,,,Uithuizen,Uithuizen,742717.029939705,7059532.156250929
1651200000033433,1651200000033433,Leeuwstraat,Leeuwstraat,9981CM,9981CM,17,17.0,d,D,,,Uithuizen,Uithuizen,743371.2593335453,7058738.28971172
1651200000033434,1651200000033434,Leeuwstraat,Leeuwstraat,9981CM,9981CM,17,17.0,e,E,,,Uithuizen,Uithuizen,743378.8104758754,7058746.027277264
53200000142339,53200000142339,Het Aanleg,Het Aanleg,9951SJ,9951SJ,4,4.0,a,A,,,Winsum,Winsum,724650.2364700943,7045189.067990299
53200000142413,53200000142413,Burchtweg,Burchtweg,9771BA,9771BA,13,13.0,a,A,,,Sauwerd,Sauwerd,726831.7121357424,7037508.718852573
1651200000033082,1651200000033082,Oosterweg,Oosterweg,9995VJ,9995VJ,6,6.0,a,A,,,Kantens,Kantens,739513.406546617,7051256.503479041
1651200000032952,1651200000032952,Oostereemsweg,Oostereemsweg,,,4,4.0,b,B,,,Eemshaven,Eemshaven,762430.6577546196,7065010.927561932
1651200000033807,1651200000033807,Hoofdstraat,Hoofdstraat,9982AB,9982AB,61,61.0,a,A,,,Uithuizermeeden,Uithuizermeeden,747855.666559848,7059633.637552801
53200000142389,53200000142389,Oude Winsumerstraatweg,Oude Winsumerstraatweg,9771AB,9771AB,2,2.0,a,A,,,Sauwerd,Sauwerd,727267.3475641008,7037582.5216717
1663200000001134,1663200000001134,Henricus v Cappenbergweg,Henricus van Cappenbergweg,9977RW,9977RW,8,8.0,,,,,Kloosterburen,Kloosterburen,712676.5596687958,7055044.042768342
1663200000006162,1663200000006162,Burg E P van Iperensngl,Burgemeester E.P. van Iperensingel,9965RL,9965RL,29,29.0,,,,,Leens,Leens,710184.424170981,7049712.201384643
1663200000001129,1663200000001129,Henricus v Cappenbergweg,Henricus van Cappenbergweg,9977RV,9977RV,1,1.0,,,,,Kloosterburen,Kloosterburen,712832.9153949099,7055097.1779768225
1663200000003030,1663200000003030,Zuster A Westerhofstraat,Zuster A. Westerhofstraat,9965PJ,9965PJ,24,24.0,,,,,Leens,Leens,709581.7941827432,7049591.202005765
1663200000002511,1663200000002511,Mr J S van Weerdenstraat,Meester J.S. van Weerdenstraat,9965RE,9965RE,18,18.0,B,B,,,Leens,Leens,710743.1344019672,7049658.950788347
1663200000003757,1663200000003757,Dr. Sch?nfeldstraat,Dr. Schonfeldstraat,9971CE,9971CE,3,3.0,,,,,Ulrum,Ulrum,705483.7715492379,7049730.309657098
1663200000003759,1663200000003759,Dr. Sch?nfeldstraat,Dr. Schonfeldstraat,9971CE,9971CE,5,5.0,,,,,Ulrum,Ulrum,705481.945216747,7049718.601256621
1663200000006159,1663200000006159,Burg E P van Iperensngl,Burgemeester E.P. van Iperensingel,9965RL,9965RL,23,23.0,,,,,Leens,Leens,710137.8377321645,7049702.423488194
1663200000006151,1663200000006151,Burg E P van Iperensngl,Burgemeester E.P. van Iperensingel,9965RL,9965RL,7,7.0,,,,,Leens,Leens,709983.5240177236,7049676.394918997
1663200000006161,1663200000006161,Burg E P van Iperensngl,Burgemeester E.P. van Iperensingel,9965RL,9965RL,27,27.0,,,,,Leens,Leens,710173.1037656134,7049709.252112198
1663200000003761,1663200000003761,Dr. Sch?nfeldstraat,Dr. Schonfeldstraat,9971CE,9971CE,9,9.0,,,,,Ulrum,Ulrum,705478.0938643415,7049680.102460429
1663200000003762,1663200000003762,Dr. Sch?nfeldstraat,Dr. Schonfeldstraat,9971CE,9971CE,11,11.0,,,,,Ulrum,Ulrum,705479.2799086808,7049643.213227146
1663200000006153,1663200000006153,Burg E P van Iperensngl,Burgemeester E.P. van Iperensingel,9965RL,9965RL,11,11.0,,,,,Leens,Leens,710019.2311509176,7049683.218109522
1663200000006158,1663200000006158,Burg E P van Iperensngl,Burgemeester E.P. van Iperensingel,9965RL,9965RL,21,21.0,,,,,Leens,Leens,710116.9959193612,7049698.940326423
1663200000001156,1663200000001156,Henricus v Cappenbergweg,Henricus van Cappenbergweg,9977RW,9977RW,34,34.0,,,,,Kloosterburen,Kloosterburen,713022.1941635382,7054874.783258985
1663200000001162,1663200000001162,Henricus v Cappenbergweg,Henricus van Cappenbergweg,9977RV,9977RV,41,41.0,,,,,Kloosterburen,Kloosterburen,714081.5917075241,7054307.9163700435
1663200000003756,1663200000003756,Dr. Sch?nfeldstraat,Dr. Schonfeldstraat,9971CE,9971CE,1,1.0,,,,,Ulrum,Ulrum,705477.4597633623,7049758.886692557
1663200000002506,1663200000002506,Mr J S van Weerdenstraat,Meester J.S. van Weerdenstraat,9965RE,9965RE,14,14.0,,,,,Leens,Leens,710216.372795852,7049654.52130674
1663200000006152,1663200000006152,Burg E P van Iperensngl,Burgemeester E.P. van Iperensingel,9965RL,9965RL,9,9.0,,,,,Leens,Leens,709995.4944026024,7049678.224232337
1663200000004267,1663200000004267,Hoofdstraat,Dijksweg,9975VS,9975VN,24,1.0,,A,,,Vierhuizen,Vierhuizen,700302.0055337871,7049860.922018916
1663200000003832,1663200000003832,Asingastraat,Asingastraat,9971CD,9971CA,37,37.0,C,C,,,Ulrum,Ulrum,705218.1767900271,7049623.200628681
1663200000003038,1663200000003038,Zuster A Westerhofstraat,Zuster A. Westerhofstraat,9965PJ,9965PJ,32,32.0,,,,,Leens,Leens,709607.601422361,7049522.128772706
1663200000001167,1663200000001167,Henricus v Cappenbergweg,Henricus van Cappenbergweg,9977RX,9977RX,54,54.0,,,,,Kloosterburen,Kloosterburen,713259.3078339448,7054841.227338402
1663200000001152,1663200000001152,Henricus v Cappenbergweg,Henricus van Cappenbergweg,9977RW,9977RW,30,30.0,,,,,Kloosterburen,Kloosterburen,712942.6556534024,7054929.580674877
1663200000001146,1663200000001146,Henricus v Cappenbergweg,Henricus van Cappenbergweg,9977RW,9977RW,20,20.0,,,,,Kloosterburen,Kloosterburen,712847.8004468066,7054966.145529837
1663200000006406,1663200000006406,Burg IJ Wiersumstraat,Burgemeester IJ. Wiersumstraat,9963PJ,9963PJ,5,5.0,,,,,Warfhuizen,Warfhuizen,714915.8391462282,7046384.9882456865
1663200000004406,1663200000004406,Burg IJ Wiersumstraat,Burgemeester IJ. Wiersumstraat,9963PJ,9963PJ,3,3.0,,,,,Warfhuizen,Warfhuizen,714922.301025773,7046374.757187629
1663200000006405,1663200000006405,Burg IJ Wiersumstraat,Burgemeester IJ. Wiersumstraat,9963PJ,9963PJ,1,1.0,,,,,Warfhuizen,Warfhuizen,714928.6485795171,7046365.878161637
1663200000006216,1663200000006216,Burg E P van Iperensngl,Burgemeester E.P. van Iperensingel,9965RL,9965RL,3,3.0,,,,,Leens,Leens,709920.6349446247,7049662.07737948
1663200000003760,1663200000003760,Dr. Sch?nfeldstraat,Dr. Schonfeldstraat,9971CE,9971CE,7,7.0,,,,,Ulrum,Ulrum,705479.9201822509,7049691.810805977
1663200000002481,1663200000002481,Mr J S van Weerdenstraat,Meester J.S. van Weerdenstraat,9965RE,9965RE,2,2.0,,,,,Leens,Leens,710120.5992871588,7049620.647832189
1663200000006155,1663200000006155,Burg E P van Iperensngl,Burgemeester E.P. van Iperensingel,9965RL,9965RL,15,15.0,,,,,Leens,Leens,710050.04448367,7049688.115868855
1663200000006157,1663200000006157,Burg E P van Iperensngl,Burgemeester E.P. van Iperensingel,9965RL,9965RL,19,19.0,,,,,Leens,Leens,710106.391092662,7049699.752270864
1663200000006164,1663200000006164,Burg E P van Iperensngl,Burgemeester E.P. van Iperensingel,9965RL,9965RL,33,33.0,,,,,Leens,Leens,710217.7019126638,7049720.103194002
1663200000006156,1663200000006156,Burg E P van Iperensngl,Burgemeester E.P. van Iperensingel,9965RL,9965RL,17,17.0,,,,,Leens,Leens,710062.2555336055,7049691.27257289
1663200000001140,1663200000001140,Henricus v Cappenbergweg,Henricus van Cappenbergweg,9977RW,9977RW,14,14.0,,,,,Kloosterburen,Kloosterburen,712753.1333032349,7055016.124320204
1663200000001160,1663200000001160,Henricus v Cappenbergweg,Henricus van Cappenbergweg,9977RV,9977RV,39,39.0,,,,,Kloosterburen,Kloosterburen,713793.8780645605,7054546.8212769665
1663200000004428,1663200000004428,Burg IJ Wiersumstraat,Burgemeester IJ. Wiersumstraat,9963PK,9963PK,24,24.0,,,,,Warfhuizen,Warfhuizen,715021.1721448067,7046228.468303396
1663200000003541,1663200000003541,Asingastraat,Asingastraat,9971CD,9971CA,37,37.0,B,B,,,Ulrum,Ulrum,705214.8332752319,7049623.244781096
1663200000001150,1663200000001150,Henricus v Cappenbergweg,Henricus van Cappenbergweg,9977RW,9977RW,26,26.0,,,,,Kloosterburen,Kloosterburen,712907.7389710019,7054945.170171527
1663200000006225,1663200000006225,De Brouwerij,De Brouwerij,9965NB,9965NB,1,1.0,a,A,,,Leens,Leens,709623.5536445867,7049993.618597126
1663200000006160,1663200000006160,Burg E P van Iperensngl,Burgemeester E.P. van Iperensingel,9965RL,9965RL,25,25.0,,,,,Leens,Leens,710151.6012988507,7049706.001091143
1663200000006163,1663200000006163,Burg E P van Iperensngl,Burgemeester E.P. van Iperensingel,9965RL,9965RL,31,31.0,,,,,Leens,Leens,710206.8201612673,7049716.103694616
1663200000000967,1663200000000967,Vlakkeriet,Vlakkeriet,9973TB,9973TB,2,2.0,b,B,,,Houwerzijl,Houwerzijl,705480.9796227075,7047488.057910258
1663200000006154,1663200000006154,Burg E P van Iperensngl,Burgemeester E.P. van Iperensingel,9965RL,9965RL,13,13.0,,,,,Leens,Leens,710029.6504711042,7049684.847544971
1663200000006031,1663200000006031,Reitdiepskade,Reitdiepskade,9947PJ,9974PJ,1,1.0,C,C,,,Zoutkamp,Zoutkamp,701228.3566012626,7045459.161306497
1663200000002202,1663200000002202,Burg E P van Iperensngl,Burgemeester E.P. van Iperensingel,9965RL,9965RL,21,21.0,F,F,,,Leens,Leens,710159.7639828685,7049672.064864359
