BAGNUMIDENTIFICATIE,B_NUMMERAANDUIDING,OPENBARERUIMTENAAM,B_OPENBARERUIMTE,POSTCODE,B_POSTCODE,HUISNUMMER,B_HUISNUMMER,HUISLETTER,B_HUISLETTER,HUISNUMMERTOEVOEGING,B_HUISNUMMERTOEVOEGING,WOONPLAATSNAAM,B_WOONPLAATSNAAM,x,y
53200000005890,53200000005890,Aldringaweg,Aldringaweg,9892PE,9892PE,1,1.0,a,A,,,Feerwerd,Feerwerd,719762.8388258634,7039970.509084856
53200000005941,53200000005941,Allersmaweg,Allersmaweg,9891BB,9891BB,31,31.0,a,A,,,Ezinge,Ezinge,717571.871882885,7040322.876229099
53200000005942,53200000005942,Allersmaweg,Allersmaweg,9891BB,9891BB,31,31.0,b,B,,,Ezinge,Ezinge,717581.9888092305,7040329.423658647
53200000005943,53200000005943,Allersmaweg,Allersmaweg,9891BB,9891BB,31,31.0,c,C,,,Ezinge,Ezinge,717592.105752036,7040335.971080638
53200000005944,53200000005944,Allersmaweg,Allersmaweg,9891BB,9891BB,31,31.0,d,D,,,Ezinge,Ezinge,717603.9170632762,7040344.167662827
22200000000673,22200000000673,Beetke van Rasquertstr,Beetke van Rasquertstraat,9351JB,9351JB,49,49.0,,,,,Leek,Leek,709332.5842005693,7012291.972021313
22200000000674,22200000000674,Beetke van Rasquertstr,Beetke van Rasquertstraat,9351JB,9351JB,51,51.0,,,,,Leek,Leek,709313.4218838452,7012282.975293178
22200000000208,22200000000208,Burg van Waninglaan,Burgemeester van Waninglaan,9351LR,9351LR,5,5.0,,,,,Leek,Leek,709209.1623137753,7013362.005051009
22200000000675,22200000000675,Beetke van Rasquertstr,Beetke van Rasquertstraat,9351JB,9351JB,53,53.0,,,,,Leek,Leek,709304.7420597258,7012281.108880985
22200000000760,22200000000760,Burg van Waninglaan,Burgemeester van Waninglaan,9351LT,9351LT,6,6.0,,,,,Leek,Leek,709162.5627268191,7013258.006406358
22200000000676,22200000000676,Beetke van Rasquertstr,Beetke van Rasquertstraat,9351JB,9351JB,55,55.0,,,,,Leek,Leek,709284.2062018494,7012278.787567623
22200000000209,22200000000209,Burg van Waninglaan,Burgemeester van Waninglaan,9351LR,9351LR,7,7.0,,,,,Leek,Leek,709206.9850796624,7013371.901047527
22200000000677,22200000000677,Beetke van Rasquertstr,Beetke van Rasquertstraat,9351JB,9351JB,57,57.0,,,,,Leek,Leek,709275.1787692833,7012277.059352187
22200000000761,22200000000761,Burg van Waninglaan,Burgemeester van Waninglaan,9351LT,9351LT,8,8.0,,,,,Leek,Leek,709159.3706143762,7013268.061310224
22200000000678,22200000000678,Beetke van Rasquertstr,Beetke van Rasquertstraat,9351JB,9351JB,59,59.0,,,,,Leek,Leek,709216.184313041,7012267.656865428
22200000000210,22200000000210,Burg van Waninglaan,Burgemeester van Waninglaan,9351LR,9351LR,9,9.0,,,,,Leek,Leek,709160.0950075674,7013601.232261037
22200000000679,22200000000679,Beetke van Rasquertstr,Beetke van Rasquertstraat,9351JB,9351JB,61,61.0,,,,,Leek,Leek,709207.6857237173,7012264.186271869
22200000000762,22200000000762,Burg van Waninglaan,Burgemeester van Waninglaan,9351LT,9351LT,10,10.0,,,,,Leek,Leek,709160.5802444203,7013285.998267336
22200000000680,22200000000680,Beetke van Rasquertstr,Beetke van Rasquertstraat,9351JB,9351JB,63,63.0,,,,,Leek,Leek,709180.4745753785,7012264.441872582
22200000000211,22200000000211,Burg van Waninglaan,Burgemeester van Waninglaan,9351LR,9351LR,11,11.0,,,,,Leek,Leek,709157.7246089599,7013611.743558747
22200000000681,22200000000681,Beetke van Rasquertstr,Beetke van Rasquertstraat,9351JB,9351JB,65,65.0,,,,,Leek,Leek,709171.7264250343,7012262.442789243
22200000000763,22200000000763,Burg van Waninglaan,Burgemeester van Waninglaan,9351LT,9351LT,12,12.0,,,,,Leek,Leek,709158.5110842477,7013296.621832954
22200000000682,22200000000682,Beetke van Rasquertstr,Beetke van Rasquertstraat,9351JB,9351JB,67,67.0,,,,,Leek,Leek,709139.2445417659,7012256.714320245
22200000000683,22200000000683,Beetke van Rasquertstr,Beetke van Rasquertstraat,9351JB,9351JB,69,69.0,,,,,Leek,Leek,709133.4383607177,7012298.083359368
22200000000212,22200000000212,Burg van Waninglaan,Burgemeester van Waninglaan,9351LR,9351LR,13,13.0,,,,,Leek,Leek,709155.0997937603,7013621.907941314
22200000000684,22200000000684,Beetke van Rasquertstr,Beetke van Rasquertstraat,9351JB,9351JB,71,71.0,,,,,Leek,Leek,709087.0323544771,7012251.589158831
22200000000764,22200000000764,Burg van Waninglaan,Burgemeester van Waninglaan,9351LT,9351LT,14,14.0,,,,,Leek,Leek,709156.7861779121,7013306.856936323
22200000000213,22200000000213,Burg van Waninglaan,Burgemeester van Waninglaan,9351LR,9351LR,15,15.0,,,,,Leek,Leek,709153.0458216069,7013632.431621598
22200000000765,22200000000765,Burg van Waninglaan,Burgemeester van Waninglaan,9351LT,9351LT,16,16.0,,,,,Leek,Leek,709154.5262224516,7013316.915831558
22200000000214,22200000000214,Burg van Waninglaan,Burgemeester van Waninglaan,9351LR,9351LR,17,17.0,,,,,Leek,Leek,709147.85073145,7013655.546295514
22200000000766,22200000000766,Burg van Waninglaan,Burgemeester van Waninglaan,9351LT,9351LT,18,18.0,,,,,Leek,Leek,709125.1538509459,7013447.015019014
22200000000215,22200000000215,Burg van Waninglaan,Burgemeester van Waninglaan,9351LR,9351LR,19,19.0,,,,,Leek,Leek,709145.2333845053,7013666.261272709
22200000000912,22200000000912,Burg van Waninglaan,Burgemeester van Waninglaan,9351LW,9351LW,88,88.0,,,,,Leek,Leek,708949.5805204693,7013998.444827438
22200000000767,22200000000767,Burg van Waninglaan,Burgemeester van Waninglaan,9351LT,9351LT,20,20.0,,,,,Leek,Leek,709123.2314328406,7013457.41986415
22200000000913,22200000000913,Burg van Waninglaan,Burgemeester van Waninglaan,9351LW,9351LW,90,90.0,,,,,Leek,Leek,708936.2430556759,7013996.9582530605
22200000000914,22200000000914,Burg van Waninglaan,Burgemeester van Waninglaan,9351LW,9351LW,92,92.0,,,,,Leek,Leek,708919.5315660464,7013992.180339962
22200000000915,22200000000915,Burg van Waninglaan,Burgemeester van Waninglaan,9351LW,9351LW,94,94.0,,,,,Leek,Leek,708904.4617805866,7013985.711299029
22200000000216,22200000000216,Burg van Waninglaan,Burgemeester van Waninglaan,9351LR,9351LR,21,21.0,,,,,Leek,Leek,709143.3460436522,7013676.799414833
22200000000768,22200000000768,Burg van Waninglaan,Burgemeester van Waninglaan,9351LT,9351LT,22,22.0,,,,,Leek,Leek,709119.7970499988,7013468.028944265
22200000000217,22200000000217,Burg van Waninglaan,Burgemeester van Waninglaan,9351LR,9351LR,23,23.0,,,,,Leek,Leek,709141.2745550096,7013686.03856087
22200000000769,22200000000769,Burg van Waninglaan,Burgemeester van Waninglaan,9351LT,9351LT,24,24.0,,,,,Leek,Leek,709117.2985607501,7013477.690831102
22200000000218,22200000000218,Burg van Waninglaan,Burgemeester van Waninglaan,9351LS,9351LS,25,25.0,,,,,Leek,Leek,709144.7900556998,7013738.852712743
22200000000770,22200000000770,Burg van Waninglaan,Burgemeester van Waninglaan,9351LT,9351LT,26,26.0,,,,,Leek,Leek,709116.1158848997,7013488.636230179
22200000000219,22200000000219,Burg van Waninglaan,Burgemeester van Waninglaan,9351LS,9351LS,27,27.0,,,,,Leek,Leek,709142.2568013064,7013749.633394347
22200000000771,22200000000771,Burg van Waninglaan,Burgemeester van Waninglaan,9351LT,9351LT,28,28.0,,,,,Leek,Leek,709114.2420104431,7013498.940347441
22200000000220,22200000000220,Burg van Waninglaan,Burgemeester van Waninglaan,9351LS,9351LS,29,29.0,,,,,Leek,Leek,709139.5406943463,7013760.433277101
22200000000772,22200000000772,Burg van Waninglaan,Burgemeester van Waninglaan,9351LT,9351LT,30,30.0,,,,,Leek,Leek,709110.974973539,7013516.955729744
22200000000221,22200000000221,Burg van Waninglaan,Burgemeester van Waninglaan,9351LS,9351LS,31,31.0,,,,,Leek,Leek,709135.6860432214,7013779.308298941
22200000000439,22200000000439,de Jammer,De Jammer,9359TE,9359TE,1,1.0,,,,,Boerakker,Boerakker,706070.6045653132,7018091.510785658
53200000006383,53200000006383,Burg Brouwersstraat,Burgemeester Brouwersstraat,9893PE,9893PE,1,1.0,,,,,Garnwerd,Garnwerd,722532.3001311141,7039565.161643912
53200000006384,53200000006384,Burg Brouwersstraat,Burgemeester Brouwersstraat,9893PG,9893PG,2,2.0,,,,,Garnwerd,Garnwerd,722462.3304444475,7039576.280628639
53200000006385,53200000006385,Burg Brouwersstraat,Burgemeester Brouwersstraat,9893PE,9893PE,3,3.0,,,,,Garnwerd,Garnwerd,722636.5325185696,7039610.43164725
53200000006386,53200000006386,Burg Brouwersstraat,Burgemeester Brouwersstraat,9893PG,9893PG,4,4.0,,,,,Garnwerd,Garnwerd,722509.7446373191,7039619.076727996
22200000000773,22200000000773,Burg van Waninglaan,Burgemeester van Waninglaan,9351LT,9351LT,32,32.0,,,,,Leek,Leek,709111.3362024679,7013527.965166059
53200000006387,53200000006387,Burg Brouwersstraat,Burgemeester Brouwersstraat,9893PG,9893PG,6,6.0,,,,,Garnwerd,Garnwerd,722561.3489432902,7039608.239581417
53200000006388,53200000006388,Burg Brouwersstraat,Burgemeester Brouwersstraat,9893PE,9893PE,7,7.0,,,,,Garnwerd,Garnwerd,722658.2630431296,7039611.771421234
53200000006389,53200000006389,Burg Brouwersstraat,Burgemeester Brouwersstraat,9893PG,9893PG,8,8.0,,,,,Garnwerd,Garnwerd,722586.674732562,7039626.264500088
53200000006390,53200000006390,Burg Brouwersstraat,Burgemeester Brouwersstraat,9893PE,9893PE,9,9.0,,,,,Garnwerd,Garnwerd,722667.9988329755,7039593.207450928
53200000006391,53200000006391,Burg Brouwersstraat,Burgemeester Brouwersstraat,9893PG,9893PG,10,10.0,,,,,Garnwerd,Garnwerd,722615.0069011507,7039622.4808309665
53200000006392,53200000006392,Burg Brouwersstraat,Burgemeester Brouwersstraat,9893PE,9893PE,11,11.0,,,,,Garnwerd,Garnwerd,722699.97761393,7039609.455606919
53200000006393,53200000006393,Burg Brouwersstraat,Burgemeester Brouwersstraat,9893PE,9893PE,13,13.0,,,,,Garnwerd,Garnwerd,722717.2119989663,7039644.344878039
53200000006394,53200000006394,Burg Brouwersstraat,Burgemeester Brouwersstraat,9893PG,9893PG,14,14.0,,,,,Garnwerd,Garnwerd,722641.8487599598,7039630.438144743
53200000006395,53200000006395,Burg Brouwersstraat,Burgemeester Brouwersstraat,9893PE,9893PE,15,15.0,,,,,Garnwerd,Garnwerd,722764.3715068643,7039670.403423622
22200000000440,22200000000440,de Jammer,De Jammer,9359TE,9359TE,5,5.0,,,,,Boerakker,Boerakker,706009.5604744919,7018859.440935689
53200000006396,53200000006396,Burg Brouwersstraat,Burgemeester Brouwersstraat,9893PG,9893PG,16,16.0,,,,,Garnwerd,Garnwerd,722656.9265113998,7039633.554272519
53200000006397,53200000006397,Burg Brouwersstraat,Burgemeester Brouwersstraat,9893PE,9893PE,17,17.0,,,,,Garnwerd,Garnwerd,722802.7984141527,7039671.485740496
53200000006398,53200000006398,Burg Brouwersstraat,Burgemeester Brouwersstraat,9893PG,9893PG,18,18.0,,,,,Garnwerd,Garnwerd,722665.3514441876,7039638.446746277
53200000006400,53200000006400,Burg Brouwersstraat,Burgemeester Brouwersstraat,9893PG,9893PG,20,20.0,,,,,Garnwerd,Garnwerd,722660.7525578286,7039665.301949031
53200000006401,53200000006401,Burg Brouwersstraat,Burgemeester Brouwersstraat,9893PG,9893PG,22,22.0,,,,,Garnwerd,Garnwerd,722683.9222102005,7039651.553255096
53200000006402,53200000006402,Burg Brouwersstraat,Burgemeester Brouwersstraat,9893PG,9893PG,24,24.0,,,,,Garnwerd,Garnwerd,722694.2730878424,7039673.156389522
53200000006403,53200000006403,Burg Brouwersstraat,Burgemeester Brouwersstraat,9893PG,9893PG,26,26.0,,,,,Garnwerd,Garnwerd,722726.1240605116,7039681.036394637
53200000006404,53200000006404,Burg Brouwersstraat,Burgemeester Brouwersstraat,9893PG,9893PG,28,28.0,,,,,Garnwerd,Garnwerd,722756.6644643965,7039712.373001584
53200000006405,53200000006405,Burg Brouwersstraat,Burgemeester Brouwersstraat,9893PG,9893PG,30,30.0,,,,,Garnwerd,Garnwerd,722734.5715557806,7039796.415593251
22200000000222,22200000000222,Burg van Waninglaan,Burgemeester van Waninglaan,9351LS,9351LS,33,33.0,,,,,Leek,Leek,709133.6783018729,7013789.564562685
53200000006406,53200000006406,Burg Brouwersstraat,Burgemeester Brouwersstraat,9893PG,9893PG,32,32.0,,,,,Garnwerd,Garnwerd,722728.3544350752,7039826.644399523
53200000006407,53200000006407,Burg Brouwersstraat,Burgemeester Brouwersstraat,9893PG,9893PG,34,34.0,,,,,Garnwerd,Garnwerd,722711.8629776038,7039840.290743845
53200000006408,53200000006408,Burg Brouwersstraat,Burgemeester Brouwersstraat,9893PG,9893PG,36,36.0,,,,,Garnwerd,Garnwerd,722702.4089417764,7039877.265805795
53200000006409,53200000006409,Burg Brouwersstraat,Burgemeester Brouwersstraat,9893PG,9893PG,38,38.0,,,,,Garnwerd,Garnwerd,722685.9942218439,7039895.933235845
53200000006410,53200000006410,Burg Brouwersstraat,Burgemeester Brouwersstraat,9893PG,9893PG,38,38.0,a,A,,,Garnwerd,Garnwerd,722785.7663093107,7039758.7982130125
53200000006411,53200000006411,Burg Brouwersstraat,Burgemeester Brouwersstraat,9893PG,9893PG,40,40.0,,,,,Garnwerd,Garnwerd,722801.6674792442,7039706.657925379
22200000000223,22200000000223,Burg van Waninglaan,Burgemeester van Waninglaan,9351LS,9351LS,35,35.0,,,,,Leek,Leek,709068.1199317013,7013901.710495592
22200000000224,22200000000224,Burg van Waninglaan,Burgemeester van Waninglaan,9351LS,9351LS,37,37.0,,,,,Leek,Leek,709060.4791338552,7013951.875206032
22200000000774,22200000000774,Burg van Waninglaan,Burgemeester van Waninglaan,9351LV,9351LV,38,38.0,,,,,Leek,Leek,709102.7303218566,7013556.947894456
22200000000225,22200000000225,Burg van Waninglaan,Burgemeester van Waninglaan,9351LS,9351LS,39,39.0,,,,,Leek,Leek,709112.3007060684,7013967.853506996
22200000000775,22200000000775,Burg van Waninglaan,Burgemeester van Waninglaan,9351LV,9351LV,40,40.0,,,,,Leek,Leek,709100.5921763079,7013567.405883126
22200000000776,22200000000776,Burg van Waninglaan,Burgemeester van Waninglaan,9351LV,9351LV,42,42.0,,,,,Leek,Leek,709093.1221421694,7013587.264288232
22200000000227,22200000000227,Burg van Waninglaan,Burgemeester van Waninglaan,9351LS,9351LS,43,43.0,,,,,Leek,Leek,709041.8004608204,7014047.245862139
22200000000777,22200000000777,Burg van Waninglaan,Burgemeester van Waninglaan,9351LV,9351LV,44,44.0,,,,,Leek,Leek,709090.3294645086,7013597.330796783
22200000000228,22200000000228,Burg van Waninglaan,Burgemeester van Waninglaan,9351LS,9351LS,45,45.0,,,,,Leek,Leek,709029.0754990005,7014090.806086247
22200000000778,22200000000778,Burg van Waninglaan,Burgemeester van Waninglaan,9351LV,9351LV,46,46.0,,,,,Leek,Leek,709087.7629675741,7013606.893641565
22200000000229,22200000000229,Burg van Waninglaan,Burgemeester van Waninglaan,9351LS,9351LS,47,47.0,,,,,Leek,Leek,708978.940340337,7014076.472668611
22200000000779,22200000000779,Burg van Waninglaan,Burgemeester van Waninglaan,9351LV,9351LV,48,48.0,,,,,Leek,Leek,709085.9655882155,7013617.931045651
22200000000230,22200000000230,Burg van Waninglaan,Burgemeester van Waninglaan,9351LS,9351LS,49,49.0,,,,,Leek,Leek,708944.3022525982,7014062.050856189
22200000000780,22200000000780,Burg van Waninglaan,Burgemeester van Waninglaan,9351LV,9351LV,50,50.0,,,,,Leek,Leek,709083.9117534958,7013628.471386395
22200000000231,22200000000231,Burgemeester v Waningln,Burgemeester van Waninglaan,9351LS,9351LS,51,51.0,,,,,Leek,Leek,708905.481618043,7014060.788656631
22200000000645,22200000000645,Beetke van Rasquertstr,Beetke van Rasquertstraat,9351JA,9351JA,1,1.0,,,,,Leek,Leek,709924.2134569633,7012401.834191945
22200000000781,22200000000781,Burg van Waninglaan,Burgemeester van Waninglaan,9351LV,9351LV,52,52.0,,,,,Leek,Leek,709081.8547356754,7013638.778177587
22200000000647,22200000000647,Beetke van Rasquertstr,Beetke van Rasquertstraat,9351JA,9351JA,3,3.0,,,,,Leek,Leek,709912.736633025,7012399.434692856
22200000000782,22200000000782,Burg van Waninglaan,Burgemeester van Waninglaan,9351LV,9351LV,54,54.0,,,,,Leek,Leek,709076.4855866454,7013656.455499037
22200000000648,22200000000648,Beetke van Rasquertstr,Beetke van Rasquertstraat,9351JA,9351JA,5,5.0,,,,,Leek,Leek,709892.1728202105,7012392.19529028
22200000000783,22200000000783,Burg van Waninglaan,Burgemeester van Waninglaan,9351LV,9351LV,56,56.0,,,,,Leek,Leek,709074.9055193075,7013666.338648155
22200000000649,22200000000649,Beetke van Rasquertstr,Beetke van Rasquertstraat,9351JA,9351JA,7,7.0,,,,,Leek,Leek,709881.3693417158,7012390.10680083
22200000000784,22200000000784,Burg van Waninglaan,Burgemeester van Waninglaan,9351LV,9351LV,62,62.0,,,,,Leek,Leek,709068.6569215736,7013696.459315382
22200000000650,22200000000650,Beetke van Rasquertstr,Beetke van Rasquertstraat,9351JA,9351JA,9,9.0,,,,,Leek,Leek,709859.9972551401,7012382.785027024
22200000000785,22200000000785,Burg van Waninglaan,Burgemeester van Waninglaan,9351LV,9351LV,64,64.0,,,,,Leek,Leek,709066.9320439879,7013706.711589837
22200000000651,22200000000651,Beetke van Rasquertstr,Beetke van Rasquertstraat,9351JA,9351JA,11,11.0,,,,,Leek,Leek,709849.3346899693,7012380.654516238
22200000000206,22200000000206,Burg van Waninglaan,Burgemeester van Waninglaan,9351LR,9351LR,1,1.0,,,,,Leek,Leek,709214.1587052629,7013340.949552488
22200000000901,22200000000901,Burg van Waninglaan,Burgemeester van Waninglaan,9351LV,9351LV,66,66.0,,,,,Leek,Leek,709052.522131413,7013741.382527402
22200000000758,22200000000758,Burg van Waninglaan,Burgemeester van Waninglaan,9351LT,9351LT,2,2.0,,,,,Leek,Leek,709167.2600221086,7013236.251179769
22200000000902,22200000000902,Burg van Waninglaan,Burgemeester van Waninglaan,9351LV,9351LV,68,68.0,,,,,Leek,Leek,709049.7593036857,7013753.651408878
22200000000652,22200000000652,Beetke van Rasquertstr,Beetke van Rasquertstraat,9351JA,9351JA,13,13.0,,,,,Leek,Leek,709811.0353865033,7012396.827563154
22200000000207,22200000000207,Burg van Waninglaan,Burgemeester van Waninglaan,9351LR,9351LR,3,3.0,,,,,Leek,Leek,709211.8553956177,7013351.242698355
22200000000903,22200000000903,Burg van Waninglaan,Burgemeester van Waninglaan,9351LW,9351LW,70,70.0,,,,,Leek,Leek,708975.4187815782,7013866.383328081
22200000000759,22200000000759,Burg van Waninglaan,Burgemeester van Waninglaan,9351LT,9351LT,4,4.0,,,,,Leek,Leek,709164.5237825881,7013248.001727478
22200000000904,22200000000904,Burg van Waninglaan,Burgemeester van Waninglaan,9351LW,9351LW,72,72.0,,,,,Leek,Leek,708969.6297183253,7013881.363568206
22200000000653,22200000000653,Beetke van Rasquertstr,Beetke van Rasquertstraat,9351JA,9351JA,13,13.0,,,I,I,Leek,Leek,709809.0853952819,7012406.957999791
22200000000655,22200000000655,Beetke van Rasquertstr,Beetke van Rasquertstraat,9351JA,9351JA,15,15.0,,,,,Leek,Leek,709804.9235592517,7012425.84277344
22200000000905,22200000000905,Burg van Waninglaan,Burgemeester van Waninglaan,9351LW,9351LW,74,74.0,,,,,Leek,Leek,708954.8548483164,7013896.583352638
22200000000654,22200000000654,Beetke van Rasquertstr,Beetke van Rasquertstraat,9351JA,9351JA,15,15.0,,,I,I,Leek,Leek,709803.125222186,7012436.475005375
22200000000906,22200000000906,Burg van Waninglaan,Burgemeester van Waninglaan,9351LW,9351LW,76,76.0,,,,,Leek,Leek,708955.0589052377,7013911.598601098
22200000000657,22200000000657,Beetke van Rasquertstr,Beetke van Rasquertstraat,9351JA,9351JA,17,17.0,,,,,Leek,Leek,709798.9012487862,7012454.835162159
22200000000907,22200000000907,Burg van Waninglaan,Burgemeester van Waninglaan,9351LW,9351LW,78,78.0,,,,,Leek,Leek,708970.1059157089,7013916.3991242135
22200000000908,22200000000908,Burg van Waninglaan,Burgemeester van Waninglaan,9351LW,9351LW,80,80.0,,,,,Leek,Leek,708986.8399569665,7013922.845251919
22200000000656,22200000000656,Beetke van Rasquertstr,Beetke van Rasquertstraat,9351JA,9351JA,17,17.0,,,I,I,Leek,Leek,709796.9581691152,7012465.350967831
22200000000909,22200000000909,Burg van Waninglaan,Burgemeester van Waninglaan,9351LW,9351LW,82,82.0,,,,,Leek,Leek,709000.5991751957,7013929.64903986
22200000000658,22200000000658,Beetke van Rasquertstr,Beetke van Rasquertstraat,9351JB,9351JB,19,19.0,,,,,Leek,Leek,709608.659488129,7012334.597693668
22200000000910,22200000000910,Burg van Waninglaan,Burgemeester van Waninglaan,9351LW,9351LW,84,84.0,,,,,Leek,Leek,708983.3336779948,7014005.342774223
22200000000659,22200000000659,Beetke van Rasquertstr,Beetke van Rasquertstraat,9351JB,9351JB,21,21.0,,,,,Leek,Leek,709598.909107333,7012332.345890033
22200000000911,22200000000911,Burg van Waninglaan,Burgemeester van Waninglaan,9351LW,9351LW,86,86.0,,,,,Leek,Leek,708966.3147164487,7014004.891062901
22200000000660,22200000000660,Beetke van Rasquertstr,Beetke van Rasquertstraat,9351JB,9351JB,23,23.0,,,,,Leek,Leek,709588.637191727,7012329.68415146
22200000000661,22200000000661,Beetke van Rasquertstr,Beetke van Rasquertstraat,9351JB,9351JB,25,25.0,,,,,Leek,Leek,709578.2228176538,7012327.558227808
22200000000662,22200000000662,Beetke van Rasquertstr,Beetke van Rasquertstraat,9351JB,9351JB,27,27.0,,,,,Leek,Leek,709558.4462700856,7012332.1007627295
22200000000663,22200000000663,Beetke van Rasquertstr,Beetke van Rasquertstraat,9351JB,9351JB,29,29.0,,,,,Leek,Leek,709548.0282542618,7012329.707913731
22200000000664,22200000000664,Beetke van Rasquertstr,Beetke van Rasquertstraat,9351JB,9351JB,31,31.0,,,,,Leek,Leek,709537.7433646978,7012327.31322438
22200000000665,22200000000665,Beetke van Rasquertstr,Beetke van Rasquertstraat,9351JB,9351JB,33,33.0,,,,,Leek,Leek,709527.7431842521,7012325.048082126
22200000000666,22200000000666,Beetke van Rasquertstr,Beetke van Rasquertstraat,9351JB,9351JB,35,35.0,,,,,Leek,Leek,709507.0329501922,7012329.469837015
22200000000667,22200000000667,Beetke van Rasquertstr,Beetke van Rasquertstraat,9351JB,9351JB,37,37.0,,,,,Leek,Leek,709496.6167751801,7012327.21036447
22200000000668,22200000000668,Beetke van Rasquertstr,Beetke van Rasquertstraat,9351JB,9351JB,39,39.0,,,,,Leek,Leek,709486.4650239457,7012324.813783101
22200000000669,22200000000669,Beetke van Rasquertstr,Beetke van Rasquertstraat,9351JB,9351JB,41,41.0,,,,,Leek,Leek,709475.9193846381,7012322.822996687
22200000000670,22200000000670,Beetke van Rasquertstr,Beetke van Rasquertstraat,9351JB,9351JB,43,43.0,,,,,Leek,Leek,709372.5822505282,7012293.5426460095
53200000007899,53200000007899,Hunzeweg,Hunzeweg,9893PA,9893PA,27,27.0,a,A,,,Garnwerd,Garnwerd,722621.433915358,7039496.831301178
53200000142148,53200000142148,Hunzeweg,Hunzeweg,9893PD,9893PD,38,38.0,a,A,,,Garnwerd,Garnwerd,722994.4304239897,7039543.737314308
22200000000671,22200000000671,Beetke van Rasquertstr,Beetke van Rasquertstraat,9351JB,9351JB,45,45.0,,,,,Leek,Leek,709363.3035909592,7012291.701186427
22200000000672,22200000000672,Beetke van Rasquertstr,Beetke van Rasquertstraat,9351JB,9351JB,47,47.0,,,,,Leek,Leek,709342.4573423212,7012293.471702275
53200000008442,53200000008442,Krassumerstraat,Krassumerstraat,9893PJ,9893PJ,14,14.0,a,A,,,Garnwerd,Garnwerd,722775.0356338402,7039494.467723434
53200000009208,53200000009208,Nieuwestreek,Nieuwestreek,9891AA,9891AA,1,1.0,a,A,,,Ezinge,Ezinge,717063.0118826281,7040244.982536879
53200000009381,53200000009381,Oldijk,Oldijk,9891TB,9891TB,5,5.0,a,A,,,Ezinge,Ezinge,716421.3239867755,7037117.650591351
53200000009634,53200000009634,Oosterweg,Oosterweg,9892PJ,9892PJ,22,22.0,c,C,,,Feerwerd,Feerwerd,719970.0658282819,7040091.277156352
53200000009649,53200000009649,Oostumerweg,Oostumerweg,9893TB,9893TB,11,11.0,a,A,,,Garnwerd,Garnwerd,721975.6926165399,7035364.656129949
53200000009663,53200000009663,Oostumerweg,Oostumerweg,9893TB,9893TB,29,29.0,b,B,,,Garnwerd,Garnwerd,723116.6860352278,7033473.427030208
53200000010046,53200000010046,Rakenstraat,Rakenstraat,9893PL,9893PL,1,1.0,a,A,,,Garnwerd,Garnwerd,722905.3675361867,7039281.539158366
53200000010440,53200000010440,Schoorsterweg,Schoorsterweg,9891AR,9891AR,4,4.0,a,A,,,Ezinge,Ezinge,717163.6962149957,7040620.193607659
53200000010441,53200000010441,Schoorsterweg,Schoorsterweg,9891AR,9891AR,4,4.0,b,B,,,Ezinge,Ezinge,717161.8550117628,7040608.501154231
53200000010442,53200000010442,Schoorsterweg,Schoorsterweg,9891AR,9891AR,4,4.0,c,C,,,Ezinge,Ezinge,717161.7326097661,7040600.131883909
53200000010443,53200000010443,Schoorsterweg,Schoorsterweg,9891AR,9891AR,4,4.0,d,D,,,Ezinge,Ezinge,717159.8914141115,7040588.439459062
53200000010444,53200000010444,Schoorsterweg,Schoorsterweg,9891AR,9891AR,4,4.0,e,E,,,Ezinge,Ezinge,717158.0747034039,7040578.4208992245
53200000010445,53200000010445,Schoorsterweg,Schoorsterweg,9891AR,9891AR,4,4.0,f,F,,,Ezinge,Ezinge,717173.0542191709,7040574.852342841
53200000010446,53200000010446,Schoorsterweg,Schoorsterweg,9891AR,9891AR,4,4.0,g,G,,,Ezinge,Ezinge,717183.0487171272,7040573.0312397005
53200000010447,53200000010447,Schoorsterweg,Schoorsterweg,9891AR,9891AR,4,4.0,h,H,,,Ezinge,Ezinge,717194.7130401384,7040571.185578635
53200000010448,53200000010448,Schoorsterweg,Schoorsterweg,9891AR,9891AR,4,4.0,i,I,,,Ezinge,Ezinge,717204.9524211279,7040586.1029331
53200000010449,53200000010449,Schoorsterweg,Schoorsterweg,9891AR,9891AR,4,4.0,j,J,,,Ezinge,Ezinge,717204.7320177201,7040571.038296116
53200000010450,53200000010450,Schoorsterweg,Schoorsterweg,9891AR,9891AR,4,4.0,k,K,,,Ezinge,Ezinge,717178.5044185666,7040604.908034603
53200000010451,53200000010451,Schoorsterweg,Schoorsterweg,9891AR,9891AR,4,4.0,l,L,,,Ezinge,Ezinge,717180.3701294902,7040618.27433561
22200000007851,22200000007851,Ericalaan,Polderweg,9828PH,9828PV,20,15.0,,,,,Oostwold,Oostwold,717280.6281061687,7020332.38026742
22200000006191,22200000006191,Meester J Tuintjerstraat,Meester J. Tuintjerstraat,9356BK,9356BK,33,33.0,,,,,Tolbert,Tolbert,707660.654119664,7014830.303923507
22200000006192,22200000006192,Meester J Tuintjerstraat,Meester J. Tuintjerstraat,9356BK,9356BK,35,35.0,,,,,Tolbert,Tolbert,707660.721343096,7014835.309595717
22200000006187,22200000006187,Meester J Tuintjerstraat,Meester J. Tuintjerstraat,9356BK,9356BK,25,25.0,,,,,Tolbert,Tolbert,707667.1105423708,7014815.197074857
22200000006190,22200000006190,Meester J Tuintjerstraat,Meester J. Tuintjerstraat,9356BK,9356BK,31,31.0,,,,,Tolbert,Tolbert,707663.9383551651,7014826.921885655
22200000006188,22200000006188,Meester J Tuintjerstraat,Meester J. Tuintjerstraat,9356BK,9356BK,27,27.0,,,,,Tolbert,Tolbert,707666.1644893981,7014819.131655067
22200000006189,22200000006189,Meester J Tuintjerstraat,Meester J. Tuintjerstraat,9356BK,9356BK,29,29.0,,,,,Tolbert,Tolbert,707665.5580630865,7014823.562311112
22200000009746,22200000009746,Mr Boonstraplantsoen,Meester Boonstraplantsoen,9356AH,9356AH,4,4.0,,,,,Tolbert,Tolbert,708302.6982131605,7014752.88573998
22200000005863,22200000005863,Mr Boonstraplantsoen,Meester Boonstraplantsoen,9356AH,9356AH,5,5.0,,,,,Tolbert,Tolbert,708236.577066518,7014699.016758555
22200000003300,22200000003300,Mr Boonstraplantsoen,Meester Boonstraplantsoen,9356AH,9356AH,7,7.0,,,,,Tolbert,Tolbert,708240.9623090685,7014653.898891649
22200000003301,22200000003301,Mr Boonstraplantsoen,Meester Boonstraplantsoen,9356AH,9356AH,9,9.0,,,,,Tolbert,Tolbert,708240.8271438332,7014643.887787701
22200000007454,22200000007454,Meester Boonstraplnts,Meester Boonstraplantsoen,9356AH,9356AH,10,10.0,,,,,Tolbert,Tolbert,708335.6732369118,7014707.431100605
22200000005901,22200000005901,Mr Boonstraplantsoen,Meester Boonstraplantsoen,9356AH,9356AH,11,11.0,,,,,Tolbert,Tolbert,708243.7956651197,7014617.146406651
53200000011808,53200000011808,Zijlsterweg,Zijlsterweg,9892TE,9892TE,1,1.0,a,A,,,Feerwerd,Feerwerd,719889.3117327528,7041949.29743386
22200000008217,22200000008217,Meester J Tuintjerstraat,Meester J. Tuintjerstraat,9356BK,9356BK,1,1.0,,,,,Tolbert,Tolbert,707891.6414165004,7014798.812961769
22200000008277,22200000008277,Meester J Tuintjerstraat,Meester J. Tuintjerstraat,9356BK,9356BK,2,2.0,,,,,Tolbert,Tolbert,707895.8489969872,7014740.346408127
22200000008218,22200000008218,Meester J Tuintjerstraat,Meester J. Tuintjerstraat,9356BK,9356BK,3,3.0,,,,,Tolbert,Tolbert,707879.9448776915,7014795.633424644
22200000008278,22200000008278,Meester J Tuintjerstraat,Meester J. Tuintjerstraat,9356BK,9356BK,4,4.0,,,,,Tolbert,Tolbert,707887.5040084858,7014738.790419721
22200000008219,22200000008219,Meester J Tuintjerstraat,Meester J. Tuintjerstraat,9356BK,9356BK,5,5.0,,,,,Tolbert,Tolbert,707861.5678280325,7014790.87534108
22200000008279,22200000008279,Meester J Tuintjerstraat,Meester J. Tuintjerstraat,9356BK,9356BK,6,6.0,,,,,Tolbert,Tolbert,707877.4720645464,7014735.588393173
22200000008220,22200000008220,Meester J Tuintjerstraat,Meester J. Tuintjerstraat,9356BK,9356BK,7,7.0,,,,,Tolbert,Tolbert,707849.8937594111,7014789.3643106
22200000008280,22200000008280,Meester J Tuintjerstraat,Meester J. Tuintjerstraat,9356BK,9356BK,8,8.0,,,,,Tolbert,Tolbert,707859.0951536994,7014730.830338744
22200000003297,22200000003297,Mr Boonstraplantsoen,Meester Boonstraplantsoen,9356AH,9356AH,1,1.0,,,,,Tolbert,Tolbert,708232.1692496692,7014742.466338327
22200000008221,22200000008221,Meester J Tuintjerstraat,Meester J. Tuintjerstraat,9356BK,9356BK,9,9.0,,,,,Tolbert,Tolbert,707831.5167416071,7014784.606161582
22200000006031,22200000006031,Mr Boonstraplantsoen,Meester Boonstraplantsoen,9356AH,9356AH,2,2.0,,,,,Tolbert,Tolbert,708288.3179567275,7014760.310373747
22200000008281,22200000008281,Meester J Tuintjerstraat,Meester J. Tuintjerstraat,9356BK,9356BK,10,10.0,,,,,Tolbert,Tolbert,707852.4146866745,7014729.25181237
22200000008222,22200000008222,Meester J Tuintjerstraat,Meester J. Tuintjerstraat,9356BK,9356BK,11,11.0,,,,,Tolbert,Tolbert,707823.8567450957,7014773.329808301
22200000008282,22200000008282,Meester J Tuintjerstraat,Meester J. Tuintjerstraat,9356BK,9356BK,12,12.0,,,,,Tolbert,Tolbert,707844.0697179236,7014727.695780723
22200000003298,22200000003298,Mr Boonstraplantsoen,Meester Boonstraplantsoen,9356AH,9356AH,3,3.0,,,,,Tolbert,Tolbert,708233.5183869242,7014719.084277954
22200000008223,22200000008223,Meester J Tuintjerstraat,Meester J. Tuintjerstraat,9356BK,9356BK,13,13.0,,,,,Tolbert,Tolbert,707794.8076416524,7014778.426835779
22200000008224,22200000008224,Meester J Tuintjerstraat,Meester J. Tuintjerstraat,9356BK,9356BK,15,15.0,,,,,Tolbert,Tolbert,707784.8878515493,7014783.567406998
22200000008225,22200000008225,Meester J Tuintjerstraat,Meester J. Tuintjerstraat,9356BK,9356BK,17,17.0,,,,,Tolbert,Tolbert,707763.765136095,7014788.06325782
22200000008226,22200000008226,Meester J Tuintjerstraat,Meester J. Tuintjerstraat,9356BK,9356BK,19,19.0,,,,,Tolbert,Tolbert,707756.7704967082,7014797.298035137
53200000011307,53200000011307,van Swinderenweg,van Swinderenweg,9891TA,9891TA,26,26.0,c,C,,,Ezinge,Ezinge,716192.6864022948,7040461.961858913
53200000011306,53200000011306,van Swinderenweg,van Swinderenweg,9891TA,9891TA,26,26.0,b,B,,,Ezinge,Ezinge,716248.6584095026,7040405.898088081
22200000007764,22200000007764,Thomas A. Verdeniusstr,Thomas A. Verdeniusstraat,9356AL,9356AL,2,2.0,,,,,Tolbert,Tolbert,708198.3964971846,7014747.864201429
22200000007765,22200000007765,Thomas A. Verdeniusstr,Thomas A. Verdeniusstraat,9356AL,9356AL,4,4.0,,,,,Tolbert,Tolbert,708188.043262032,7014748.004602588
22200000007766,22200000007766,Thomas A. Verdeniusstr,Thomas A. Verdeniusstraat,9356AL,9356AL,6,6.0,,,,,Tolbert,Tolbert,708177.823187054,7014748.143184804
22200000007767,22200000007767,Thomas A. Verdeniusstr,Thomas A. Verdeniusstraat,9356AL,9356AL,8,8.0,,,,,Tolbert,Tolbert,708167.4679249383,7014748.1333909305
22200000007768,22200000007768,Thomas A. Verdeniusstr,Thomas A. Verdeniusstraat,9356AL,9356AL,10,10.0,,,,,Tolbert,Tolbert,708157.3956290586,7014748.119747585
22200000007769,22200000007769,Thomas A Verdeniusstraat,Thomas A. Verdeniusstraat,9356AL,9356AL,12,12.0,,,,,Tolbert,Tolbert,708147.0464441691,7014748.5604325915
22200000007770,22200000007770,Thomas A. Verdeniusstr,Thomas A. Verdeniusstraat,9356AL,9356AL,14,14.0,,,,,Tolbert,Tolbert,708124.1958980442,7014747.992334849
22200000007771,22200000007771,Thomas A. Verdeniusstr,Thomas A. Verdeniusstraat,9356AL,9356AL,16,16.0,,,,,Tolbert,Tolbert,708113.9530804862,7014748.0493703745
22200000007772,22200000007772,Thomas A. Verdeniusstr,Thomas A. Verdeniusstraat,9356AL,9356AL,18,18.0,,,,,Tolbert,Tolbert,708103.7928594825,7014748.429029202
22200000004751,22200000004751,Thomas A Verdeniusstraat,Thomas A. Verdeniusstraat,9356AL,9356AL,19,19.0,,,,,Tolbert,Tolbert,707993.4104299126,7014785.103234085
53200000012219,53200000012219,Mentaweg,Mentaweg,9892TA,9892TA,1,1.0,b,B,,,Feerwerd,Feerwerd,719709.7884013354,7039678.861258692
22200000007773,22200000007773,Thomas A Verdeniusstraat,Thomas A. Verdeniusstraat,9356AL,9356AL,20,20.0,,,,,Tolbert,Tolbert,708092.5925222853,7014748.714292423
22200000007774,22200000007774,Thomas A. Verdeniusstr,Thomas A. Verdeniusstraat,9356AL,9356AL,22,22.0,,,,,Tolbert,Tolbert,708083.5043096179,7014748.837419034
22200000007775,22200000007775,Thomas A. Verdeniusstr,Thomas A. Verdeniusstraat,9356AL,9356AL,24,24.0,,,,,Tolbert,Tolbert,708072.7311198335,7014748.699656886
22200000007776,22200000007776,Thomas A Verdeniusstraat,Thomas A. Verdeniusstraat,9356AL,9356AL,34,34.0,,,,,Tolbert,Tolbert,707976.4774519748,7014720.202452969
53200000019462,53200000019462,Burg Brouwersstraat,Burgemeester Brouwersstraat,9893PG,9893PG,10,10.0,a,A,,,Garnwerd,Garnwerd,722599.0278538995,7039669.599291844
53200000009633,53200000009633,Oosterweg,Oosterweg,9892PJ,9892PJ,22,22.0,a,A,,,Feerwerd,Feerwerd,719924.2819067336,7040045.090876825
53200000018832,53200000018832,Allersmaweg,Allersmaweg,9891TD,9891TD,52,52.0,a,A,,,Ezinge,Ezinge,717896.0808205118,7040904.064502072
53200000006560,53200000006560,De Akkerstraat,De Akkerstraat,9893PS,9893PS,2,2.0,a,A,,,Garnwerd,Garnwerd,723024.8540465662,7039124.02051017
53200000018880,53200000018880,van Swinderenweg,van Swinderenweg,9891TA,9891TA,26,26.0,d,D,,,Ezinge,Ezinge,716175.2600649443,7040411.990506732
53200000018838,53200000018838,Nieuwestreek,Nieuwestreek,9891AC,9891AC,79,79.0,a,A,,,Ezinge,Ezinge,717556.2521333836,7039599.9034106005
53200000142045,53200000142045,Meedenerweg,Meedenerweg,9892PA,9892PA,3,3.0,a,A,,,Feerwerd,Feerwerd,719573.8453139524,7039478.391541137
53200000142127,53200000142127,Meedenerweg,Meedenerweg,9892PA,9892PA,3,3.0,b,B,,,Feerwerd,Feerwerd,719559.683890399,7039479.055880836
53200000142129,53200000142129,Meedenerweg,Meedenerweg,9892PA,9892PA,3,3.0,d,D,,,Feerwerd,Feerwerd,719529.6283359887,7039482.559858935
53200000142128,53200000142128,Meedenerweg,Meedenerweg,9892PA,9892PA,3,3.0,c,C,,,Feerwerd,Feerwerd,719546.5855525384,7039475.981312691
53200000142284,53200000142284,Torensmaweg,Torensmaweg,9892TD,9892TD,2,2.0,a,A,,,Feerwerd,Feerwerd,721467.1583968251,7040267.388817366
22200000000433,22200000000433,Weth Appelhofplantsoen,Wethouder Appelhofplantsoen,9354AA,9354AA,15,15.0,,,,,Zevenhuizen,Zevenhuizen,706625.562622146,7005729.027653743
22200000000434,22200000000434,Wethouder Appelhofplnts,Wethouder Appelhofplantsoen,9354AB,9354AB,16,16.0,,,,,Zevenhuizen,Zevenhuizen,706533.4987179855,7005795.741370241
22200000000419,22200000000419,Wethouder Appelhofplnts,Wethouder Appelhofplantsoen,9354AA,9354AA,1,1.0,,,,,Zevenhuizen,Zevenhuizen,706665.056259198,7005909.842535066
22200000000435,22200000000435,Weth Appelhofplantsoen,Wethouder Appelhofplantsoen,9354AA,9354AA,17,17.0,,,,,Zevenhuizen,Zevenhuizen,706613.8981479529,7005694.710445276
22200000000436,22200000000436,Weth Appelhofplantsoen,Wethouder Appelhofplantsoen,9354AB,9354AB,18,18.0,,,,,Zevenhuizen,Zevenhuizen,706518.11039547,7005777.138127244
22200000000437,22200000000437,Weth Appelhofplantsoen,Wethouder Appelhofplantsoen,9354AA,9354AA,19,19.0,,,,,Zevenhuizen,Zevenhuizen,706601.8314770752,7005652.647357512
22200000000420,22200000000420,Weth Appelhofplantsoen,Wethouder Appelhofplantsoen,9354AB,9354AB,2,2.0,,,,,Zevenhuizen,Zevenhuizen,706595.2783634668,7005952.810462152
22200000004750,22200000004750,Thomas A Verdeniusstraat,Thomas A. Verdeniusstraat,9356AL,9356AL,17,17.0,,,,,Tolbert,Tolbert,707979.9074812372,7014796.133536647
22200000000438,22200000000438,Weth Appelhofplantsoen,Wethouder Appelhofplantsoen,9354AB,9354AB,20,20.0,,,,,Zevenhuizen,Zevenhuizen,706518.6740065782,7005745.704599081
22200000006649,22200000006649,Thomas A Verdeniusstraat,Thomas A. Verdeniusstraat,9356AL,9356AL,21,21.0,,,,,Tolbert,Tolbert,707990.8257944911,7014798.38890426
22200000000421,22200000000421,Weth Appelhofplantsoen,Wethouder Appelhofplantsoen,9354AA,9354AA,3,3.0,,,,,Zevenhuizen,Zevenhuizen,706654.137803258,7005877.008282459
22200000000422,22200000000422,Wethouder Appelhofplnts,Wethouder Appelhofplantsoen,9354AB,9354AB,4,4.0,,,,,Zevenhuizen,Zevenhuizen,706564.8404525595,7005914.875487534
22200000000423,22200000000423,Weth Appelhofplantsoen,Wethouder Appelhofplantsoen,9354AA,9354AA,5,5.0,,,,,Zevenhuizen,Zevenhuizen,706652.2091258384,7005857.029970838
22200000000424,22200000000424,Weth Appelhofplantsoen,Wethouder Appelhofplantsoen,9354AB,9354AB,6,6.0,,,,,Zevenhuizen,Zevenhuizen,706549.5883867007,7005893.407947539
22200000000425,22200000000425,Weth Appelhofplantsoen,Wethouder Appelhofplantsoen,9354AA,9354AA,7,7.0,,,,,Zevenhuizen,Zevenhuizen,706643.6076149993,7005835.473880182
22200000000426,22200000000426,Weth Appelhofplantsoen,Wethouder Appelhofplantsoen,9354AB,9354AB,8,8.0,,,,,Zevenhuizen,Zevenhuizen,706531.0996140145,7005878.651679025
22200000000427,22200000000427,Weth Appelhofplantsoen,Wethouder Appelhofplantsoen,9354AA,9354AA,9,9.0,,,,,Zevenhuizen,Zevenhuizen,706634.9839876075,7005812.251137632
22200000000428,22200000000428,Weth Appelhofplantsoen,Wethouder Appelhofplantsoen,9354AB,9354AB,10,10.0,,,,,Zevenhuizen,Zevenhuizen,706534.048554692,7005850.273202253
22200000000429,22200000000429,Weth Appelhofplantsoen,Wethouder Appelhofplantsoen,9354AA,9354AA,11,11.0,,,,,Zevenhuizen,Zevenhuizen,706629.6192448009,7005783.983938621
22200000000431,22200000000431,Weth Appelhofplantsoen,Wethouder Appelhofplantsoen,9354AA,9354AA,13,13.0,,,,,Zevenhuizen,Zevenhuizen,706625.9171929464,7005755.694620351
22200000000432,22200000000432,Weth Appelhofplantsoen,Wethouder Appelhofplantsoen,9354AB,9354AB,14,14.0,,,,,Zevenhuizen,Zevenhuizen,706530.1696781775,7005808.650000208
22200000000226,22200000000226,Burgemeester v Waningln,Burgemeester van Waninglaan,9351LS,9351LS,41,41.0,,,,,Leek,Leek,709052.7701609655,7013997.035080135
22200000000646,22200000000646,Beetke van Rasquertstr,Beetke van Rasquertstraat,9351JA,9351JA,2,2.0,,,,,Leek,Leek,709419.9615240655,7012238.405302396
22200000004749,22200000004749,Thomas A Verdeniusstraat,Thomas A. Verdeniusstraat,9356AL,9356AL,15,15.0,,,,,Tolbert,Tolbert,707982.6142686775,7014783.263433116
22200000004745,22200000004745,Thomas A Verdeniusstraat,Thomas A. Verdeniusstraat,9356AL,9356AL,1,1.0,,,,,Tolbert,Tolbert,708119.5678887283,7014787.38310889
22200000004746,22200000004746,Thomas A Verdeniusstraat,Thomas A. Verdeniusstraat,9356AL,9356AL,3,3.0,,,,,Tolbert,Tolbert,708111.2228090011,7014785.827345111
22200000004747,22200000004747,Thomas A Verdeniusstraat,Thomas A. Verdeniusstraat,9356AL,9356AL,5,5.0,,,,,Tolbert,Tolbert,708087.9420886488,7014787.811636179
22200000004748,22200000004748,Thomas A Verdeniusstraat,Thomas A. Verdeniusstraat,9356AL,9356AL,7,7.0,,,,,Tolbert,Tolbert,708077.9100046413,7014784.609842062
22200000006181,22200000006181,Meester J Tuintjerstraat,Meester J. Tuintjerstraat,9356BK,9356BK,14,14.0,,,,,Tolbert,Tolbert,707688.1217658265,7014768.185656176
22200000006182,22200000006182,Meester J Tuintjerstraat,Meester J. Tuintjerstraat,9356BK,9356BK,16,16.0,,,,,Tolbert,Tolbert,707676.4253509322,7014765.005833137
22200000000430,22200000000430,Weth Appelhofplantsoen,Wethouder Appelhofplantsoen,9354AB,9354AB,12,12.0,,,,,Zevenhuizen,Zevenhuizen,706537.1081879289,7005830.22833906
22200000006184,22200000006184,Meester J Tuintjerstraat,Meester J. Tuintjerstraat,9356BK,9356BK,20,20.0,,,,,Tolbert,Tolbert,707633.0360089751,7014757.247094939
22200000006183,22200000006183,Meester J Tuintjerstraat,Meester J. Tuintjerstraat,9356BK,9356BK,18,18.0,,,,,Tolbert,Tolbert,707643.0230760593,7014757.112352425
22200000006186,22200000006186,Meester J Tuintjerstraat,Meester J. Tuintjerstraat,9356BK,9356BK,23,23.0,,,,,Tolbert,Tolbert,707728.7875767464,7014821.03991036
22200000006185,22200000006185,Meester J Tuintjerstraat,Meester J. Tuintjerstraat,9356BK,9356BK,21,21.0,,,,,Tolbert,Tolbert,707738.7074491233,7014815.899384518
22200000005111,22200000005111,Weth Appelhofplantsoen,Wethouder Appelhofplantsoen,9354AB,9354AB,16,16.0,a,a,,,Zevenhuizen,Zevenhuizen,706523.7046036419,7005796.920647799
22200000006230,22200000006230,Thomas A Verdeniusstraat,Thomas A. Verdeniusstraat,9356AL,9356AL,26,26.0,,,,,Tolbert,Tolbert,708020.7094565122,7014740.325672488
22200000006231,22200000006231,Thomas A Verdeniusstraat,Thomas A. Verdeniusstraat,9356AL,9356AL,28,28.0,,,,,Tolbert,Tolbert,708010.6999383598,7014738.792349108
22200000008978,22200000008978,Weth Appelhofplantsoen,Wethouder Appelhofplantsoen,9354AB,9354AB,16,16.0,b,b,,,Zevenhuizen,Zevenhuizen,706509.9539914348,7005800.579861476
22200000009747,22200000009747,Meester Boonstraplnts,Meester Boonstraplantsoen,9356AH,9356AH,6,6.0,,,,,Tolbert,Tolbert,708314.0468166419,7014752.361193695
22200000009748,22200000009748,Meester Boonstraplnts,Meester Boonstraplantsoen,9356AH,9356AH,6,6.0,a,a,,,Tolbert,Tolbert,708325.9893997861,7014751.810209184
22200000009749,22200000009749,Meester Boonstraplnts,Meester Boonstraplantsoen,9356AH,9356AH,6,6.0,b,b,,,Tolbert,Tolbert,708337.9618972612,7014751.255462985
22200000009750,22200000009750,Meester Boonstraplnts,Meester Boonstraplantsoen,9356AH,9356AH,6,6.0,c,c,,,Tolbert,Tolbert,708347.0560807786,7014750.834911946
22200000009751,22200000009751,Meester Boonstraplnts,Meester Boonstraplantsoen,9356AH,9356AH,6,6.0,d,d,,,Tolbert,Tolbert,708355.6444786374,7014750.43790832
22200000009752,22200000009752,Meester Boonstraplnts,Meester Boonstraplantsoen,9356AH,9356AH,6,6.0,f,f,,,Tolbert,Tolbert,708355.749884107,7014741.484801665
22200000009753,22200000009753,Meester Boonstraplnts,Meester Boonstraplantsoen,9356AH,9356AH,6,6.0,g,g,,,Tolbert,Tolbert,708354.3501315743,7014735.228967481
22200000009754,22200000009754,Meester Boonstraplnts,Meester Boonstraplantsoen,9356AH,9356AH,6,6.0,h,h,,,Tolbert,Tolbert,708344.7093946441,7014732.778198039
22200000009755,22200000009755,Meester Boonstraplnts,Meester Boonstraplantsoen,9356AH,9356AH,6,6.0,j,j,,,Tolbert,Tolbert,708333.484238283,7014733.195973631
22200000009756,22200000009756,Meester Boonstraplnts,Meester Boonstraplantsoen,9356AH,9356AH,6,6.0,k,k,,,Tolbert,Tolbert,708321.8655915752,7014730.243012127
25200000001759,25200000001759,Jakob Hansens de Boerstr,Jakob Hansens de Boerstraat,9365PL,9365PL,7,7.0,,,,,Niebert,Niebert,704431.067052753,7012799.1049664
25200000001761,25200000001761,Jakob Hansens de Boerstr,Jakob Hansens de Boerstraat,9365PL,9365PL,9,9.0,,,,,Niebert,Niebert,704442.7593396957,7012802.288774128
25200000001763,25200000001763,Jakob Hansens de Boerstr,Jakob Hansens de Boerstraat,9365PL,9365PL,11,11.0,,,,,Niebert,Niebert,704464.458084484,7012807.009981604
25200000001765,25200000001765,Jakob Hansens de Boerstr,Jakob Hansens de Boerstraat,9365PL,9365PL,13,13.0,,,,,Niebert,Niebert,704472.8656355673,7012813.573631169
25200000001767,25200000001767,Jakob Hansens de Boerstr,Jakob Hansens de Boerstraat,9365PL,9365PL,15,15.0,,,,,Niebert,Niebert,704492.9872810023,7012824.989173616
25200000001768,25200000001768,Jakob Hansens de Boerstr,Jakob Hansens de Boerstraat,9365PM,9365PM,16,16.0,,,,,Niebert,Niebert,704453.4613098202,7012857.207177952
25200000001769,25200000001769,Jakob Hansens de Boerstr,Jakob Hansens de Boerstraat,9365PL,9365PL,17,17.0,,,,,Niebert,Niebert,704498.0448819549,7012829.928247495
25200000001770,25200000001770,Jakob Hansens de Boerstr,Jakob Hansens de Boerstraat,9365PM,9365PM,18,18.0,,,,,Niebert,Niebert,704473.7134752034,7012878.631816138
25200000001771,25200000001771,Jakob Hansens de Boerstr,Jakob Hansens de Boerstraat,9365PL,9365PL,19,19.0,,,,,Niebert,Niebert,704508.1595130275,7012837.5907116495
25200000001772,25200000001772,Jakob Hansens de Boerstr,Jakob Hansens de Boerstraat,9365PM,9365PM,20,20.0,,,,,Niebert,Niebert,704492.3885850541,7012906.750937337
25200000001773,25200000001773,Jakob Hansens de Boerstr,Jakob Hansens de Boerstraat,9365PL,9365PL,21,21.0,,,,,Niebert,Niebert,704518.2101014677,7012844.680065029
25200000001774,25200000001774,Jakob Hansens de Boerstr,Jakob Hansens de Boerstraat,9365PL,9365PL,23,23.0,,,,,Niebert,Niebert,704540.0177709324,7012857.741891572
25200000001775,25200000001775,Jakob Hansens de Boerstr,Jakob Hansens de Boerstraat,9365PM,9365PM,24,24.0,,,,,Niebert,Niebert,704506.0496436894,7012933.267335038
25200000001776,25200000001776,Jakob Hansens de Boerstr,Jakob Hansens de Boerstraat,9365PL,9365PL,25,25.0,,,,,Niebert,Niebert,704540.4093330958,7012887.768840979
25200000001777,25200000001777,Jakob Hansens de Boerstr,Jakob Hansens de Boerstraat,9365PM,9365PM,26,26.0,,,,,Niebert,Niebert,704514.6965933767,7012958.181019371
25200000001778,25200000001778,Jakob Hansens de Boerstr,Jakob Hansens de Boerstraat,9365PM,9365PM,28,28.0,,,,,Niebert,Niebert,704516.7087255018,7012984.85016723
25200000001779,25200000001779,Jakob Hansens de Boerstr,Jakob Hansens de Boerstraat,9365PL,9365PL,29,29.0,,,,,Niebert,Niebert,704593.2598655783,7012983.846924882
25200000001780,25200000001780,Jakob Hansens de Boerstr,Jakob Hansens de Boerstraat,9365PM,9365PM,30,30.0,,,,,Niebert,Niebert,704524.9259889155,7013014.588193066
25200000001782,25200000001782,Jakob Hansens de Boerstr,Jakob Hansens de Boerstraat,9365PL,9365PL,33,33.0,,,,,Niebert,Niebert,704587.0385169433,7013017.297994133
25200000001783,25200000001783,Jakob Hansens de Boerstr,Jakob Hansens de Boerstraat,9365PL,9365PL,35,35.0,,,,,Niebert,Niebert,704580.5342054536,7013029.062620386
25200000001752,25200000001752,Jakob Hansens de Boerstr,Jakob Hansens de Boerstraat,9365PL,9365PL,1,1.0,,,,,Niebert,Niebert,704380.9263270355,7012783.076830564
25200000001753,25200000001753,Jakob Hansens de Boerstr,Jakob Hansens de Boerstraat,9365PL,9365PL,1,1.0,A,A,,,Niebert,Niebert,704296.881192896,7012847.576602285
25200000001754,25200000001754,Jakob Hansens de Boerstr,Jakob Hansens de Boerstraat,9365PM,9365PM,2,2.0,,,,,Niebert,Niebert,704333.926214115,7012880.46115279
25200000001755,25200000001755,Jakob Hansens de Boerstr,Jakob Hansens de Boerstraat,9365PL,9365PL,3,3.0,,,,,Niebert,Niebert,704397.6760861723,7012791.199819363
25200000001756,25200000001756,Jakob Hansens de Boerstr,Jakob Hansens de Boerstraat,9365PM,9365PM,4,4.0,,,,,Niebert,Niebert,704350.3938457535,7012866.898185106
25200000001757,25200000001757,Jakob Hansens de Boerstr,Jakob Hansens de Boerstraat,9365PL,9365PL,5,5.0,,,,,Niebert,Niebert,704411.0324649863,7012794.361894001
25200000001758,25200000001758,Jakob Hansens de Boerstr,Jakob Hansens de Boerstraat,9365PM,9365PM,6,6.0,,,,,Niebert,Niebert,704356.7897876818,7012846.793181216
25200000001766,25200000001766,Jakob Hansens de Boerstr,Jakob Hansens de Boerstraat,9365PM,9365PM,14,14.0,,,,,Niebert,Niebert,704434.9820347645,7012844.101548198
25200000001764,25200000001764,Jakob Hansens de Boerstr,Jakob Hansens de Boerstraat,9365PM,9365PM,12,12.0,,,,,Niebert,Niebert,704423.2896899983,7012840.917712864
25200000001760,25200000001760,Jakob Hansens de Boerstr,Jakob Hansens de Boerstraat,9365PM,9365PM,8,8.0,,,,,Niebert,Niebert,704393.2485289278,7012834.637099216
25200000001762,25200000001762,Jakob Hansens de Boerstr,Jakob Hansens de Boerstraat,9365PM,9365PM,10,10.0,,,,,Niebert,Niebert,704404.9408528248,7012837.820976046
56200000010092,56200000010092,Cort van der Lindenstr,Cort van der Lindenstraat,9801KN,9801KN,1,1.0,,,,,Zuidhorn,Zuidhorn,712080.9871301614,7029383.461437717
56200000010093,56200000010093,Cort van der Lindenstr,Cort van der Lindenstraat,9801KP,9801KP,2,2.0,,,,,Zuidhorn,Zuidhorn,712111.6879116248,7029312.811339954
56200000010094,56200000010094,Cort van der Lindenstr,Cort van der Lindenstraat,9801KN,9801KN,3,3.0,,,,,Zuidhorn,Zuidhorn,712069.2676937268,7029380.2823834615
56200000010095,56200000010095,Cort van der Lindenstr,Cort van der Lindenstraat,9801KP,9801KP,4,4.0,,,,,Zuidhorn,Zuidhorn,712100.0153329344,7029312.975426445
56200000010096,56200000010096,Cort van der Lindenstr,Cort van der Lindenstraat,9801KN,9801KN,5,5.0,,,,,Zuidhorn,Zuidhorn,712047.4730000108,7029372.2292511305
56200000010097,56200000010097,Cort van der Lindenstr,Cort van der Lindenstraat,9801KP,9801KP,6,6.0,,,,,Zuidhorn,Zuidhorn,712088.3193728378,7029311.467961488
56200000010098,56200000010098,Cort van der Lindenstr,Cort van der Lindenstraat,9801KN,9801KN,7,7.0,,,,,Zuidhorn,Zuidhorn,712037.4211161836,7029369.026725374
56200000010099,56200000010099,Cort van der Lindenstr,Cort van der Lindenstraat,9801KP,9801KP,8,8.0,,,,,Zuidhorn,Zuidhorn,712081.5090520929,7029301.532508329
56200000010100,56200000010100,Cort van der Lindenstr,Cort van der Lindenstraat,9801KN,9801KN,9,9.0,,,,,Zuidhorn,Zuidhorn,712015.6264845992,7029360.973517221
56200000010101,56200000010101,Cort van der Lindenstr,Cort van der Lindenstraat,9801KP,9801KP,10,10.0,,,,,Zuidhorn,Zuidhorn,712056.5197904074,7029303.555538912
56200000010102,56200000010102,Cort van der Lindenstr,Cort van der Lindenstraat,9801KN,9801KN,11,11.0,,,,,Zuidhorn,Zuidhorn,712003.9071064612,7029357.79437581
56200000010103,56200000010103,Cort van der Lindenstr,Cort van der Lindenstraat,9801KP,9801KP,12,12.0,,,,,Zuidhorn,Zuidhorn,712046.4212448327,7029297.00998793
56200000010104,56200000010104,Cort van der Lindenstr,Cort van der Lindenstraat,9801KN,9801KN,13,13.0,,,,,Zuidhorn,Zuidhorn,711958.6271424434,7029340.03961691
56200000010105,56200000010105,Cort van der Lindenstr,Cort van der Lindenstraat,9801KP,9801KP,14,14.0,,,,,Zuidhorn,Zuidhorn,712036.3694556238,7029293.807490297
56200000010106,56200000010106,Cort van der Lindenstr,Cort van der Lindenstraat,9801KN,9801KN,15,15.0,,,,,Zuidhorn,Zuidhorn,711948.4819264279,7029330.150834658
56200000010107,56200000010107,Cort van der Lindenstr,Cort van der Lindenstraat,9801KP,9801KP,16,16.0,,,,,Zuidhorn,Zuidhorn,712024.6267999291,7029288.956875358
56200000010108,56200000010108,Cort van der Lindenstr,Cort van der Lindenstraat,9801KN,9801KN,17,17.0,,,,,Zuidhorn,Zuidhorn,711933.3108464772,7029318.6607316015
56200000010109,56200000010109,Cort van der Lindenstr,Cort van der Lindenstraat,9801KP,9801KP,18,18.0,,,,,Zuidhorn,Zuidhorn,712016.2425353284,7029285.730931483
56200000010110,56200000010110,Cort van der Lindenstr,Cort van der Lindenstraat,9801KN,9801KN,19,19.0,,,,,Zuidhorn,Zuidhorn,711923.1656885784,7029308.771943182
56200000010111,56200000010111,Cort van der Lindenstr,Cort van der Lindenstraat,9801KP,9801KP,20,20.0,,,,,Zuidhorn,Zuidhorn,712006.1907721176,7029282.528400283
56200000015118,56200000015118,Anserstraat,De Nieuwe Gast,9801WK,9801WK,1,1.0,,,,,Zuidhorn,Zuidhorn,713436.4815489913,7029467.952964794
